



*-*-*


<!--
.style2 {
	font-family:"Courier New", Courier, monospace;
	font-size: 14px;
}
-->






SMBM01 VBRR 010000

AAXX 01004

48001 NIL=

48004 NIL=

48008 21550 71401 10205 20195 40095 71044 84970 333 20195 56330 58018

69902=09900

48010 21220 30000 10195 20192 40092 74244 83600 333 20187 56400 58014

60002=09900

48018 21550 70000 10200 20185 40092 74244 84870 333 20190 56550 58015

69002=00033

48019 21940 92301 10220 20220 40086 74722 333 20216 58025 60042=00044

48020 NIL=

48025 22410 60000 10214 20160 40097 70444 84840 333 20208 56590 58021

69902=09900

48030 22150 42201 10123 20102 84870 333 20112 56560 60002=00134

48031 31250 43201 10135 20107 70544 80042 333 20130 56099 60002=00066

48033 22560 41301 10230 20214 40104 82501 333 20210 56909 58017

 60022=00022

48034 22456 60000 10155 20139 84530 333 20145 56550 60032=00033

48035 31520 70000 10182 20165 40098 71022 85960 333 20175 56560

 59010=

48037 21520 80000 10212 20195 40087 70296 8572/ 333 20204 56559 58035

60122=00156

48039 32456 50000 10240 20181 83502 333 20238 56505=

48042 32556 53201 10256 20215 40091 82852 333 20242 56499 58018=

48043 32020 60000 10190 20159 80030 333 20150 56090=

48045 NIL=

48048 31550 51801 10240 20209 40091 71044 84950 333 20233 56490

 58016=

48051 22956 23602 10204 20190 80006 333 20201 56009 60172=00178

48052 32458 30402 10260 20203 83800 333 20250 56900=

48053 21530 70000 10250 20219 40086 75055 85850 333 20233 56590 59013

69902=09900

48055 31556 60000 10175 20150 40112 70522 84930 333 20162 56550

 59020=

48057 32456 62202 10180 20147 84830 333 20160 56590=

48060 32420 30000 10185 20153 40111 74144 81130 333 20160 56590

 59019=

48062 31540 50401 10230 20210 40111 71022 83836 333 20195 56199

 59000=SMO

48064 32556 50000 10261 20215 40070 83831 333 20205 56449 58003=

48065 32450 60000 10254 20186 83831 333 20234 56559=

48071 32456 33201 10248 20233 40113 83800 333 20230 56900 59002=

48072 NIL=

48074 31956 00000 10238 20191 40111 70500 333 20224 59004=

48075 31456 60000 10175 20170 40147 70522 84505 333 20170 56509

 58013=

48077 32556 20000 10238 20209 40094 81201 333 20214 56909 59003=

48078 32950 20000 10226 20177 40108 80002 333 20197 56009 59002=

48080 31456 30000 10213 20195 40113 71022 82206 333 20198 56909

 59010=SSM

48085 31950 20000 10212 20210 40112 74044 82800 333 20210 56700

 58001=SSL

48087 31930 00000 10190 20175 71044 333 20174=

48092 31/03 90000 10215 20203 40088 74744 333 20200 59017=

48093 32940 00000 10226 20214 333 20224=

48094 NIL=

48095 NIL=

48097 31556 22103 10235 20222 40110 71011 82400 333 20228 56900

 59005=

48099 32930 12701 10238 20226 40107 80001 333 20220 56009 58001=

48101 NIL=

48103 32540 30000 10238 20226 40108 83800 333 20227 56500 59007=

48107 32340 21301 10234 20214 40112 82900 333 20225 56500 59006=

48108 32596 50000 10230 20222 40114 82406 333 20220 56909 59013=

48109 NIL=

48110 31592 61802 10265 20242 40113 74244 84506 333 20260 56809

 59008=

48112 32597 80402 10267 20240 40114 83876 333 20221 56199 58002=

ZTU   32956 23601 10194 20159 80006 333 20168 56009=

ANN   32556 50000 10220 20220 40110 83930 333 20212 56690 58000=

48047 32550 52201 10240 20174 83950 333 20232 56660=

48067 32450 31801 10270 20154 81540 333 20240 56490=  





