



*-*-*


<!--
.style2 {
	font-family:"Courier New", Courier, monospace;
	font-size: 14px;
}
-->






SMBM01 VBRR 010000 RRA

AAXX 01004

48051 32556 43602 10200 20200 83230 333 20190 56790=

48062 31430 50000 10210 20200 40131 71011 83831 333

20190 56990 59020=

48071 31420 40000 10228 20214 40128 74042 84800 333

20220 56800 59021=

48075 31456 20000 10140 20124 40173 71044 82500 333

20140 56500 59028 60002=

48077 32556 50000 10220 20205 40129 83901 333 20200

56909 59013=

48078 32550 20000 10220 20205 40134 81501 333 20215

56909 59018=

48080 31408 30000 10225 20214 40134 74044 333 20205

56990 59004=

48085 31450 30000 10204 20200 40126 71044 81806 333

20203 56909 59005=

48108 31595 40901 10240 20233 40125 71011 82406 333

20215 56909 59010 60002=

48110 31596 50000 10250 20233 40122 70522 81406 333

20250 56909 59008=

48112 22597 80405 10260 20246 40112 83876 333 20200

56199 59015 60012=

48087 31920 00000 10190 20175 74244 333 20180=

48099 31330 20000 10240 20226 40128 71044 82800 333

20223 56900 59017=

48103 31440 30401 10232 20232 40127 74244 82830 333

20231 56110 59018=

48094 32956 10000 10230 20210 40133 80001 333 20220

56009 59003=

48097 32556 22302 10230 20222 40139 70511 82500 333

20215 56900 59009=

48092 31530 10000 10220 20212 40111 71011 81400 333

20210 56900 59011 60002=

48093 32950 00000 10233 20227 333 20228=

48107 31930 20901 10235 20214 40114 74144 80006 333

20230 56009 59014=

48096 31550 43202 10230 20214 40134 71011 81501 333

20220 56909 59012=  
SMBM01 VBRR 010000 RRB

AAXX 01004

48078 32550 20000 10220 20205 40134 81501 333 20215

56909 59018=  
SMBM01 VBRR 010000

AAXX 01004

48051 32556 43602 10200 20200 83230 333 20190 56790=

48062 31430 50000 10210 20200 40131 71011 83831 333

20190 56990 59020=

48071 31420 40000 10228 20214 40128 74042 84800 333

20220 56800 59021=

48075 31456 20000 10140 20124 40173 71044 82500 333

20140 56500 59028 60002=

48077 32556 50000 10220 20205 40129 83901 333 20200

56909 59013=

48078 32550 20000 10220 20205 40134 81501 333 20215

56909 59018=

48080 31408 30000 10225 20214 40134 74044 333 20205

56990 59004=

48085 31450 30000 10204 20200 40126 71044 81806 333

20203 56909 59005=

48108 31595 40901 10240 20233 40125 71011 82406 333

20215 56909 59010 60002=

48110 31596 50000 10250 20233 40122 70522 81406 333

20250 56909 59008=

48112 22597 80405 10260 20246 40112 83876 333 20200

56199 59015 60012=

48087 31920 00000 10190 20175 74244 333 20180=

48099 31330 20000 10240 20226 40128 71044 82800 333

20223 56900 59017=

48103 31440 30401 10232 20232 40127 74244 82830 333

20231 56110 59018=

48094 32956 10000 10230 20210 40133 80001 333 20220

56009 59003=

48097 32556 22302 10230 20222 40139 70511 82500 333

20215 56900 59009=

48092 31530 10000 10220 20212 40111 71011 81400 333

20210 56900 59011 60002=

48093 32950 00000 10233 20227 333 20228=

48107 31930 20901 10235 20214 40114 74144 80006 333

20230 56009 59014=

48096 31550 43202 10230 20214 40134 71011 81501 333

20220 56909 59012=  





