



*-*-*


<!--
.style2 {
	font-family:"Courier New", Courier, monospace;
	font-size: 14px;
}
-->






SMBM01 VBRR 010600

AAXX 01064

48001 32556 30401 10190 20175 40159 83101 333 56801

59013=

48004 32562 30401 10240 20174 83800 333 56800=

48008 32458 50000 10257 20167 40142 82830 333 56450

59028=

48010 32560 61801 10270 20191 40140 86800 333 56500

59030=

48018 32559 31401 10275 20191 40139 82840 333 56130

59040=

48019 32960 10402 10277 20184 40138 80002 333 56007

59026=

48020 32462 53603 10270 20211 83830 333 56550=

48025 32456 40401 10270 20211 40151 83840 333 56550

59030=

48035 31560 33201 10236 20176 40119 70544 83800 333

56900 59011=

48037 32958 03601 10292 20175 40149 333 59006=

48042 32558 20801 10290 20179 40132 82800 333 56500

59011=

48045 31510 61404 10180 20165 74044 86800 333 56300=

48048 32560 23201 10300 20207 40135 82800 333 56500

59022=

48051 32560 03103 10278 20200 70100 333 56000=

48053 32456 53601 10300 20207 40131 83550 333 56490

59008=

48060 32440 32201 10220 20156 40163 82130 333 56440

59019=

48062 32957 03603 10285 20240 40138 333 59014=

48071 32958 03202 10285 20248 40136 333 59015=

48075 32458 23202 10270 20133 40117 70111 80004 333

56009 59027=

48077 32559 20000 10310 20203 40125 81201 333 56909

59018=

48078 32558 23201 10316 20219 40124 81101 333 56909

59031=

48080 32962 03203 10312 20226 40134 333 59011=

48085 32458 13204 10310 20254 40129 70100 81100 333

56100 59010=

48095 32960 00000 10310 20237 333=

48108 32596 50502 10345 20239 40119 83306 333 56209

59012=

48109 NIL=

48110 31996 63203 10340 20257 40109 70522 80006 333

56009 59017=

48112 32597 80402 10295 20262 40113 70222 83876 333

56199 58007=

48030 32257 52202 10198 20085 82840 333 56560=

48072 32961 03203 10295 20223 70111 333=

48087 32960 20603 10325 20236 70110 80001 333 56009=

48099 32557 22302 10338 20240 40119 82800 333 56500

59011=

48101 32660 13201 10293 20248 70311 81100 333 56900=

48103 32457 30403 10342 20225 40117 83800 333 56100

59009=

48057 32458 12202 10230 20124 81500 333 56600=

48094 32965 10402 10320 20245 40129 80001 333 56009

59014=

48097 32557 22101 10340 20225 40116 70211 81501 333

56909 59025=

48031 32253 62201 10205 20150 84840 333 56490=

48033 32963 03601 10290 20196 40118 333 59020=

48034 32457 21802 10238 20155 84800 333 56500=

48039 32460 50000 10286 20230 83850 333 56550=

48043 32557 51806 10225 20181 85200 333 56600=

48052 32458 23601 10320 20215 82200 333 56900=

48055 32556 12202 10256 20164 40113 81100 333 56500

59022=

48064 32460 11401 10272 20226 40121 81100 333 56409

59024=

48065 32557 12201 10305 20203 81800 333 56900=

48074 32459 20403 10290 20230 40139 82100 333 56900

59011=

48092 32557 13201 10335 20209 40109 81400 333 56900

59010=

48093 32658 21401 10341 20240 70311 81101 333 56109=

48107 32950 01301 10340 20225 40110 333 59008=

48096 32959 02506 10330 20212 40126 333 59012=  
SMBM01 VBRR 010600 RRA

AAXX 01064

48035 31560 33201 10236 20176 40119 70544 83800 333

56900 59011=

48043 32557 51806 10225 20181 85200 333 56600=  
SMBM01 VBRR 010600 RRA

AAXX 01064

48035 31560 33201 10236 20176 40119 70544 83800 333

56900 59011=

48043 32557 51806 10225 20181 85200 333 56600=  





