



*-*-*


<!--
.style2 {
	font-family:"Courier New", Courier, monospace;
	font-size: 14px;
}
-->






SMBM01 VBRR 011800 RRA

AAXX 01184

48008 31510 50000 10190 20175 40153 71044 83930 333 56110 58014=

48010 32003 00000 10155 20152 40167 333 58020=

48018 32920 00000 10160 20144 40170 333 58021=

48025 32907 03601 10180 20147 40167 333 58008=

48042 32950 00000 10196 20150 40154 333 58019=

48053 32940 03201 10180 20129 40145 333 58019=

48057 31939 01801 10142 20124 71000 333 56000=

48060 32410 30000 10170 20154 40154 81170 333 56590 59004=

48062 31540 43202 10200 20190 40154 71011 84500 333 56900 58007= 

48071 32930 00000 10220 20185 40146 333 58001=

48078 NIL=

48080 31950 03201 10160 20144 40161 70500 333 58009=

48094 32950 00000 10220 20190 40146 333 58002=

48097 32956 03101 10230 20214 40139 333 59005=

48099 32440 30000 10246 20219 40137 83700 333 56900 58003=

48108 31596 50502 10230 20198 40150 71022 82407 333 56909 58007=

48109 32495 30000 10260 20229 40143 70222 83800 333 56900 58006=

48110 31994 30000 10245 20198 40147 70511 80006 333 56009 59000=

48112 32597 80403 10262 20215 40130 83876 333 56199 58004=  





