



*-*-*


<!--
.style2 {
	font-family:"Courier New", Courier, monospace;
	font-size: 14px;
}
-->






SMBM01 VBRR 011200

AAXX 01124

48001 32450 70000 10275 20203 40061 85950 333 10310 56210 59023=

48004 32460 60000 10290 20267 86900 333 10348 56500=

48008 32556 30000 10320 20200 40055 82430 333 10350 56560 59016=

48010 32550 50000 10305 20239 40052 82830 333 10322 56550 59021=

48018 31556 21401 10340 20206 40055 8387/ 333 10365 56559 59002=

48019 32456 30402 10334 20234 40049 80060 333 10345 56060 59019=

48020 32458 70000 10305 20225 85770 333 10350 56550=

48025 32456 53202 10344 20206 40052 83840 333 10375 56550 59024=

48030 21256 72204 10180 20129 70155 85970 333 10260 56560 69902=

48031 32257 82201 10200 20130 86802 333 10237 56409=

48033 32562 42701 10350 20237 40044 82506 333 10380 56909 59016=

48034 32456 20000 10260 20179 82500 333 10293 56500=

48035 32556 30000 10284 20184 40028 83800 333 10321 56900 59027=

48037 32556 80000 10375 20255 40034 8433/ 333 10205 56669 58000=

48039 32460 50000 10350 20202 83802 333 10384 56609=

48042 32558 30000 10365 20201 40032 81202 333 10393 56909 59011=

48043 32020 00000 10220 20185 333 10305=

48045 31456 72305 10241 20114 70444 87300 333 10306 56500=

48048 32550 40401 10372 20246 40030 83950 333 10420 56490 59011=

48051 22558 83102 10338 20220 85930 333 10366 56590 60012=

48052 32450 32202 10390 20210 83800 333 10432 56900=

48053 32550 41803 10360 20195 40042 84900 333 10382 56500 59001=

48055 32556 70405 10301 20166 40031 85930 333 10331 56590 59012=

48057 32456 31401 10260 20138 83300 333 10290 56400=

48060 32440 30000 10290 20179 40054 82130 333 10326 56560 59010=

48062 32556 52704 10315 20290 40080 84930 333 10333 56690 59003=

48064 32950 10402 10370 20258 40030 80001 333 10416 56009 59019=

48065 32950 03201 10373 20190 333 10416=

48071 32956 03203 10315 20248 40084 333 10345 59004 60002=

48072 32960 02703 10320 20265 333 10350=

48074 32958 00000 10360 20235 40052 333 10387 59007=

48075 32456 22701 10300 20180 40046 81101 333 10332 56509 59023

 60002=

48077 32556 72301 10318 20215 40042 85901 333 10380 56909 59020=

48078 32556 21801 10368 20236 40053 81201 333 10395 56909 59010=

48080 33255 32202 10310 20267 40074 82870 333 10370 56900 59016

 60002=

48085 32458 42704 10304 20253 40077 83806 333 10343 56709 59009

 60002=

48087 32950 22302 10336 20225 80041 333 10392 56099=

48092 31456 42302 10355 20252 40044 70522 84300 333 10385 56900

 59005=

48093 32650 30401 10328 20224 82801 333 10384 56509=

48094 32456 33202 10318 20250 40075 83900 333 10375 56900 59011=

48095 32956 02203 10350 20237 333 10385 60002=

48097 32556 62301 10345 20238 40083 86800 333 10380 56900 59007=

48099 32456 53204 10320 20236 40063 83802 333 10358 56509 59009=

48101 32556 62701 10332 20244 83331 333 10362 56999 60002=

48103 32450 32202 10310 20237 40070 83800 333 10358 56500 59012=

48107 32340 40000 10304 20223 40084 84900 333 10350 56700 59006=

48108 32596 63202 10310 20267 40088 83366 333 10355 56659 59003

 60002=

48109 32496 50401 10318 20265 40095 83906 333 10348 56909 59006=

48110 32596 63203 10315 20259 40084 82306 333 10345 56909 59009=

48112 32597 80403 10313 20254 40080 83876 333 10362 56199 59021=  
SMBM01 VBRR 011200

AAXX 01124
48001 32450 70000 10275 20203 40061 85950 333 10310 56210 59023=
48004 32460 60000 10290 20267 86900 333 10348 56500=
48008 32556 30000 10320 20200 40055 82430 333 10350 56560 59016=
48010 32550 50000 10305 20239 40052 82830 333 10322 56550 59021=
48018 31556 21401 10340 20206 40055 8387/ 333 10365 56559 59002=
48019 32456 30402 10334 20234 40049 80060 333 10345 56060 59019=
48020 32458 70000 10305 20225 85770 333 10350 56550=
48025 32456 53202 10344 20206 40052 83840 333 10375 56550 59024=
48030 21256 72204 10180 20129 70155 85970 333 10260 56560 69902=
48031 32257 82201 10200 20130 86802 333 10237 56409=
48033 32562 42701 10350 20237 40044 82506 333 10380 56909 59016=
48034 32456 20000 10260 20179 82500 333 10293 56500=
48035 32556 30000 10284 20184 40028 83800 333 10321 56900 59027=
48037 32556 80000 10375 20255 40034 8433/ 333 10205 56669 58000=
48039 32460 50000 10350 20202 83802 333 10384 56609=
48042 32558 30000 10365 20201 40032 81202 333 10393 56909 59011=
48043 32020 00000 10220 20185 333 10305=
48045 31456 72305 10241 20114 70444 87300 333 10306 56500=
48048 32550 40401 10372 20246 40030 83950 333 10420 56490 59011=
48051 22558 83102 10338 20220 85930 333 10366 56590 60012=
48052 32450 32202 10390 20210 83800 333 10432 56900=
48053 32550 41803 10360 20195 40042 84900 333 10382 56500 59001=
48055 32556 70405 10301 20166 40031 85930 333 10331 56590 59012=
48057 32456 31401 10260 20138 83300 333 10290 56400=
48060 32440 30000 10290 20179 40054 82130 333 10326 56560 59010=
48062 32556 52704 10315 20290 40080 84930 333 10333 56690 59003=
48064 32950 10402 10370 20258 40030 80001 333 10416 56009 59019=
48065 32950 03201 10373 20190 333 10416=
48071 32956 03203 10315 20248 40084 333 10345 59004 60002=
48072 32960 02703 10320 20265 333 10350=
48074 32958 00000 10360 20235 40052 333 10387 59007=
48075 32456 22701 10300 20180 40046 81101 333 10332 56509 59023
 60002=
48077 32556 72301 10318 20215 40042 85901 333 10380 56909 59020=
48078 32556 21801 10368 20236 40053 81201 333 10395 56909 59010=
48080 33255 32202 10310 20267 40074 82870 333 10370 56900 59016
 60002=
48085 32458 42704 10304 20253 40077 83806 333 10343 56709 59009
 60002=
48087 32950 22302 10336 20225 80041 333 10392 56099=
48092 31456 42302 10355 20252 40044 70522 84300 333 10385 56900
 59005=
48093 32650 30401 10328 20224 82801 333 10384 56509=
48094 32456 33202 10318 20250 40075 83900 333 10375 56900 59011=
48095 32956 02203 10350 20237 333 10385 60002=
48097 32556 62301 10345 20238 40083 86800 333 10380 56900 59007=
48099 32456 53204 10320 20236 40063 83802 333 10358 56509 59009=
48101 32556 62701 10332 20244 83331 333 10362 56999 60002=
48103 32450 32202 10310 20237 40070 83800 333 10358 56500 59012=
48107 32340 40000 10304 20223 40084 84900 333 10350 56700 59006=
48108 32596 63202 10310 20267 40088 83366 333 10355 56659 59003
 60002=
48109 32496 50401 10318 20265 40095 83906 333 10348 56909 59006=
48110 32596 63203 10315 20259 40084 82306 333 10345 56909 59009=
48112 32597 80403 10313 20254 40080 83876 333 10362 56199 59021=  





