



*-*-*


<!--
.style2 {
	font-family:"Courier New", Courier, monospace;
	font-size: 14px;
}
-->






SMBM01 VBRR 010000

AAXX 01004

48001 NIL=

48004 NIL=

48008 NIL=

48010 NIL=

48018 22430 80000 10212 20210 40175 70222 8577/ 333

20210 56999 58002 69902=

48019 32440 80000 10209 20185 40174 8577/ 333 20207

56499 58005 60002=

48020 22340 80000 10210 20203 70222 889// 333 20195

56899 60312=

48025 21110 80000 10216 20205 40175 70265 8577/ 333

20202 56899 58014 60142=

48035 NIL=

48037 NIL=

48042 21450 80000 10227 20227 40168 75055 8597/ 333

20212 56889 58016 60022=

48045 NIL=

48048 NIL=

48051 NIL=

48053 NIL=

48060 21420 80000 10202 20200 40173 76165 8587/ 333

20195 5669/ 58009 69902=

48062 NIL=

48071 NIL=

48075 NIL=

48077 NIL=

48078 NIL=

48080 NIL=

48085 NIL=

48095 NIL=

48108 NIL=

48109 NIL=

48110 NIL=

48112 NIL=

48030 21/05 90401 10130 20130 75065 89/// 333 20118

56999 60022=

48072 NIL=

48087 NIL=

48099 NIL=

48101 NIL=

48103 NIL=

48057 NIL=

48094 NIL=

48097 NIL=

48031 NIL=

48033 22458 73601 10220 20220 40157 75055 86930 333

20210 56490 59002 60042=

48034 21456 82301 10162 20155 75165 8692/ 333 20155

5659/ 60042=

48039 21450 80000 10222 20222 75355 887// 333 20220

56999 60032=

48043 NIL=

48052 22450 80000 10220 20220 85970 333 20214 56990=

48055 21140 80402 10177 20183 75065 8692/ 333 20173

5619/ 58012 60042=

48064 22450 80000 10222 20205 40161 70222 84870 333

20189 56440 59036=

48065 22440 80402 10232 20198 70222 8587/ 333 20200

5688/=

48074 NIL=

48092 NIL=

48093 NIL=

48107 NIL=

48096 NIL=  
SMBM01 VBRR 010000 RRA

AAXX 01004

48004 21110 80000 10202 20202 75165 8697/ 333 20140

56559 60092=

48051 21458 83606 10210 20210 75155 86920 333 20210

56690 60142=

48062 21350 80403 10225 20220 40137 70262 86970 333

20210 56990 58011 60062=

48071 32450 40504 10240 20226 40131 83830 333 20225

56990 58010=

48075 21456 70000 10180 20155 40183 70396 85770 333

20175 56590 58029 60212=

48077 32556 70000 10230 20214 40153 85931 333 20210

56999 58022=

48078 22450 83203 10231 20214 40151 8572/ 333 20228

56899 58017 69902=

48080 32456 60000 10235 20226 40137 84830 333 20225

56390 58014=

48085 31356 61801 10230 20228 40127 74044 82876 333

20228 56999 58012 60002=

48108 31494 63603 10234 20228 40116 71022 83806 333

20220 56909 59007=

48087 32950 30404 10226 20214 80041 333 20210 56099=

48099 21440 30401 10248 20233 40130 70322 82730 333

20236 56990 58015 60042=

48103 32330 30402 10248 20233 40135 82730 333 20224

56110 58013 60002=

48097 32557 42302 10225 20217 40143 70211 82506 333

20220 56909 58012=

48092 31440 73202 10220 20220 40121 71011 85370 333

20215 56990 58014 60002=

48093 32950 11401 10238 20226 80001 333 20234 56009=

48107 31330 40000 10230 20214 40124 74144 82806 333

20227 56309 58005 60002=

48096 32456 53404 10220 20205 40146 83741 333 20210

56499 58013=  
SMBM01 VBRR 010000 RRB

AAXX 01004

48010 21420 80000 10205 20205 40173 76166 8572/ 333

20200 56449 58012 60052=

48035 21120 80000 10181 20180 40184 76266 8692/ 333

20174 56999 58000 60032=

48037 21430 80000 10225 20214 40169 76266 8582/ 333

20220 56459 58012 60092=

48048 21458 80000 10227 20214 40165 75065 8697/ 333

20220 5649/ 58009 60112=

48053 22450 83601 10220 20195 40162 8557/ 333 20217

56899 58019=

48057 21250 80000 10160 20160 71055 8697/ 333 20152

5649/ 60032=

48043 21510 80505 10155 20155 76166 8672/ 333 20126

56999 60042=

48074 32457 70000 10230 20214 40150 84560 333 20229

56990 58016=  





