



*-*-*


<!--
.style2 {
	font-family:"Courier New", Courier, monospace;
	font-size: 14px;
}
-->






SIBM20 VBRR 010900

AAXX 01094

48001 32550 20000 10325 20258 40090 82200 333 56100

58026=

48004 32562 32201 10360 20264 83800 333 56500=

48008 32557 51801 10350 20244 40083 83830 333 56440

58012=

48010 22558 60000 10285 20268 40100 85830 333 56440

58021=

48018 32560 40401 10342 20270 40097 82862 333 56766

58025=

48019 32460 42702 10350 20240 40085 82203 333 56507

58014=

48020 NIL=

48025 21330 81402 10233 20233 40115 79596 8592/ 333

56669 58034=

48035 32560 63202 10329 20234 40054 83861 333 56349

59002=

48037 21558 83601 10361 20278 40073 79596 85302 333

56209 58001=

48042 32560 53601 10355 20252 40067 84902 333 56709

59002=

48045 31557 71402 10212 20175 79599 87300 333 56300=

48048 32560 71801 10330 20258 40081 85950 333 56490

58000=

48051 NIL=

48053 31450 71307 10300 20253 40093 71799 85950 333

56290 58019=

48060 32356 30000 10310 20225 40054 82102 333 56406

59058=

48062 NIL=

48071 NIL=

48075 NIL=

48077 NIL=

48078 NIL=

48080 NIL=

48085 NIL=

48095 NIL=

48108 NIL=

48109 NIL=

48110 NIL=

48112 NIL=

48030 NIL=

48072 NIL=

48087 NIL=

48099 NIL=

48101 NIL=

48103 NIL=

48057 NIL=

48094 NIL=

48097 NIL=

48031 31257 81801 10255 20215 71799 883// 333 56499=

48033 32562 73601 10310 20254 40092 86970 333 56880

58020=

48034 31456 60907 10250 20195 71799 86300 333 56500=

48039 32460 50000 10345 20270 82902 333 56404=

48043 21540 81805 10250 20250 76166 8672/ 333 56999=

48052 32468 40000 10374 20291 84800 333 56900=

48055 32557 40904 10317 20230 40064 83301 333 56309

58013=

48064 32560 60000 10345 20297 40061 84831 333 56449

59005=

48065 32457 70000 10342 20270 85870 333 56990=

48074 32460 70402 10340 20270 40100 85361 333 56889

58016=

48092 NIL=

48093 NIL=

48107 NIL=

48096 NIL=  





