



*-*-*


<!--
.style2 {
	font-family:"Courier New", Courier, monospace;
	font-size: 14px;
}
-->






SMBM01 VBRR 020000

AAXX 02004

48001 NIL=

48004 NIL=

48008 31456 50000 10200 20168 40079 71044 83970 333 20187 56560

59016=

48010 32520 70000 10215 20205 40071 83771 333 20200 56669 59021=

48018 32556 62201 10210 20175 40082 83870 333 20190 56550 59010=

48019 32450 80000 10192 20175 40071 85770 333 20190 56450 59009=

48020 NIL=

48025 31410 63202 10250 20167 40070 70444 84840 333 20242 56590

59027=

48030 21456 12205 10150 20073 70166 80040 333 20124 56060 69902=

48031 21256 30401 10140 20107 70196 82800 333 20120 56400 60032=

48033 32560 20000 10240 20209 40089 82500 333 20220 56900 59015=

48034 32456 20000 10148 20134 82500 333 20128 56500=

48035 21520 80000 10181 20147 40089 71055 8597/ 333 20160 56569

59009=

48037 22530 40000 10236 20209 40055 82830 333 20230 56550 59032

69902=

48039 32456 70000 10249 20186 83560 333 20244 56550=

48042 32556 71301 10265 20220 40074 84950 333 20252 56440 59017=

48043 32620 50000 10170 20154 84830 333 20135 56990=

48045 NIL=

48048 32550 51801 10245 20209 40068 84850 333 20238 56490 59023=

48051 32556 13602 10218 20210 70111 81500 333 20210 56600=

48052 32450 40000 10255 20203 84800 333 20245 56900=

48053 32950 21801 10250 20205 40066 80006 333 20250 56009 59020=

48055 31556 20000 10133 20113 40109 70511 82501 333 20120 56509

59003=

48057 32956 41801 10170 20135 80006 333 20154 56009=

48060 31920 10000 10165 20140 40100 71011 80030 333 20146 56090

59011=

48062 31550 20000 10240 20240 40097 71044 82500 333 20164 56900

59015=

48064 32950 10000 10254 20205 40060 80001 333 20201 56009 59010=

48065 32950 10000 10248 20205 80001 333 20230 56009=

48071 31450 33201 10250 20233 40095 71040 83800 333 20240 56900

59018=

48072 NIL=

48074 31456 20000 10245 20191 40085 70500 81401 333 20230 56909

59026=

48075 31456 40000 10180 20170 40114 70522 82505 333 20170 56509

59033=

48077 32556 60000 10240 20209 40078 84931 333 20214 56999 59016=

48078 32950 21801 10240 10191 40088 80001 333 20223 56009 59020=

48080 31440 50000 10230 20214 40093 71022 82870 333 20220 56990

59020=

48085 32456 40000 10230 20214 40092 81876 333 20228  56999 59020=

48087 32550 50000 10200 20185 84841 333 20180 56999=

48092 31950 00000 10235 20228 40073 71000 333 20210 59016=

48093 32950 11401 10240 20226 80001 333 20237 56009=

48094 32456 20000 10250 20230 40097 70222 82500 333 20210 56900

59020=

48095 NIL=

48097 32557 62301 10245 20189 40107 83536 333 20205 56999 59004=

48099 32450 30000 10240 20209 40097 82801 333 20225 56909 59009=

48101 NIL=

48103 32440 32201 10233 20198 40091 83500 333 20223 56500 59017=

48107 32220 62301 10212 20195 40101 84900 333 20202 56500 59001=

48108 31593 50501 10220 20205 40102 74244 82436 333 20205 56999

59012=

48109 31496 20000 10235 20226 40104 71022 82500 333 20225 56900

58001=

48110 31596 41302 10260 20246 40095 70522 82506 333 20255 56609

59018=

48112 22597 80401 10255 20246 40104 83876 333 20199 56199 59010

60052=  





