



*-*-*


<!--
.style2 {
	font-family:"Courier New", Courier, monospace;
	font-size: 14px;
}
-->






SIBM20 VBRR 020300

AAXX 02034
48001 31440 80000 10190 20175 40118 72022 8577/ 333 56459 59008=
48004 32256 80402 10234 20163 8697/ 333 56559=
48008 21456 70401 10225 20184 40105 70544 84970 333 56110 59003=
48010 31556 70000 10245 20191 40086 71044 87800 333 56500 59016=
48018 32559 52201 10260 20203 40102 83870 333 56550 59019=
48019 32960 33202 10246 20174 40093 80003 333 56006 59010=
48020 22257 73602 10230 20206 85730 333 56550=
48025 31440 63201 10270 20172 40092 70444 84840 333 56690 59021=
48030 22256 22208 10163 20106 80050 333 56060=
48031 21260 40401 10170 20117 70544 84800 333 56500=
48033 32562 31801 10300 20207 40081 83500 333 56500 59026=
48034 32456 60402 10225 20139 86300 333 56500=
48035 NIL=
48037 32950 13201 10276 20203 40090 80002 333 56009 59020=
48039 32458 62201 10291 20196 84860 333 56770=
48042 32557 61302 10212 20203 40090 84950 333 56440 59015=
48043 32656 53202 10230 20143 84830 333 56590=
48045 32562 12308 10225 20074 81100 333 56500=
48048 32960 01801 10320 20200 40091 333 59017=
48051 32958 00402 10270 20230 70100=
48052 32958 00000 10322 20236=
48053 31940 22203 10310 20225 40090 70511 80006 333 56009 59020=
48055 31556 12303 10248 20105 40092 70511 81500 333 56500 58001=
48057 32458 11401 10230 20143 81500 333 56900=
48060 31430 30000 10244 20155 40081 70544 81132 333 56566 59013=
48062 32956 00904 10290 20240 40115 333 59017=
48064 32960 01401 10310 20225 40077 333 59013=
48065 32965 20403 10310 20203 80001 333 56009=
48071 32458 63202 10293 20248 40116 86800 333 56700 59014=
48072 32459 40402 10290 20248 70322 83830 333 56690=
48074 32959 01403 10290 20196 40101 333 59021=
48075 31457 11401 10270 20170 40094 70511 81100 333 56700 59026=
48077 32959 02301 10290 20196 40098 333 59016=
48078 32957 21801 10289 20206 40112 80001 333 56009 59017=
48080 31459 53202 10290 20259 40122 83876 333 56699 59018=
48085 32458 33203 10300 20239 40104 83800 333 56700 59024=
48087 32960 00000 10292 20215=
48092 31456 52303 10280 20250 40094 70522 83410 333 56990 59015=
48093 32658 61401 10276 20220 84841 333 56399=
48094 32459 43202 10295 20250 40115 70322 83940 333 56990 59012=
48095 32958 32201 10300 20239 70200 80002 333 56009=
48097 32557 62301 10280 20203 40126 70222 83506 333 56909 58003=
48099 32456 32301 10305 20207 40110 82801 333 56509 59012=
48101 32558 53203 10280 20250 70322 83411 333 56799=
48103 32456 32202 10308 20225 40107 83500 333 56500 59013=
48107 32350 42701 10306 20225 40110 84900 333 56500 59006=
48108 31596 43205 10305 20238 40122 70144 82806 333 56609 59014=
48109 32497 20401 10300 20239 40129 70222 82500 333 56900 59009=
48110 31596 32302 10315 20259 40118 70511 82305 333 56709 59007=
48112 22598 60402 10300 20253 40120 70122 82216 333 56199 59006=  





