



*-*-*


<!--
.style2 {
	font-family:"Courier New", Courier, monospace;
	font-size: 14px;
}
-->






SMBM01 VBRR 020600

AAXX 02064

48001 31430 81201 10200 20185 40105 75055 8672/ 333 56569 59016=

48004 32358 80401 10275 20184 8797/ 333 56559=

48008 31557 50401 10280 20158 40084 70544 83930 333 56170 59010=

48010 31556 70000 10300 20207 40068 71044 85821 333 56669 59013=

48018 32560 62202 10302 20185 40085 83870 333 56550 59020=

48019 31556 62302 10370 20185 40078 70500 80006 333 56006 59020=

48020 32460 33604 10320 20236 83800 333 56500=

48025 31440 43201 10360 20132 40067 70444 83840 333 56550 59034=

48030 32256 22209 10206 20072 82800 333 56500=

48031 31260 31401 10235 20124 70544 83800 333 56900=

48033 32963 01801 10360 20195 40064 333 59035=

48034 32457 42302 10280 20098 84800 333 56500=

48035 31558 62202 10303 20098 40046 70500 84960 333 56560 59004=

48037 32659 10401 10340 20184 40061 80002 333 56009 59038=

48039 32459 11401 10355 20177 81100 333 56500=

48042 32556 11802 10380 20159 40069 81200 333 56900 59024=

48043 32757 63205 10275 20146 85830 333 56990=

48045 32563 42312 10275 20043 84300 333 56500=

48048 32962 03601 10390 20177 40070 333 59028=

48051 32558 51301 10374 20210 70322 84830 333 56690=

48052 32970 03202 10385 20154 333=

48053 31950 01803 10360 20245 40081 70500 333 59011=

48055 32556 52704 10310 20146 40045 84301 333 56509 59041=

48057 32460 62204 10270 20113 83306 333 56609=

48060 32440 42203 10230 20140 40058 82130 333 56560 58007=

48062 32558 42707 10320 20280 40105 70122 84900 333 56600 59019=

48064 32970 01401 10396 20246 40052 333 59039=

48065 32970 00402 10381 20187 333=

48071 32460 23203 10310 20254 40119 82800 333 56700 59012=

48072 32460 42704 10330 20258 70222 83830 333 56490=

48074 32561 22203 10352 20202 40094 81101 333 56909 59012=

48075 31558 43201 10330 20130 40062 70522 84800 333 56500 59034=

48077 32559 20000 10370 20171 40080 81201 333 56909 59024=

48078 32958 11801 10361 20177 40089 80001 333 56009 59022=

48080 32462 53208 10330 20275 40111 84830 333 56590 59006=

48085 32958 23207 10324 20236 40105 82806 333 56009 59019=

48087 32960 32304 10358 20195 80041 333 56099=

48092 32457 52306 10350 20266 40077 70222 84810 333 56990 59015=

48093 32658 43201 10324 20236 70122 83801 333 56509=

48094 32460 33203 10345 20240 40105 83900 333 56900 59014=

48095 32460 12202 10355 20237 70122 81200 333 56900=

48096 32558 52701 10340 20206 40097 70222 83830 333 56990 59016=

48097 32557 52303 10340 20206 40111 83806 333 56909 59002=

48099 32558 42302 10345 20206 40092 83802 333 56509 59017=

48101 32660 22702 10330 20224 70111 81101 333 56909=

48103 32457 22202 10346 20202 40096 82800 333 56500 59015=

48107 32350 22302 10348 20237 40096 82900 333 56500 59011=

48108 32596 43210 10350 20240 40110 83305 333 56609 59013=

48109 32497 20401 10325 20234 40124 70222 82500 333 56900 59005=

48110 31596 33204 10335 20257 40109 70511 82305 333 56909 59006=

48112 32598 60402 10330 20288 40110 70222 82216 333 56199 59005=  





