



*-*-*


<!--
.style2 {
	font-family:"Courier New", Courier, monospace;
	font-size: 14px;
}
-->






SIBM20 VBRR 020900

AAXX 02094

48001 32450 20000 10230 20214 40127 82100 333 56500

59002=

48004 32358 62201 10249 20186 86900 333 56500=

48008 32556 80000 10250 20186 40133 8497/ 333 56779

58012=

48010 32558 60000 10250 20186 40130 84730 333 56550

58012=

48018 32556 80000 10255 20186 40148 8487/ 333 56439

58020=

48019 32457 80000 10237 20191 40129 85670 333 56550

58016=

48020 NIL=

48025 32440 83201 10253 20205 40131 8587/ 333 56559

58013=

48035 31557 82702 10234 20181 40100 70522 8597/ 333

56569 58020=

48037 32558 83201 10274 20211 40110 8587/ 333 56669

58010=

48042 31556 70000 10290 20215 40110 70522 84850 333

56960 58001=

48045 31550 82303 10191 20175 74144 887// 333 56599=

48048 32560 60401 10295 20207 40114 85950 333 56890

58008=

48051 32558 73104 10261 20200 85830 333 56790=

48053 32456 73601 10310 20203 40104 83556 333 56699

59000=

48060 32440 42202 10273 20172 40130 82132 333 56566

59010=

48062 32456 70401 10310 20270 40116 84970 333 56990

58003=

48071 32960 03204 10287 20230 40116 333 58000=

48075 32958 00401 10300 20149 40101 333 58004=

48077 32959 00000 10330 20201 40104 333 58002=

48078 32959 30401 10327 20212 40106 82501 333 56509

58009=

48080 32961 02207 10300 20239 40112 333 58002=

48085 31958 02703 10310 20254 40110 333 58002=

48095 32460 40000 10328 20248 84800 333 56900=

48108 32596 72302 10330 20244 40098 84366 333 56699

59006=

48109 NIL=

48110 31596 71803 10330 20251 40099 70522 82356 333

56999 58007=

48112 32597 80406 10317 20248 40082 83876 333 56199

59002=

48030 32256 82201 10170 20097 8687/ 333 56569=

48072 32460 13201 10300 20223 81200 333 56900=

48087 32960 00000 10340 20240 333=

48099 32556 32301 10356 20249 40096 82801 333 56509

58004=

48101 32660 11801 10343 20225 81200 333 56900=

48103 32457 31402 10357 20235 40099 83800 333 56300

58005=

48057 32457 62201 10250 20046 81556 333 56599=

48094 32965 00401 10330 20235 40108 333 58003=

48097 32557 60401 10340 20232 40114 86800 333 56900

58001=

48031 32558 83601 10170 20135 888// 333 56499=

48033 32563 60000 10260 20215 40118 86900 333 56900

58015=

48034 32456 81802 10220 20156 8637/ 333 5659/=

48039 32458 80412 10280 20220 83870 333 56550=

48043 32556 73203 10235 20174 85230 333 56690=

48052 31456 72403 10346 20212 70522 85830 333 56990=

48055 32557 51304 10270 20182 40090 83530 333 56660

58014=

48064 32560 31401 10280 20233 40094 82830 333 56490

58001=

48065 32558 30000 10330 20212 81130 333 56990=

48074 32459 21401 10320 20200 40116 82500 333 56900

58013=

48092 32458 33201 10350 20182 40082 82840 333 56990

59003=

48093 32958 00401 10335 20224 333=

48107 32350 20401 10350 20240 40093 82900 333 56100

58002=

48096 32559 22404 10330 20224 40108 82100 333 56900

58006=  





