



*-*-*


<!--
.style2 {
	font-family:"Courier New", Courier, monospace;
	font-size: 14px;
}
-->






SIBM20 VBRR 020000

AAXX 02004

48001 NIL=

48004 NIL=

48008 31540 41401 10142 20124 40169 71044 82430 333 20130 56330 

58010=

48010 31010 00000 10125 20125 40170 74244 333 20120 58014=

48018 32920 00000 10140 20132 40166 333 20135 58012=

48019 32940 00000 10127 20120 40167 333 20124 58023=

48020 NIL=

48025 31110 12202 10148 20134 40177 74044 81600 333 20142 56900 

58020=

48030 32950 02204 10010 21017 333 20000=

48031 32950 00000 10100 20056 333 20088=

48033 32960 03401 10160 20144 40159 333 20150 58030=

48034 31940 00000 10063 20052 71000 333 20050=

48035 31/01 90000 10071 20046 40164 74044 333 20063 59019=

48037 32910 00000 10161 20144 40144 333 20156 58012=

48039 31450 20000 10159 20144 71011 82400 333 20156 56900=

48042 32956 00000 10165 20126 40152 333 20155 58023=

48043 32010 00000 10090 20068 333 20050=

48045 NIL=

48048 32940 00401 10148 20111 40157 333 20142 58024=

48051 32956 03603 10116 20100 70200 333 20097 =

48052 32950 00000 10155 20144 333 20085 56000=

48053 32950 00000 10170 20135 40149 333 20161 58014=

48055 31948 00000 10057 20052 40222 71000 333 20050 58014=

48057 31439 11401 10134 20086 71000 81500 333 20120 56500=

48060 21410 80000 10165 20157 40178 75022 8577/ 333 20150 5659/ 

58002=

48062 31540 30000 10220 20160 40163 74244 82530 333 20100 56990 

58023=

48064 32950 00401 10147 20111 40133 333 20110 56000 58008=

48065 32950 00000 10150 20111 333 20140 56000=

48071 31430 10000 10148 20145 40157 74244 81200 333 20142 56900 

58029=

48072 NIL=

48074 32450 40000 10200 20168 40152 82560 333 20185 56550 58010=

48075 31956 00000 10130 20130 40194 71044 333 20090 59006=

48077 31956 00000 10170 20154 40148 71000 333 20148 58015=

48078 NIL=

48080 31950 00000 10122 20102 40158 71044 333 20115 58014=

48085 31930 01402 10142 20140 40152 71044 333 20140 58019=

48087 32550 20000 10154 20134 82800 333 20136 56900=

48092 31420 40000 10200 20185 40128 71022 84800 333 20178 56200 

58010=

48093 32620 61401 10224 20205 85840 333 20198 56990= 

48094 31940 00000 10205 20190 40143 71000 333 20168 58005=

48095 NIL=

48097 32556 53301 10210 20195 40136 70321 85800 333 20200 56900 

58001=

48099 31330 33201 10220 20205 40141 74044 83700 333 20205 56900 

59004=

48101 NIL=

48103 32440 20401 10223 20205 40143 82500 333 20216 56100 58006=

48107 31930 00902 10208 20175 40139 74144 333 20200 58010=

48108 31594 70000 10185 20178 40150 74022 82407 333 20160 56909 

58011=

48109 32496 30000 10248 20219 40155 70222 83900 333 20235 56900 

58004= 

48110 31993 20000 10215 20190 40140 74244 80005 333 20215 56009 

58009=

48112 32597 80401 10252 20205 40137 83876 333 20216 56199 58005=  
SMBM01 VBRR 020000

AAXX 02004

48001 NIL=

48004 NIL=

48008 31540 41401 10142 20124 40169 71044 82430 333 20130 56330

58010=

48010 31010 00000 10125 20125 40170 74244 333 20120 58014=

48018 32920 00000 10140 20132 40166 333 20135 58012=

48019 32940 00000 10127 20120 40167 333 20124 58023=

48020 NIL=

48025 31110 12202 10148 20134 40177 74044 81600 333 20142 56900

58020=

48030 32950 02204 10010 21017 333 20000=

48031 32950 00000 10100 20056 333 20088=

48033 32960 03401 10160 20144 40159 333 20150 58030=

48034 31940 00000 10063 20052 71000 333 20050=

48035 31/01 90000 10071 20046 40164 74044 333 20063 59019=

48037 32910 00000 10161 20144 40144 333 20156 58012=

48039 31450 20000 10159 20144 71011 82400 333 20156 56900=

48042 32956 00000 10165 20126 40152 333 20155 58023=

48043 32010 00000 10090 20068 333 20050=

48045 NIL=

48048 32940 00401 10148 20111 40157 333 20142 58024=

48051 32956 03603 10116 20100 70200 333 20097 =

48052 32950 00000 10155 20144 333 20085 56000=

48053 32950 00000 10170 20135 40149 333 20161 58014=

48055 31948 00000 10057 20052 40222 71000 333 20050 58014=

48057 31439 11401 10134 20086 71000 81500 333 20120 56500=

48060 21410 80000 10165 20157 40178 75022 8577/ 333 20150 5659/

58002=

48062 31540 30000 10220 20160 40163 74244 82530 333 20100 56990

58023=

48064 32950 00401 10147 20111 40133 333 20110 56000 58008=

48065 32950 00000 10150 20111 333 20140 56000=

48071 31430 10000 10148 20145 40157 74244 81200 333 20142 56900

58029=

48072 NIL=

48074 32450 40000 10200 20168 40152 82560 333 20185 56550 58010=

48075 31956 00000 10130 20130 40194 71044 333 20090 59006=

48077 31956 00000 10170 20154 40148 71000 333 20148 58015=

48078 NIL=

48080 31950 00000 10122 20102 40158 71044 333 20115 58014=

48085 31930 01402 10142 20140 40152 71044 333 20140 58019=

48087 32550 20000 10154 20134 82800 333 20136 56900=

48092 31420 40000 10200 20185 40128 71022 84800 333 20178 56200

58010=

48093 32620 61401 10224 20205 85840 333 20198 56990=

48094 31940 00000 10205 20190 40143 71000 333 20168 58005=

48095 NIL=

48097 32556 53301 10210 20195 40136 70321 85800 333 20200 56900

58001=

48099 31330 33201 10220 20205 40141 74044 83700 333 20205 56900

59004=

48101 NIL=

48103 32440 20401 10223 20205 40143 82500 333 20216 56100 58006=

48107 31930 00902 10208 20175 40139 74144 333 20200 58010=

48108 31594 70000 10185 20178 40150 74022 82407 333 20160 56909

58011=

48109 32496 30000 10248 20219 40155 70222 83900 333 20235 56900

58004=

48110 31993 20000 10215 20190 40140 74244 80005 333 20215 56009

58009=

48112 32597 80401 10252 20205 40137 83876 333 20216 56199 58005=  





