



*-*-*


<!--
.style2 {
	font-family:"Courier New", Courier, monospace;
	font-size: 14px;
}
-->






SIBM20 VBRR 020900

AAXX 02094

48001 NIL= 

48004 32562 31301 10252 20150 83800 333 56500=

48008 32557 30000 10265 20154 40145 82230 333 56390 59015=

48010 32560 40000 10290 20179 40150 83830 333 56550 59005=

48018 32560 20402 10290 20140 40139 82800 333 56900 59019=

48019 32560 13201 10265 20160 40141 80002 333 56006 59016=

48020 NIL=

48025 32458 43601 10265 20171 40145 82540 333 56550 58010=

48030 32150 82202 10164 20144 82870 333 56560=

48031 32262 81401 10170 20154 88/// 333 56499=

48033 32563 23601 10290 20248 40126 82500 333 56900 58008=

48034 32456 60402 10226 20124 86300 333 56500=

48035 32560 62703 10257 20119 40106 84960 333 56690 59016=

48037 32560 53201 10310 20146 40108 82831 333 56779 59037=

48039 32460 73201 10290 20159 83450 333 56550=

48042 32558 63201 10288 20179 40129 82450 333 56960 59003=

48043 32556 73202 10220 20185 8587/ 333 56999=

48045 32558 71402 10184 20129 87700 333 56500=

48048 32560 60401 10302 20166 40139 84950 333 56490 59004=

48051 32558 73102 10271 20210 70322 85930 333 56690=

48052 32465 60402 10308 20189 84830 333 56990=

48053 32956 43602 10310 20169 40114 80056 333 56099 59005=

48055 32657 10403 10251 20167 40115 81500 333 56400 59008=

48057 32457 42202 10244 20136 84800 333 56400=

48060 32940 00401 10245 20082 40135 333 59024=

48062 32557 70902 10295 20240 40128 83851 333 56599 58006=

48064 32570 51401 10278 20203 40104 82831 333 56449 58002=

48065 32968 40000 10301 20166 80036 333 56099=

48071 32460 83202 10295 20207 40130 83836 333 56999 58012=

48072 32560 41302 10300 20253 83830 333 56590=

48074 32960 03201 10320 20200 40122 333 59002=

48075 32560 23201 10270 20170 40117 82100 333 56500 59008=

48077 32559 30000 10332 20172 40119 82201 333 56909 59001=

48078 32559 23201 10316 20186 40127 81101 333 56909 58005=

48080 32460 22206 10302 20223 40120 82200 333 56900 58010=

48085 32958 11803 10302 20185 40118 80006 333 56009 58005=

48087 32960 00000 10310 20203 80000 333=

48092 31458 10401 10300 20166 40107 70522 81100 333 56900 58010=

48093 32958 00401 10299 20207 333=

48094 32460 20402 10310 20190 40128 82800 333 56900 58012=

48095 32960 00000 10300 20166 333=

48097 31957 10401 10305 20148 40137 70511 80001 333 56009 58009=

48099 32557 33201 10306 20169 40106 84801 333 56709 59012=

48101 32960 10401 10290 20179 70311 80001 333 56009=

48103 32556 30401 10308 20237 40122 83500 333 56100 58013=

48107 32950 30402 10300 20124 40116 80006 333 56009 58011=

48108 32596 50504 10315 20155 40127 82406 333 56209 58014=

48109 NIL=

48110 31996 13201 10315 20165 40116 70511 80005 333 56009 58008=

48112 NIL=  





