



*-*-*


<!--
.style2 {
	font-family:"Courier New", Courier, monospace;
	font-size: 14px;
}
-->






SMBM01 VBRR 021800 RRA

AAXX 02184

48008 32410 80000 10280 20250 40044 8497/ 333 56569 58003=

48010 22502 30000 10270 20240 40042 81530 333 56760 58005=

48018 32530 20000 10280 20250 40052 82800 333 56900 58000=

48025 32405 63201 10305 20239 40072 84570 333 56690 59016=

48042 32556 31801 10322 20265 40043 82802 333 56409 58005=

48053 32540 60000 10290 20259 40058 83956 333 56599 58000=

48057 22440 51301 10198 20185 84350 333 56390=

48060 32420 60000 10242 20209 40062 82132 333 56599 58013=

48062 NIL=

48071 32430 62303 10308 20267 40065 83900 333 56900 59001=

48078 NIL=

48080 32450 62201 10290 20259 40095 84970 333 56590 58007=

48094 NIL=

48097 22556 32301 10265 20258 40092 83500 333 56900 58006=

48099 22330 70000 10250 20250 40089 85940 333 56990 58004=

48108 31495 71401 10280 20250 40095 71322 83366 333 56999 59005=

48110 21594 80000 10270 20256 40101 70299 82357 333 56599 58003=

48112 22597 82201 10275 20262 40093 83876 333 56599 58002=  





