



*-*-*


<!--
.style2 {
	font-family:"Courier New", Courier, monospace;
	font-size: 14px;
}
-->






SIBM20 VBRR 020300

AAXX 02034

48001 32440 10301 10270 20240 40131 84830 333 56760

58000=

48004 21458 52201 10260 20246 70199 85900 333 56500=

48008 32457 71401 10290 20243 40124 84970 333 56450

59008=

48010 22440 80000 10270 20256 40183 887// 333 56699

58044=

48018 32558 63201 10290 20259 40123 82874 333 56766

59011=

48019 32560 23202 10308 20239 40121 82100 333 56600

58004=

48020 32458 40403 10300 20253 84800 333 56400=

48025 21330 61401 10274 20240 40131 70344 84840 333

56660 58005=

48035 22560 30000 10249 20205 40127 83800 333 56900

58006=

48037 22558 41401 10269 20256 40115 82120 333 56440

59006=

48042 22556 32701 10285 20245 40119 83200 333 56400

58002=

48045 22556 71404 10201 20150 74144 87700 333 56500=

48048 22558 71801 10270 20256 40127 85950 333 56490

58003=

48051 NIL=

48053 21456 41801 10280 20233 40127 70244 83503 333

56509 59001=

48060 32350 40000 10254 20217 40116 84300 333 56600

59032=

48062 NIL=

48071 NIL=

48075 NIL=

48077 NIL=

48078 NIL=

48080 NIL=

48085 NIL=

48095 NIL=

48108 NIL=

48109 NIL=

48110 NIL=

48112 NIL=

48030 21256 72201 10172 20172 70144 85840 333 56560=

48072 NIL=

48087 NIL=

48099 NIL=

48101 NIL=

48103 NIL=

48057 NIL=

48094 NIL=

48097 NIL=

48031 NIL=

48033 32562 50000 10290 20248 40122 84801 333 56109

59005=

48034 22458 20402 10238 20209 82800 333 56500=

48039 22460 22201 10283 20250 81101 333 56404=

48043 32058 01805 10245 20219 333=

48052 22460 60000 10276 20250 85920 333 56990=

48055 32356 70000 10232 20206 40134 85970 333 56390

58000=

48064 22456 70401 10270 20256 40117 84831 333 56449

59004=

48065 22456 60401 10275 20250 82831 333 56999=

48074 32960 20402 10280 20233 40137 80001 333 56009

58003=

48092 NIL=

48093 NIL=

48107 NIL=

48096 NIL=  





