



*-*-*


<!--
.style2 {
	font-family:"Courier New", Courier, monospace;
	font-size: 14px;
}
-->






SMBM01 VBRR 030600

AAXX 03064

48001 32450 40401 10300 20209 40029 83830 333 56540

58008=

48004 32560 41301 10291 20259 84900 333 56500=

48008 21457 63201 10295 20253 40050 70195 83970 333

56450 59006=

48010 32556 70000 10285 20250 40050 85870 333 56390

58010=

48018 32558 82301 10300 20253 40050 8497/ 333 56459

59003=

48019 32460 43602 10317 20281 40044 82232 333 56446

59011=

48020 32358 71803 10340 20270 85930 333 56440=

48025 32450 51401 10310 20267 40041 84840 333 56590

59025=

48035 21560 81402 10271 20240 40026 70366 8597/ 333

56349 59009=

48037 32558 71801 10305 20239 40050 84870 333 56330

59021=

48042 32558 61804 10328 20244 40046 84852 333 56449

59013=

48045 31557 81401 10252 20205 70344 84830 333 56160=

48048 32560 62201 10305 20267 40052 84950 333 56490

59015=

48051 NIL=

48053 32456 71803 10300 20253 40059 85850 333 56490

59012=

48060 22340 60000 10282 20220 40010 70122 84830 333

56590 59041=

48062 32457 61302 10300 20280 40065 70122 84970 333

56490 59012=

48071 21458 70000 10265 20265 40070 76266 85970 333

56590 59010=

48075 21456 83201 10220 20220 40081 75065 8597/ 333

5659/ 58003=

48077 32559 80000 10300 20253 40054 8593/ 333 56499

59017=

48078 21556 61801 10279 20268 40077 70155 84531 333

56499 59008=

48080 32460 81304 10283 20268 40071 85870 333 56590

59019=

48085 32458 62203 10276 20256 40073 84936 333 56999

59012=

48095 21458 80000 10275 20275 75055 84940 333 56590=

48108 21495 82303 10280 20250 40107 70255 8537/ 333

5649/ 59003=

48109 21397 82302 10248 20233 40093 79595 8697/ 333

5699/ 59003=

48110 32496 80000 10310 20254 40107 84357 333 56999

59011=

48112 21597 81802 10285 20250 40112 70152 84876 333

56499 58000=

48030 32357 72202 10226 20163 8484/ 333 56569=

48072 32460 70902 10285 20259 70322 85830 333 56590=

48087 32558 62301 10303 20253 83571 333 56499=

48099 21340 82304 10252 20252 40091 75055 8697/ 333

5659/ 59005=

48101 21456 82703 10262 20246 76366 8697/ 333 5659/=

48103 21450 82203 10256 20246 40091 75065 8677/ 333

5699/ 59003=

48057 32458 62203 10230 20198 84950 333 56690=

48094 21558 82201 10260 20260 40080 75065 8697/ 333

5659/ 59005=

48097 21557 72304 10305 20274 40080 75065 86330 333

56490 59017=

48031 NIL=

48033 32563 61801 10300 20239 40039 85901 333 56409

59023=

48034 21356 81302 10230 20214 75055 8692/ 333 5659/=

48039 32460 61401 10311 20254 84202 333 56505=

48043 32556 81806 10230 20214 8587/ 333 56599=

48052 32468 50000 10325 20244 85900 333 56900=

48055 22456 61803 10230 20214 40066 70265 85931 333

56799 58019=

48064 32458 70401 10294 20253 40033 84831 333 56449

59023=

48065 32557 70000 10307 20267 85870 333 56990=

48074 32459 72303 10280 20250 40080 8487/ 333 56440

59014=

48092 32457 72302 10300 20253 40058 85370 333 56590

59013=

48093 32556 82301 10270 20256 70222 8637/ 333 56999=

48107 32350 62301 10278 20250 40097 84970 333 56550

59007=  





