



*-*-*


<!--
.style2 {
	font-family:"Courier New", Courier, monospace;
	font-size: 14px;
}
-->






SMBM01 VBRR 030000 RRA

AAXX 03004

48004 31456 40000 10167 20167 71011 84900 333 20124

56550 60002=

48010 32430 80000 10190 20182 40143 8577/ 333 20183

56559 58004 60002=

48018 32550 71801 10195 20190 40155 84870 333 20180

56550 58023 60002=

48019 32440 70000 10192 20175 40141 84760 333 20189

56990 58008 60002=

48020 32320 80000 10195 20168 88700 333 20175 56500

60002=

48025 32420 80000 10210 20195 40148 8587/ 333 20206

56599 58011 60002=

48035 31420 80000 10183 20180 40149 71044 8597/ 333

20176 56769 58008 60002=

48037 32420 30401 10220 20205 40139 8587/ 333 20219

56459 58022 60002=

48042 21540 80000 10230 20214 40136 75022 8597/ 333

20217 56930 58016 69902=

48048 21550 70401 10225 20173 40142 72165 85950 333

20218 56890 58020 69902=

48051 32556 83201 10211 20200 86970 333 20196 56690=

48053 32450 63602 10230 20198 40135 82256 333 20222

56559 58002 60002=

48060 32430 70000 10168 20154 40169 82172 333 20147

56544 59048 60002=

48062 31450 83602 10280 20210 40133 71011 86970 333

20190 56990 58013=

48071 32440 73201 10255 20219 40129 85870 333 20235

56790 58004=

48075 31456 70000 10150 20111 40173 71044 85870 333

20150 56590 59005=

48030 21256 82201 10100 20079 70255 8684/ 333 20085

56569 69902=

48057 31440 82301 10150 20150 71022 86350 333 20145

56690 60002=

48031 32256 83201 10140 20056 888// 333 20105 56499

60002=

48033 21559 70000 10210 20210 40132 70355 86970 333

20200 56990 58025 69902=

48034 21356 80000 10155 20147 75155 8692/ 333 20150

5659/ 60012=

48039 21450 80000 10222 20185 75055 84470 333 20220

56550 69902=

48043 31010 80000 10170 20154 71044 8587/ 333 20130

56999 60002=

48052 31450 83004 10242 20217 70522 86970 333 20208

56990 60002=

48055 32556 70000 10155 20153 40160 83931 333 20148

56559 59027 60002=

48064 32450 61401 10232 20214 40114 84831 333 20190

56449 58002 60002=

48065 32450 83201 10235 20209 83870 333 20170 56990

60002=

48074 32457 70000 10220 20205 40129 84550 333 20218

56990 59002 60002=  
SMBM01 VBRR 030000 RRB

AAXX 03004

48077 32556 40000 10234 20214 40120 83201 333 20214

56909 58001=

48080 32456 50000 10195 20168 40158 83830 333 20170

56590 58007=

48085 31440 30000 10176 20175 40123 74244 82870 333

20175 56990 58007=

48108 31493 50000 10235 20228 40125 74244 82406 333

20215 56909 58005=

48109 32496 50000 10270 20256 40122 85900 333 20215

56900 59002=

48110 31596 41802 10250 20250 40123 70522 81406 333

20250 56909 59001=

48112 32597 80406 10260 20246 40115 82216 333 20205

56199 58003=

48087 32950 00000 10190 20175 333 20178=

48099 32330 30401 10232 20214 40126 82830 333 20214

56990 58014=

48101 31940 20000 10240 20226 70244 80005 333 20197

56009=

48103 31420 20402 10234 20234 40125 74144 82500 333

20236 56100 59007=

48094 32956 20000 10225 20210 40127 81540 333 20214

56990 58011=

48097 31557 22301 10230 20222 40130 70511 82500 333

20216 56900 58009=

48092 31556 30000 10220 20213 40107 71022 82401 333

20210 56909 58008=

48093 32950 00401 10230 20214 333 20225=

48107 31930 00901 10230 20233 40120 74144 333 20227

58005=

48096 31950 13603 10240 20226 40131 71022 80001 333

20225 56009 58007=  
SMBM01 VBRR 030000

AAXX 03004

48004 31456 40000 10167 20167 71011 84900 333 20124

56550 60002=

48010 32430 80000 10190 20182 40143 8577/ 333 20183

56559 58004 60002=

48018 32550 71801 10195 20190 40155 84870 333 20180

56550 58023 60002=

48019 32440 70000 10192 20175 40141 84760 333 20189

56990 58008 60002=

48020 32320 80000 10195 20168 88700 333 20175 56500

60002=

48025 32420 80000 10210 20195 40148 8587/ 333 20206

56599 58011 60002=

48035 31420 80000 10183 20180 40149 71044 8597/ 333

20176 56769 58008 60002=

48037 32420 30401 10220 20205 40139 8587/ 333 20219

56459 58022 60002=

48042 21540 80000 10230 20214 40136 75022 8597/ 333

20217 56930 58016 69902=

48048 21550 70401 10225 20173 40142 72165 85950 333

20218 56890 58020 69902=

48051 32556 83201 10211 20200 86970 333 20196 56690=

48053 32450 63602 10230 20198 40135 82256 333 20222

56559 58002 60002=

48060 32430 70000 10168 20154 40169 82172 333 20147

56544 59048 60002=

48062 31450 83602 10280 20210 40133 71011 86970 333

20190 56990 58013=

48071 32440 73201 10255 20219 40129 85870 333 20235

56790 58004=

48075 31456 70000 10150 20111 40173 71044 85870 333

20150 56590 59005=

48030 21256 82201 10100 20079 70255 8684/ 333 20085

56569 69902=

48057 31440 82301 10150 20150 71022 86350 333 20145

56690 60002=

48031 32256 83201 10140 20056 888// 333 20105 56499

60002=

48033 21559 70000 10210 20210 40132 70355 86970 333

20200 56990 58025 69902=

48034 21356 80000 10155 20147 75155 8692/ 333 20150

5659/ 60012=

48039 21450 80000 10222 20185 75055 84470 333 20220

56550 69902=

48043 31010 80000 10170 20154 71044 8587/ 333 20130

56999 60002=

48052 31450 83004 10242 20217 70522 86970 333 20208

56990 60002=

48055 32556 70000 10155 20153 40160 83931 333 20148

56559 59027 60002=

48064 32450 61401 10232 20214 40114 84831 333 20190

56449 58002 60002=

48065 32450 83201 10235 20209 83870 333 20170 56990

60002=

48074 32457 70000 10220 20205 40129 84550 333 20218

56990 59002 60002=  
SMBM01 VBRR 030000 RRA

AAXX 03004

48077 32556 40000 10234 20214 40120 83201 333 20214

56909 58001=

48080 32456 50000 10195 20168 40158 83830 333 20170

56590 58007=

48085 31440 30000 10176 20175 40123 74244 82870 333

20175 56990 58007=

48108 31493 50000 10235 20228 40125 74244 82406 333

20215 56909 58005=

48109 32496 50000 10270 20256 40122 85900 333 20215

56900 59002=

48110 31596 41802 10250 20250 40123 70522 81406 333

20250 56909 59001=

48112 32597 80406 10260 20246 40115 82216 333 20205

56199 58003=

48087 32950 00000 10190 20175 333 20178=

48099 32330 30401 10232 20214 40126 82830 333 20214

56990 58014=

48101 31940 20000 10240 20226 70244 80005 333 20197

56009=

48103 31420 20402 10234 20234 40125 74144 82500 333

20236 56100 59007=

48094 32956 20000 10225 20210 40127 81540 333 20214

56990 58011=

48097 31557 22301 10230 20222 40130 70511 82500 333

20216 56900 58009=

48092 31556 30000 10220 20213 40107 71022 82401 333

20210 56909 58008=

48093 32950 00401 10230 20214 333 20225=

48107 31930 00901 10230 20233 40120 74144 333 20227

58005=

48096 31950 13603 10240 20226 40131 71022 80001 333

20225 56009 58007=  
SMBM01 VBRR 030000 RRA

AAXX 03004

48004 31456 40000 10167 20167 71011 84900 333 20124

56550 60002=

48010 32430 80000 10190 20182 40143 8577/ 333 20183

56559 58004 60002=

48018 32550 71801 10195 20190 40155 84870 333 20180

56550 58023 60002=

48019 32440 70000 10192 20175 40141 84760 333 20189

56990 58008 60002=

48020 32320 80000 10195 20168 88700 333 20175 56500

60002=

48025 32420 80000 10210 20195 40148 8587/ 333 20206

56599 58011 60002=

48035 31420 80000 10183 20180 40149 71044 8597/ 333

20176 56769 58008 60002=

48037 32420 30401 10220 20205 40139 8587/ 333 20219

56459 58022 60002=

48042 21540 80000 10230 20214 40136 75022 8597/ 333

20217 56930 58016 69902=

48048 21550 70401 10225 20173 40142 72165 85950 333

20218 56890 58020 69902=

48051 32556 83201 10211 20200 86970 333 20196 56690=

48053 32450 63602 10230 20198 40135 82256 333 20222

56559 58002 60002=

48060 32430 70000 10168 20154 40169 82172 333 20147

56544 59048 60002=

48062 31450 83602 10280 20210 40133 71011 86970 333

20190 56990 58013=

48071 32440 73201 10255 20219 40129 85870 333 20235

56790 58004=

48075 31456 70000 10150 20111 40173 71044 85870 333

20150 56590 59005=

48030 21256 82201 10100 20079 70255 8684/ 333 20085

56569 69902=

48057 31440 82301 10150 20150 71022 86350 333 20145

56690 60002=

48031 32256 83201 10140 20056 888// 333 20105 56499

60002=

48033 21559 70000 10210 20210 40132 70355 86970 333

20200 56990 58025 69902=

48034 21356 80000 10155 20147 75155 8692/ 333 20150

5659/ 60012=

48039 21450 80000 10222 20185 75055 84470 333 20220

56550 69902=

48043 31010 80000 10170 20154 71044 8587/ 333 20130

56999 60002=

48052 31450 83004 10242 20217 70522 86970 333 20208

56990 60002=

48055 32556 70000 10155 20153 40160 83931 333 20148

56559 59027 60002=

48064 32450 61401 10232 20214 40114 84831 333 20190

56449 58002 60002=

48065 32450 83201 10235 20209 83870 333 20170 56990

60002=

48074 32457 70000 10220 20205 40129 84550 333 20218

56990 59002 60002=  





