



*-*-*


<!--
.style2 {
	font-family:"Courier New", Courier, monospace;
	font-size: 14px;
}
-->






SMBM01 VBRR 031800

NIL=  
SMBM01 VBRR 031800 RRA

AAXX 03184

48008 31510 10000 10180 20155 40133 71044 81400 333 56900 59022=

48010 32501 50000 10190 20182 40141 83730 333 56560 59026=

48018 32910 00000 10165 20144 40149 333 59001=

48025 32405 03601 10200 20185 40162 333 59004=

48042 32950 00000 10225 20191 40121 333 59023=

48057 32939 01401 10148 20134 333=

48060 32420 00000 10130 20113 40155 333 59042=

48062 31550 23202 10250 20230 40141 70511 82500 333 56900 59020=

48071 31430 13203 10260 20229 40126 70500 81200 333 56900 59020=

48078 32950 10000 10235 20195 40154 80001 333 56009 59005=

48094 32950 00000 10230 20210 40135 333 59023=

48097 32456 22201 10215 20180 40136 82500 333 56900 59021=

48099 32940 00000 10200 20168 40124 333 59039=

48103 32410 10401 10213 20195 40123 81500 333 56100 59019=

48108 31993 31402 10200 20168 40133 71011 80006 333 56009 59019=

48109 32497 30000 10240 20209 40122 82501 333 56909 59014=

48110 31993 50000 10215 20190 40129 70522 80006 333 56009 59032=

48112 32597 70402 10252 20219 40112 83876 333 56199 59020=  





