



*-*-*


<!--
.style2 {
	font-family:"Courier New", Courier, monospace;
	font-size: 14px;
}
-->






SIBM20 VBRR 030900

AAXX 03094

48001 NIL=

48004 32458 42201 10325 20212 84900 333 56500=

48008 32557 53201 10340 20145 40045 82431 333 56566 59037=

48010 32560 32304 10345 20145 40044 82800 333 56///=

48018 32560 32202 10360 20195 40065 82810 333 56550 59023=

48019 32960 01802 10354 20202 40044 333 59055=

48020 NIL=

48025 31456 43202 10380 20159 40045 70544 83440 333 56440 59031=

48030 31256 52205 10223 20065 70544 85900 333 56500=

48031 31260 31801 10260 20070 70500 83800 333 56900=

48033 32963 01801 10380 20187 40040 333 59031=

48034 32458 12302 10310 20092 81500 333 56500=

48035 31540 12703 10318 20089 40013 74044 81100 333 56900 59041=

48037 31957 03601 10380 20112 40040 70544 333 59064=

48039 32959 22201 10376 20159 80002 333 56009=

48042 32957 02702 10390 20131 40044 333 59024=

48043 32058 03206 10300 20098 333=

48045 32560 41401 10302 20098 83840 333 56550=

48048 32962 00401 10400 20196 40053 333 59026=

48051 NIL=

48052 32470 32203 10425 20144 83800 333 56900=

48053 32956 01801 10390 20154 40041 333 59028=

48055 31556 22706 10335 20106 40013 70511 82800 333 56500 59027=

48057 32460 22202 10290 20092 82800 333 56600=

48060 32950 02204 10335 20126 40021 333 59026=

48062 31950 02710 10310 20250 40088 56000 59026=

48064 32970 03201 10410 20230 40027 333 59028=

48065 32970 02207 10401 20196 333=

48071 32960 03203 10308 20237 40093 333 59017=

48072 32960 02705 10310 20254 333=

48074 32961 00902 10380 20203 40048 333 59038=

48075 31557 22203 10350 20080 40042 70511 82100 333 56300 59057=

48077 31558 60000 10372 20171 40048 70522 85901 333 56909 59026=

48078 32958 12301 10383 20168 40063 80001 333 56009 59017=

48080 32960 02208 10332 20234 40073 333 59020=

48085 32458 22706 10306 20254 40085 81200 333 56700 59012=

48087 NIL=

48092 32459 22303 10380 20203 40039 70322 82100 333 56900 59026=

48093 32658 12301 10366 20227 81100 333 56500=

48094 32960 03202 10355 20200 40080 333 59018=

48095 32960 02202 10385 20240 333=

48097 32557 22302 10375 20165 40078 82800 333 56900 59015=

48099 32456 22303 10365 20214 40065 82800 333 56500 59028=

48101 32960 02702 10352 20219 333=

48103 32956 02201 10350 20237 40065 333 56500 59021=

48107 32950 02702 10318 20236 40075 333 59012=

48108 32596 43206 10352 20227 40078 82806 333 56909 59023=

48109 32997 00401 10310 20237 40103 70222 333 59008=

48110 31996 43204 10330 20258 40084 70522 82306 333 56909 59009=

48112 NIL=  





