



*-*-*


<!--
.style2 {
	font-family:"Courier New", Courier, monospace;
	font-size: 14px;
}
-->






SMBM01 VBRR 030000

AAXX 03004
48001 NIL=
48004 NIL=
48008 31540 50000 10197 20168 40086 71044 83430 333 20188 56560
59041=
48010 31220 30000 10175 20165 40091 74044 83600 333 20170 56400
59029=
48018 32920 02201 10190 20175 40084 333 20175 59040=
48019 32950 00000 10173 20170 40081 333 20170 59036=
48020 NIL=
48025 31410 10000 10196 20150 40088 70544 81500 333 20190 56900
59031=
48030 31950 02204 10132 20067 70544 333 20112=
48031 31956 02201 10150 20073 70500 333 20140=
48033 32960 01301 10203 20185 40079 333 20190 59024=
48034 32956 00000 10118 20102 333 20108=
48035 31920 00000 10110 20091 40125 71000 333 20103 59033=
48037 32920 00000 10190 20159 40083 333 20178 59012=
48039 31450 30000 10200 20168 71011 83400 333 20199 56900=
48042 32556 10000 10215 20149 40087 81400 333 20205 56900 59023=
48043 32020 00000 10150 20092 333 20110=
48045 NIL=
48048 32940 00000 10204 20150 40085 333 20197 59029=
48051 31930 13201 10177 20150 71011 80001 333 20167 56009=
48052 32450 33201 10225 20163 83800 333 20215 56900=
48053 32950 02201 10230 20163 40092 333 20217 59024=
48055 31540 20000 10099 20091 40143 71011 81501 333 20090 56509
59035=
48057 32956 20000 10150 20111 80001 333 20132 56009=
48060 31920 10000 10125 20108 40143 74144 80030 333 20110 56090
59026=
48062 31408 20000 10210 20180 40105 74044 82500 333 20180 56///
59009=
48064 32950 00000 10242 20191 40071 333 20200 58032=
48065 32950 10000 10232 20181 80001 333 20220 56009=
48071 31440 13202 10250 20233 40111 71000 81200 333 20205 56800
59004=
48072 NIL=
48074 32950 00000 10216 20156 40113 333 20200 59007=
48075 31456 20000 10155 20120 40161 71022 82500 333 20130 56500
59024=
48077 31956 00000 10220 20205 40092 71000 333 20194 59008=
48078 32950 10000 10208 20175 40117 80001 333 20193 56009 58002=
48080 31956 00000 10183 20165 40117 71011 333 20173 59009=
48085 31950 00901 10216 20205 40102 74044 333 20215 59015=
48087 NIL=
48092 31530 40000 10210 20195 40081 70522 82530 333 20190 56990
59013=
48093 32530 20401 10236 20226 82800 333 20234 56900=
48094 31950 00000 10215 20205 40110 71000 333 20205 59001=
48095 NIL=
48097 31556 41801 10240 20134 40114 70511 84500 333 20235 56900
59005=
48099 31440 33201 10240 20226 40103 71044 82530 333 20230 56790
59004=
48101 31950 23201 10232 20232 70344 80005 333 20203 56009=
48103 32940 02201 10257 20246 40104 333 20227 59005=
48107 32930 30902 10202 20185 40111 74144 80006 333 20188 56009
59002=
48108 31/91 90000 10245 20237 40121 74144 333 20225 58000=
48109 32996 00000 10245 20233 40119 333 20220 58004=
48110 21595 81803 10250 20250 40115 70522 85807 333 20250 56209 59006
60042=
48112 32597 60402 10255 20229 40120 82876 333 20216 56199 58002=  





