



*-*-*


<!--
.style2 {
	font-family:"Courier New", Courier, monospace;
	font-size: 14px;
}
-->






SMBM01 VBRR 030000

AAXX 03004

48001 NIL=

48004 NIL=

48008 22450 70000 10200 20185 40160 84970 333 20185

56770 59011 60002=

48010 32540 40000 10210 20210 40152 82430 333 20205

56440 59012 60002=

48018 32530 73201 10205 20200 40156 8387/ 333 20200

56769 59019 60002=

48019 32950 40401 10200 20185 40148 80031 333 20200

56055 59014 60002=

48020 31/08 90000 10205 20195 74544 89/// 333 20190

56999 60002=

48025 31456 62701 10218 20218 40156 74244 86600 333

20210 56600 59013 60002=

48035 32120 80000 10177 20165 40158 8597/ 333 20170

56189 59008 60002=

48037 32420 70000 10214 20214 40144 83830 333 20211

56430 59019 60002=

48042 32550 70000 10221 20205 40138 84850 333 20207

56880 59018 60002=

48045 NIL=

48048 32550 50000 10226 20198 40150 84950 333 20220

56490 59002 60002=

48051 31556 20000 10218 20218 71011 82500 333 20215

56900=

48053 32450 83202 10220 20205 40142 8555/ 333 20211

56599 59005 60002=

48060 22420 80000 10190 20175 40155 8577/ 333 20176

56299 59008 60002=

48062 31440 50401 10230 20210 40130 71022 84930 333

20200 56990 59007=

48071 32450 70501 10258 20246 40131 85970 333 20240

56990 59007=

48075 22456 60000 10190 20175 40164 70265 84770 333

20180 56590 59009=

48077 32556 70000 10234 20214 40131 85931 333 20214

56999 59008=

48078 32556 50401 10232 20214 40140 83531 333 20222

56499 59001=

48080 31456 80000 10235 20226 40135 75022 85770 333

20225 56490 58003=

48085 32356 71402 10232 20230 40123 84870 333 20230

56390 59004=

48095 NIL=

48108 31595 40501 10240 20209 40124 71011 82406 333

20205 56909 58003=

48109 NIL=

48110 31996 60000 10250 20219 40122 70522 80006 333

20250 56009 58007=

48112 21496 80402 10252 20252 40127 75055 8677/ 333

20195 5619/ 58015 60042=

48030 21/09 90401 10112 20112 74344 89/// 333 20100

56999 60002=

48072 NIL=

48087 32550 50401 10232 20214 83841 333 20220 56999=

48099 31330 30000 10250 20233 40120 74144 83700 333

20238 56900 59006=

48101 31950 23602 10237 20226 70244 80001 333 20198

56009=

48103 31330 53203 10242 20226 40125 74044 83732 333

20238 56779 59001=

48057 21450 80000 10160 20160 71055 86950 333 20155

56490 69902=

48094 32456 20000 10225 20210 40133 82500 333 20174

56900 58005=

48097 22557 33201 10230 20222 40134 81531 333 20215

56999 59004=

48031 21/03 90000 10145 20145 74744 89/// 333 20126

56999 60002=

48033 32560 10000 10200 20200 40132 81500 333 20190

56900 59010 60002=

48034 21/10 90000 10133 20123 74344 89/// 333 20127

56999 60002=

48039 31450 70000 10219 20206 71022 84760 333 20215

56550 60002=

48043 21010 00000 10150 20150 71044 333 20110 60002=

48052 32450 70000 10218 20205 85930 333 20212 56990

60002=

48055 21248 80000 10174 20174 40165 74044 8697/ 333

20170 56299 59003 60002=

48064 32450 81801 10225 20205 40130 84870 333 20180

56440 59020 60002=

48065 32450 83201 10230 20214 86870 333 20200 56990

60002=

48074 32457 73203 10230 20214 40137 84550 333 20230

56690 59007 60002=

48092 31556 40000 10225 20217 40111 70522 82431 333

20215 56999 59008=

48093 32950 10401 10239 20226 80001 333 20234 56009=

48107 31930 20401 10228 20214 40122 74144 80006 333

20220 56009 58004=

48096 NIL=  





