



*-*-*


<!--
.style2 {
	font-family:"Courier New", Courier, monospace;
	font-size: 14px;
}
-->






SIBM20 VBRR 030300

AAXX 03034

48001 32430 30401 10215 20185 40180 83800 333 56500

59011=

48004 31562 43201 10220 20205 70144 84900 333 56500=

48008 22557 10401 10220 20205 40176 81100 333 56400

59009=

48010 32556 30000 10225 20205 40173 83800 333 56100

59022=

48018 32560 13201 10225 20205 40175 81200 333 56900

59012=

48019 32458 30401 10255 20205 40165 82150 333 56560

59003=

48020 31356 80000 10220 20205 70144 886// 333 56899=

48025 31110 63601 10236 20226 40177 74044 86600 333

56700 59013=

48035 22460 80402 10192 20175 40174 8597/ 333 56189

59001=

48037 32554 63601 10235 20226 40162 81139 333 56459

59026=

48042 32556 40000 10250 20219 40159 83850 333 56880

59013=

48045 NIL=

48048 NIL=

48051 NIL=

48053 NIL=

48060 NIL=

48062 NIL=

48071 NIL=

48075 NIL=

48077 NIL=

48078 NIL=

48080 NIL=

48085 NIL=

48095 NIL=

48108 NIL=

48109 NIL=

48110 NIL=

48112 NIL=

48030 21130 42201 10124 20124 74244 84800 333 56500=

48072 NIL=

48087 NIL=

48099 NIL=

48101 NIL=

48103 NIL=

48057 NIL=

48094 NIL=

48097 NIL=

48031 21/05 90401 10150 20134 74744 89/// 333 56999=

48033 32562 23601 10240 20209 40164 81530 333 56440

59011=

48034 21456 11801 10178 20159 70244 81100 333 56500=

48039 32456 72201 10241 20226 84850 333 56660=

48043 NIL=

48052 32458 43601 10255 20226 84800 333 56800=

48055 NIL=

48064 32456 81801 10245 20209 40150 85770 333 56880

59008=

48065 32456 73202 10248 20219 85870 333 56890=

48074 NIL=

48092 NIL=

48093 NIL=

48107 NIL=

48096 NIL=  
SIBM20 VBRR 030300 RRA

AAXX 03034

48051 32558 13602 10250 20220 81200 333 56900=

48062 32456 53602 10255 20233 40148 83932 333 56499

59004=

48071 32458 83202 10265 20229 40151 8697/ 333 5649/

59002=

48075 22457 70000 10210 20195 40176 85770 333 56390

59010=

48077 32559 70401 10254 20219 40145 85931 333 56999

59011=

48078 32557 63205 10251 20226 40159 84531 333 56899

59004=

48080 32459 63204 10280 20233 40141 83830 333 56490

58008=

48085 32457 60402 10268 20226 40141 83876 333 56999

58000=

48095 32958 00903 10270 20240=

48108 32596 60503 10310 20225 40140 82836 333 56299

58000=

48109 32497 50901 10308 20254 40141 85900 333 56900

59005=

48110 31596 81302 10300 20223 40139 70522 82257 333

56999 58003=

48112 21496 80402 10245 20245 40132 75055 8677/ 333

5619/ 58000=

48072 32459 80401 10280 20233 8697/ 333 5699/=

48087 32560 50403 10278 20233 82841 333 56899=

48099 31456 22701 10300 20239 40143 70144 82800 333

56900 58001=

48101 32959 03602 10287 20248 333=

48103 31456 40402 10307 20225 40147 70144 83330 333

56110 58021=

48094 32559 20404 10300 20220 40148 82500 333 56900

58001=

48097 22557 31404 10275 20230 40156 83500 333 56900

58000=

48092 32458 33201 10280 20233 40131 82150 333 56990

59002=

48093 32957 01401 10288 20250 333=

48107 31350 21801 10300 20239 40132 71144 82900 333

56700 58005=  
SIBM20 VBRR 030300 RRB

AAXX 03034

48045 22456 52203 10160 20144 84830 333 56560=

48048 32560 40401 10250 20219 40165 83850 333 56490

59009=

48053 32450 73202 10240 20209 40159 85550 333 56590

59021=

48060 22430 80000 10208 20175 40172 8597/ 333 5649/

59008=

48057 21/09 91401 10198 20185 74744 8//// 333 56///=

48043 32656 80000 10175 20175 8487/ 333 56999=

48055 22356 80204 10190 20174 40178 70244 8697/ 333

5619/ 59003=

48074 32458 73203 10250 20219 40173 84860 333 56990

59003=  





