



*-*-*


<!--
.style2 {
	font-family:"Courier New", Courier, monospace;
	font-size: 14px;
}
-->






SMBM01 VBRR 030600

AAXX 03064

48001 21430 80000 10250 20233 40082 70255 8477/ 333

56649 58004=

48004 31120 80000 10251 20251 75065 8697/ 333 56559=

48008 32556 70000 10290 20243 40087 83970 333 56450

58024=

48010 21440 80000 10250 20250 40085 75365 887// 333

56699 58042=

48018 32558 80401 10290 20248 40087 8487/ 333 56119

58021=

48019 32560 62702 10333 20258 40076 84660 333 56450

58025=

48020 32357 80902 10310 20282 88700 333 56400=

48025 32310 81401 10304 20239 40069 8582/ 333 56459

58007=

48035 32560 62202 10282 20203 40066 84960 333 56190

58020=

48037 32459 71402 10342 20240 40067 85370 333 56440

58017=

48042 32559 51804 10345 20231 40067 83852 333 56449

58023=

48045 31330 81402 10245 20205 70244 883// 333 56599=

48048 32560 71801 10335 20257 40075 85950 333 56490

58018=

48051 21456 81302 10266 20260 75055 86970 333 56490=

48053 32456 61802 10320 20248 40081 84956 333 56599

59022=

48060 32350 60000 10302 20231 40045 83132 333 56569

59025=

48062 21350 80902 10275 20260 40088 70262 86970 333

56590 58030=

48071 21458 82302 10278 20268 40090 76066 8692/ 333

5699/ 58017=

48075 32558 72201 10290 20230 40101 84831 333 56539

58031=

48077 32559 82302 10300 20253 40095 85931 333 56499

58027=

48078 32556 41801 10316 20260 40104 83801 333 56409

58021=

48080 21459 80403 10270 20256 40096 75065 85970 333

56590 58014=

48085 21356 80901 10262 20262 40099 76196 86920 333

56590 58018=

48095 32458 62203 10325 20281 83940 333 56990=

48108 32595 72303 10310 20261 40116 84376 333 56549

58014=

48109 32497 52301 10313 20267 40107 85900 333 56200

58010=

48110 21495 83202 10265 20258 40120 79599 86377 333

56999 58017=

48112 32597 82702 10312 20267 40126 83876 333 56699

59018=

48030 21250 80401 10206 20195 75055 8684/ 333 56819=

48072 21458 80401 10270 20256 76065 8697/ 333 5699/=

48087 21456 82301 10252 20252 75065 8597/ 333 5649/=

48099 32450 72301 10305 20253 40105 85930 333 56590

58011=

48101 21660 51801 10318 20261 70165 83331 333 56599=

48103 21350 82201 10262 20246 40111 79599 86970 333

56550 58018=

48057 32458 71402 10247 20186 85950 333 56490=

48094 21459 62201 10285 20274 40102 75065 84940 333

56590 58022=

48097 32557 73601 10320 20292 40108 85830 333 56990

58019=

48031 31/06 91801 10220 20185 74744 89/// 333 56999=

48033 32563 61801 10310 20254 40078 86900 333 56500

58041=

48034 32456 82302 10242 20209 8637/ 333 5659/=

48039 32460 61401 10310 20236 84960 333 56550=

48043 32558 61804 10270 20226 85830 333 56590=

48052 32465 71301 10340 20240 85930 333 56990=

48055 32556 71806 10290 20230 40075 84331 333 56499

58028=

48064 32560 40401 10339 20300 40065 82831 333 56449

58015=

48065 32557 60401 10327 20258 83870 333 56490=

48074 32459 62303 10300 20266 40102 83350 333 56440

58015=

48092 32459 71801 10320 20265 40089 83876 333 56999

58022=

48093 32558 82301 10318 20265 8637/ 333 56999=

48107 32350 41301 10310 20267 40107 84900 333 56500

58005=

48096 32458 62406 10320 20248 40107 84940 333 56990

58026=  





