



*-*-*


<!--
.style2 {
	font-family:"Courier New", Courier, monospace;
	font-size: 14px;
}
-->






SIBM20 VBRR 030300

AAXX 03034

48001 21430 81301 10253 20226 40090 75066 8672/ 333

56769 58014=

48004 31110 80000 10247 20247 76165 8692/ 333 56559=

48008 22456 80000 10275 20250 40084 8497/ 333 56449

58013=

48010 21420 80000 10250 20250 40088 76366 887// 333

56499 58042=

48018 22558 70401 10265 20246 40087 83872 333 56119

58021=

48019 32560 30000 10295 20248 40088 84530 333 56660

58034=

48020 21357 80902 10270 20257 85770 333 56490=

48025 22120 81401 10272 20256 40081 8587/ 333 56499

58029=

48035 32560 70000 10253 20219 40090 85960 333 56190

58021=

48037 32558 71802 10291 20248 40068 85830 333 56440

58016=

48042 22559 61305 10295 20235 40079 84850 333 56440

58024=

48045 22440 82203 10210 20195 74044 888// 333 56599=

48048 32458 71801 10293 20248 40081 85950 333 56490

58022=

48051 22456 81301 10260 20260 86920 333 56490=

48053 22456 61803 10290 20230 40098 83556 333 56599

58013=

48060 22430 50000 10270 20226 40080 83830 333 56460

59018=

48062 21350 80901 10270 20260 40086 76452 86970 333

56990 58032=

48071 21458 82303 10270 20258 40085 72162 8697/ 333

5659/ 58015=

48075 22456 60000 10250 20219 40119 83835 333 56539

58029=

48077 22559 80000 10282 20250 40090 85931 333 56499

58025=

48078 22550 61801 10280 20250 40115 84531 333 56599

58013=

48080 21459 80401 10261 20246 40097 75065 85970 333

56590 58013=

48085 21356 83603 10256 20256 40106 76196 86920 333

56990 58023=

48095 32458 72202 10300 20266 85940 333 56690=

48108 21495 72305 10285 20264 40120 72055 84376 333

56599 58010=

48109 32497 52301 10300 20253 40113 84930 333 56990

58014=

48110 22495 82302 10300 20266 40122 83357 333 56999

58013=

48112 32597 82701 10280 20250 40130 83876 333 56699

59018=

48030 21256 82201 10194 20175 75055 8684/ 333 56569=

48072 21458 82702 10255 20246 76065 8672/ 333 5699/=

48087 32550 72302 10292 20259 8437/ 333 5649/=

48099 22440 70000 10278 20250 40113 85930 333 56990

58013=

48101 22659 62302 10307 20267 83331 333 56599=

48103 21456 70402 10298 20253 40110 70155 85770 333

56110 58012=

48057 32458 61401 10220 20185 85950 333 56490=

48094 32460 62202 10310 20260 40102 84970 333 56590

58016=

48097 22557 62301 10300 20266 40113 84801 333 56909

58012=

48031 21/05 91801 10200 20200 74744 89/// 333 56999=

48033 NIL=

48034 22456 80000 10218 20195 8692/ 333 5659/=

48039 32460 61401 10285 20233 84860 333 56440=

48043 32556 71808 10240 20209 8587/ 333 56599=

48052 32460 71301 10300 20239 85930 333 56390=

48055 32556 70902 10241 20200 40102 85840 333 56490

58020=

48064 22458 51401 10292 20259 40069 83831 333 56449

58007=

48065 22556 52202 10292 20259 84870 333 56490=

48074 22458 81401 10260 20246 40109 8587/ 333 56449

58009=

48092 22457 61301 10285 20271 40092 83336 333 56499

58015=

48093 22558 82301 10292 20259 8657/ 333 56599=

48107 22350 52301 10274 20256 40111 85900 333 56500

58011=

48096 22458 71603 10290 20259 40110 84970 333 56990

58014=  
SIBM20 VBRR 030300 RRA

AAXX 03034

48033 32562 51801 10300 20239 40079 84801 333 56909

58039=  





