



*-*-*


<!--
.style2 {
	font-family:"Courier New", Courier, monospace;
	font-size: 14px;
}
-->






SMBM01 VBRR 040000

AAXX 04004

48001 NIL=

48004 NIL=

48008 31550 60000 10192 20175 40047 71044 83970 333 20184 56560

 59019=

48010 22540 50000 10190 20182 40052 82530 333 20185 56660 59011=09900

48018 22550 43201 10200 20185 40054 82870 333 20185 56560 59021

 69902=09900

48019 32440 40000 10193 20175 40039 80020 333 20190 56050 59032=

48020 NIL=

48025 32410 20000 10218 20185 40047 81540 333 20210 56690 59023=

48030 32250 12201 10143 20107 80040 333 20133 56060=

48031 31250 11801 10152 20111 70544 80002 333 20140 56009=

48033 32960 13301 10230 20214 40089 80001 333 20210 56009 58000=

48034 32956 00000 10142 20124 333 20123=

48035 31530 50000 10157 20144 40066 71022 84960 333 20150 56590

 59019=

48037 32920 00000 10230 20198 40046 333 20220 59055=

48039 32456 30000 10229 20198 83400 333 20227 56900=

48042 32556 10000 10240 20191 40038 81400 333 20230 56900 59019=

48043 32030 00000 10170 20135 333 20135=

48045 NIL=

48048 32550 20000 10233 20181 40044 82800 333 20226 56900 59018=

48051 32556 73201 10240 20230 86930 333 20230 56590=

48052 32450 30000 10250 20205 83800 333 20238 56900=

48053 32940 00000 10230 20198 40048 333 20222 59018=

48055 32556 30000 10137 20127 40080 81501 333 20128 56509 59005=

48057 32956 12201 10160 20144 80001 333 20150 56009=

48060 32430 00000 10160 20144 40090 333 20143 58010=

48062 32450 70000 10270 20240 40058 85970 333 20220 56290 59010=SSL

48064 32950 00000 10250 20219 40021 333 20195 59041=

48065 32950 10000 10235 20198 80001 333 20215 56009=

48071 32456 20000 10250 20233 40056 82800 333 20240 56900 59015=

48072 NIL=

48074 31456 20000 10243 20191 40053 70500 81401 333 20229 56909

 59028=

48075 31456 30000 10180 20170 40098 70511 82501 333 20170 56509

 59008=

48077 32956 00000 10250 20205 40034 333 20220 59041=

48078 32540 31401 10244 20198 40053 81501 333 20215 56909 59021=

48080 31450 80000 10224 20185 40073 71022 85870 333 20200 56690

 59015=SSM

48085 32456 20000 10222 20220 40057 82800 333 20220 56800 59016=SSL

48087 NIL=

48092 31930 00000 10230 20222 40039 71011 333 20220 59027=

48093 32950 02301 10240 20226 333 20237=

48094 31956 00000 10250 20230 40054 71000 333 20210 59021=

48095 NIL=

48097 32556 22702 10245 20214 40076 82500 333 20230 56900 59003=

48099 32440 42301 10252 20233 40056 83830 333 20238 56590 59018=

48101 NIL=

48103 32540 31302 10268 20240 40053 83500 333 20230 56300 59026=

48107 31330 40401 10228 20214 40065 74144 84900 333 20216 56700

 59020=

48108 31594 50501 10220 20212 40072 71022 82406 333 20210 56909

 59018=

48109 NIL=

48110 31595 31802 10245 20233 40077 70511 81406 333 20240 56909

 59006=

48112 32597 63601 10263 20246 40073 82246 333 20218 56899 59017=  
SMBM01 VBRR 040000

AAXX 04004
48001 NIL=
48004 NIL=
48008 31550 60000 10192 20175 40047 71044 83970 333 20184 56560
 59019=
48010 22540 50000 10190 20182 40052 82530 333 20185 56660 59011=09900
48018 22550 43201 10200 20185 40054 82870 333 20185 56560 59021
 69902=09900
48019 32440 40000 10193 20175 40039 80020 333 20190 56050 59032=
48020 NIL=
48025 32410 20000 10218 20185 40047 81540 333 20210 56690 59023=
48030 32250 12201 10143 20107 80040 333 20133 56060=
48031 31250 11801 10152 20111 70544 80002 333 20140 56009=
48033 32960 13301 10230 20214 40089 80001 333 20210 56009 58000=
48034 32956 00000 10142 20124 333 20123=
48035 31530 50000 10157 20144 40066 71022 84960 333 20150 56590
 59019=
48037 32920 00000 10230 20198 40046 333 20220 59055=
48039 32456 30000 10229 20198 83400 333 20227 56900=
48042 32556 10000 10240 20191 40038 81400 333 20230 56900 59019=
48043 32030 00000 10170 20135 333 20135=
48045 NIL=
48048 32550 20000 10233 20181 40044 82800 333 20226 56900 59018=
48051 32556 73201 10240 20230 86930 333 20230 56590=
48052 32450 30000 10250 20205 83800 333 20238 56900=
48053 32940 00000 10230 20198 40048 333 20222 59018=
48055 32556 30000 10137 20127 40080 81501 333 20128 56509 59005=
48057 32956 12201 10160 20144 80001 333 20150 56009=
48060 32430 00000 10160 20144 40090 333 20143 58010=
48062 32450 70000 10270 20240 40058 85970 333 20220 56290 59010=SSL
48064 32950 00000 10250 20219 40021 333 20195 59041=
48065 32950 10000 10235 20198 80001 333 20215 56009=
48071 32456 20000 10250 20233 40056 82800 333 20240 56900 59015=
48072 NIL=
48074 31456 20000 10243 20191 40053 70500 81401 333 20229 56909
 59028=
48075 31456 30000 10180 20170 40098 70511 82501 333 20170 56509
 59008=
48077 32956 00000 10250 20205 40034 333 20220 59041=
48078 32540 31401 10244 20198 40053 81501 333 20215 56909 59021=
48080 31450 80000 10224 20185 40073 71022 85870 333 20200 56690
 59015=SSM
48085 32456 20000 10222 20220 40057 82800 333 20220 56800 59016=SSL
48087 NIL=
48092 31930 00000 10230 20222 40039 71011 333 20220 59027=
48093 32950 02301 10240 20226 333 20237=
48094 31956 00000 10250 20230 40054 71000 333 20210 59021=
48095 NIL=
48097 32556 22702 10245 20214 40076 82500 333 20230 56900 59003=
48099 32440 42301 10252 20233 40056 83830 333 20238 56590 59018=
48101 NIL=
48103 32540 31302 10268 20240 40053 83500 333 20230 56300 59026=
48107 31330 40401 10228 20214 40065 74144 84900 333 20216 56700
 59020=
48108 31594 50501 10220 20212 40072 71022 82406 333 20210 56909
 59018=
48109 NIL=
48110 31595 31802 10245 20233 40077 70511 81406 333 20240 56909
 59006=
48112 32597 63601 10263 20246 40073 82246 333 20218 56899 59017=  





