



*-*-*


<!--
.style2 {
	font-family:"Courier New", Courier, monospace;
	font-size: 14px;
}
-->






SMBM01 VBRR 041200

AAXX 04124

48001 21330 82701 10202 20185 40086 72055 889// 333 10220 56199

58021 60042=

48004 21110 82403 10260 20203 75052 8697/ 333 10293 56559 69902=

48008 NIL=

48010 22530 70000 10240 20209 40045 83722 333 10281 56555 59001

60012=

48018 NIL=

48019 32550 20000 10315 20237 40032 80002 333 10335 56006 59001=

48020 32350 10000 10302 20223  81400 333 10317 56500=

48025 32456 33602 10332 20212 40023 83800 333 10337 56500 59003=

48030 32256 22205 10206 20091 82800 333 10240 56500=

48031 31260 53601 10235 20114 70544 85800 333 10275 56400=

48033 32562 10000 10350 20240 40019 81500 333 10384 56900 59017=

48034 32456 20000 10274 20133 82500 333 10315 56100=

48035 31558 42702 10284 20126 40014 70511 83860 333 10334 56790

59006=

48037 31540 30000 10361 20247 40005 70544 83200 333 10380 56600

59035=

48039 32459 31403 10355 20214 83400 333 10399 56900=

48042 32958 01801 10375 20214 40011 333 10415 59023=

48043 32030 00000 10280 20146 333 10315=

48045 32557 31402 10250 20105 83300 333 10289 56500=

48048 32950 02201 10382 20203 40011 333 10414 59017=

48051 32558 21302 10328 20240 82500 333 10355 56900=

48052 32450 22205 10390 20177 82200 333 10424 56900=

48053 32556 31801 10370 20207 40017 83800 333 10395 56900 59016=

48055 32556 33202 10306 20135 40009 83800 333 10346 56500 59009=

48057 32457 31801 10270 20133 83800 333 10304 56900=

48060 32930 00000 10290 20140 40029 333 10345 58006=

48062 NIL=

48064 32550 22302 10370 20246 40002 82800 333 10422 56400 59011=

48065 32450 20000 10270 20190 81101 333 10423 56909=

48071 32956 02701 10305 20254 40061 333 10330 59005=

48072 32957 02702 10300 20253 333 10335=

48074 32957 00000 10375 20240 40034 333 10397 59014=

48075 31456 32701 10300 20190 40033 70522 83800 333 10350 56500

59016=

48077 32556 52302 10367 20207 40020 84901 333 10414 56909 59011=

48078 32550 31802 10367 20201 40032 81202 333 10405 56909 59008=

48080 31457 22202 10300 20279 40063 70511 82200 333 10355 56600

58002=

48085 32456 22703 10288 20230 40061 81106 333 10328 56809 58003=

48087 32950 30000 10310 20203 80041 333 10384 56099=

48092 32556 22303 10335 20229 40022 82500 333 10368 56900 59003=

48093 32950 02301 10309 20237 333 10372=

48094 32457 23202 10308 20250 40057 82500 333 10370 56900 59006=

48095 32956 02202 10330 20244 333 10365=

48097 32557 32302 10330 20201 40059 83500 333 10360 56900 59010=

48099 32440 52703 10313 20225 40046 84830 333 10370 56690 58004=

48101 32756 12702 10325 20236 80030 333 10350 56090=

48103 32440 22201 10300 20223 40050 82500 333 10362 56500 58000=

48107 32340 42301 10292 20248 40062 84900 333 10338 56700 59001=

48108 32596 53203 10305 20260 40064 82606 333 10355 56709 59004=

48109 32997 00401 10325 20237 40068 333 10330 59006=

48110 31596 43204 10300 20253 40068 70522 81306 333 10335 56909

58001=

48112 32597 83202 10305 20247 40060 83876 333 10343 56799 59005=  
SMBM01 VBRR 041200

AAXX 04124
48001 21330 82701 10202 20185 40086 72055 889// 333
10220 56199 58021 60042=
48004 21110 82403 10260 20203 75052 8697/ 333 10293
56559 69902=
48008 NIL=
48010 22530 70000 10240 20209 40045 83722 333 10281
56555 59001 60012=
48018 NIL=
48019 32550 20000 10315 20237 40032 80002 333 10335
56006 59001=
48020 32350 10000 10302 20223 81400 333 10317 56500=
48025 32456 33602 10332 20212 40023 83800 333 10337
56500 59003=
48035 31558 42702 10284 20126 40014 70511 83860 333
10334 56790 59006=
48037 31540 30000 10361 20247 40005 70544 83200 333
10380 56600 59035=
48042 32958 01801 10375 20214 40011 333 10415 59023=
48045 32557 31402 10250 20105 83300 333 10289 56500=
48048 32950 02201 10382 20203 40011 333 10414 59017=
48051 32558 21302 10328 20240 82500 333 10355 56900=
48053 32556 31801 10370 20207 40017 83800 333 10395
56900 59016=
48060 32930 00000 10290 20140 40029 333 10345 58006=
48062 NIL=
48071 32956 02701 10305 20254 40061 333 10330 59005=
48075 31456 32701 10300 20190 40033 70522 83800 333
10350 56500 59016=
48077 32556 52302 10367 20207 40020 84901 333 10414
56909 59011=
48078 32550 31802 10367 20201 40032 81202 333 10405
56909 59008=
48080 31457 22202 10300 20279 40063 70511 82200 333
10355 56600 58002=
48085 32456 22703 10288 20230 40061 81106 333 10328
56809 58003=
48095 32956 02202 10330 20244 333 10365=
48108 32596 53203 10305 20260 40064 82606 333 10355
56709 59004=
48109 32997 00401 10325 20237 40068 333 10330 59006=
48110 31596 43204 10300 20253 40068 70522 81306 333
10335 56909 58001=
48112 32597 83202 10305 20247 40060 83876 333 10343
56799 59005=
48030 32256 22205 10206 20091 82800 333 10240 56500=
48072 32957 02702 10300 20253 333 10335=
48087 32950 30000 10310 20203 80041 333 10384 56099=
48099 32440 52703 10313 20225 40046 84830 333 10370
56690 58004=
48101 32756 12702 10325 20236 80030 333 10350 56090=
48103 32440 22201 10300 20223 40050 82500 333 10362
56500 58000=
48057 32457 31801 10270 20133 83800 333 10304 56900=
48094 32457 23202 10308 20250 40057 82500 333 10370
56900 59006=
48097 32557 32302 10330 20201 40059 83500 333 10360
56900 59010=
48031 31260 53601 10235 20114 70544 85800 333 10275
56400=
48033 32562 10000 10350 20240 40019 81500 333 10384
56900 59017=
48034 32456 20000 10274 20133 82500 333 10315 56100=
48039 32459 31403 10355 20214 83400 333 10399 56900=
48043 32030 00000 10280 20146 333 10315=
48052 32450 22205 10390 20177 82200 333 10424 56900=
48055 32556 33202 10306 20135 40009 83800 333 10346
56500 59009=
48064 32550 22302 10370 20246 40002 82800 333 10422
56400 59011=
48065 32450 20000 10270 20190 81101 333 10423 56909=
48074 32957 00000 10375 20240 40034 333 10397 59014=
48092 32556 22303 10335 20229 40022 82500 333 10368
56900 59003=
48093 32950 02301 10309 20237 333 10372=
48107 32340 42301 10292 20248 40062 84900 333 10338
56700 59001=  





