



*-*-*


<!--
.style2 {
	font-family:"Courier New", Courier, monospace;
	font-size: 14px;
}
-->






SMBM01 VBRR 040600 RRA

AAXX 04064

48035 32560 72201 10288 20215 40017 85960 333 56590

59009=

48037 32460 71401 10308 20254 40067 82830 333 56880

58018=

48042 32558 71302 10300 20253 40032 85850 333 56440

59014=

48045 32556 61402 10249 20205 84331 333 56155=

48048 32560 61801 10320 20248 40041 85950 333 56490

59011=

48053 32456 81802 10290 20248 40048 8575/ 333 56499

59011=

48060 21340 80000 10243 20226 40050 75165 8597/ 333

5659/ 58040=

48062 21458 80902 10275 20270 40055 70265 86970 333

56990 59010=

48071 32460 72301 10275 20268 40058 85970 333 56990

59012=

48075 32457 71401 10270 20226 40065 85770 333 56590

59016=

48077 32559 82302 10302 20239 40046 85931 333 56499

59008=

48078 32559 61402 10296 20256 40062 84831 333 56449

59016=

48080 21459 80401 10256 20250 40066 75065 85820 333

56590 59005=

48085 21357 83602 10250 20248 40068 75065 86770 333

56990 58005=

48095 32458 62202 10270 20256 82940 333 56990=

48108 21493 82302 10242 20242 40102 76165 8632/ 333

5659/ 59005=

48109 21396 82301 10250 20250 40086 75166 8697/ 333

5699/ 59007=

48110 21494 82301 10280 20250 40116 75165 8632/ 333

5669/ 58009=

48112 32597 82205 10310 20267 40103 83876 333 56599

59009=

48072 21460 82702 10290 20259 75055 86970 333 56590=

48087 21456 82301 10262 20246 75355 8597/ 333 5649/=

48099 21450 72306 10267 20256 40075 70265 85930 333

56590 59016=

48101 21558 80000 10233 20233 75365 8592/ 333 5699/=

48103 21356 81402 10253 20253 40077 76366 8672/ 333

5639/ 58014=

48057 32458 82701 10222 20185 86950 333 56590=

48094 32459 72201 10295 20255 40069 86940 333 56690

59011=

48097 32557 72302 10300 20266 40073 87800 333 56900

59007=

48034 21148 80000 10228 20220 75165 8692/ 333 5659/=

48039 32460 61401 10300 20253 84960 333 56550=

48043 21540 81805 10215 20215 76366 8672/ 333 56999=

48052 32468 52201 10310 20267 85900 333 56900=

48055 32456 82303 10258 20215 8697/ 333 5679/ 59029=

48064 32458 50901 10310 20254 40031 82806 333 56404

59002=

48065 32558 62202 10320 20265 85530 333 56990=

48074 32459 71803 10300 20253 40066 85870 333 56440

59014=

48092 32458 72303 10302 20253 40050 84736 333 56599

59007=

48093 21557 82701 10299 20253 75155 8637/ 333 56599=

48107 21330 82301 10244 20244 40085 76166 8597/ 333

5655/ 59012=  





