



*-*-*


<!--
.style2 {
	font-family:"Courier New", Courier, monospace;
	font-size: 14px;
}
-->






SIBM20 VBRR 040900

AAXX 04094

48001 NIL=

48004 NIL=

48008 NIL=

48010 NIL=

48018 NIL=

48019 NIL=

48020 NIL=

48025 NIL=

48035 NIL=

48037 NIL=

48042 NIL=

48045 NIL=

48048 NIL=

48051 32959 00901 10284 20200 333=

48053 NIL=

48060 NIL=

48062 32958 00902 10290 20260 40119 333 59009=

48071 32958 03203 10278 20184 40125 333 58007=

48075 21456 81401 10180 20155 40156 75055 8677/ 333

5659/ 58047=

48077 21457 80000 10210 20195 40135 76066 85970 333

56490 58031=

48078 21550 80401 10238 20191 40136 75065 8452/ 333

56599 58038=

48080 31459 80402 10220 20205 40132 75055 85770 333

56590 58027=

48085 31357 80403 10256 20179 40122 75055 86770 333

56390 58021=

48095 21456 80403 10270 20172 70255 8594/ 333 5649/=

48108 32596 63202 10340 20249 40096 83366 333 56699

59002=

48109 NIL=

48110 21596 51303 10335 20257 40090 70295 83306 333

56209 58001=

48112 32598 60409 10300 20253 40089 82216 333 56199

58006=

48030 NIL=

48072 21459 60902 10260 20215 75055 84970 333 56790=

48087 32458 80404 10264 20179 8597/ 333 5699/=

48099 21456 72302 10300 20223 40096 70155 85930 333

56590 58012=

48101 32458 80403 10277 20220 8577/ 333 5699/=

48103 21450 73202 10288 20248 40094 70355 86730 333

56770 58007=

48057 NIL=

48094 32458 70402 10267 20190 40122 85940 333 56990

58017=

48097 32557 80703 10275 20178 40123 8385/ 333 5699/

58013=

48031 NIL=

48033 NIL=

48034 NIL=

48039 NIL=

48043 NIL=

48052 NIL=

48055 NIL=

48064 NIL=

48065 NIL=

48074 NIL=

48092 32457 72703 10270 20226 40094 84830 333 56990

58005=

48093 32557 83202 10269 20191 85841 333 56199=

48107 32350 40401 10320 20236 40095 84900 333 56100

59011=

48096 32458 83609 10280 20220 40118 85840 333 56990

58021=  





