



*-*-*


<!--
.style2 {
	font-family:"Courier New", Courier, monospace;
	font-size: 14px;
}
-->






SMBM01 VBRR 040000 RRA

AAXX 04004

48051 22556 13602 10176 20170 81500 333 20171 56900

60022=

48062 31440 80401 10205 20200 40137 71022 86970 333

20185 56990 58004 60002=

48071 31340 80000 10238 20198 40133 76066 8692/ 333

20225 5699/ 58004 60012=

48075 21456 80000 10180 20155 40166 72055 8677/ 333

20172 5659/ 59007 69902=

48077 32556 60000 10236 20134 40123 84930 333 20196

56990 58003=

48080 31456 80000 10230 20198 40125 70255 85870 333

20215 56590 59003=

48085 31356 81401 10230 20214 40117 70352 85870 333

20228 56590 59006=

48108 21494 60000 10230 20222 40118 71022 84506 333

20210 56909 59007 60122=

48109 32496 50901 10272 20240 40114 70222 84930 333

20218 56990 59008 60002=

48110 21596 50000 10245 20237 40117 70522 81406 333

20245 56909 59006=

48112 32598 60407 10260 20246 40108 70222 82216 333

20205 56199 59007 60002=

48099 31330 20401 10238 20226 40117 74044 82700 333

20220 56900 59007=

48103 31430 72201 10243 20226 40109 74044 85730 333

20241 56550 59016=

48094 32456 30000 10240 20210 40114 82840 333 20234

56990 59013=

48097 32557 50401 10230 20214 40158 82550 333 20212

56990 59003=

48092 32456 20000 10220 20205 40108 82400 333 20206

56900 58001=

48093 32550 20401 10222 20216 81140 333 20217 56190=

48107 22330 61301 10240 20240 40113 84970 333 20233

56330 59007 60002=

48096 32456 20102 10230 20214 40119 70222 81530 333

20226 56990 59013=  
SMBM01 VBRR 040000

AAXX 04004

48051 22556 13602 10176 20170 81500 333 20171 56900

60022=

48062 31440 80401 10205 20200 40137 71022 86970 333

20185 56990 58004 60002=

48071 31340 80000 10238 20198 40133 76066 8692/ 333

20225 5699/ 58004 60012=

48075 21456 80000 10180 20155 40166 72055 8677/ 333

20172 5659/ 59007 69902=

48077 32556 60000 10236 20134 40123 84930 333 20196

56990 58003=

48080 31456 80000 10230 20198 40125 70255 85870 333

20215 56590 59003=

48085 31356 81401 10230 20214 40117 70352 85870 333

20228 56590 59006=

48108 21494 60000 10230 20222 40118 71022 84506 333

20210 56909 59007 60122=

48109 32496 50901 10272 20240 40114 70222 84930 333

20218 56990 59008 60002=

48110 21596 50000 10245 20237 40117 70522 81406 333

20245 56909 59006=

48112 32598 60407 10260 20246 40108 70222 82216 333

20205 56199 59007 60002=

48099 31330 20401 10238 20226 40117 74044 82700 333

20220 56900 59007=

48103 31430 72201 10243 20226 40109 74044 85730 333

20241 56550 59016=

48094 32456 30000 10240 20210 40114 82840 333 20234

56990 59013=

48097 32557 50401 10230 20214 40158 82550 333 20212

56990 59003=

48092 32456 20000 10220 20205 40108 82400 333 20206

56900 58001=

48093 32550 20401 10222 20216 81140 333 20217 56190=

48107 22330 61301 10240 20240 40113 84970 333 20233

56330 59007 60002=

48096 32456 20102 10230 20214 40119 70222 81530 333

20226 56990 59013=  





