



*-*-*


<!--
.style2 {
	font-family:"Courier New", Courier, monospace;
	font-size: 14px;
}
-->






SMBM01 VBRR 041800

NIL=  
SMBM01 VBRR 041800 RRA

AAXX 04184

48008 31510 60000 10200 20168 40144 71044 82970 333 56560 59029=

48010 32003 00000 10175 20172 40166 333 59025=

48018 32520 30000 10170 20154 40160 70111 82810 333 56550 59020=

48025 NIL=

48042 32550 10000 10192 20159 40144 81400 333 56900 59021=

48053 32540 60000 10190 20159 40152 82556 333 56599 59018=

48057 NIL=

48060 32910 20000 10140 20124 40188 70122 80032 333 56099 59014=

48071 31920 10000 10200 20185 40156 70200 81200 333 56900 59010=

48078 32950 20000 10195 20164 40153 80001 333 56009 59007=

48080 32450 40401 10200 20185 40159 82870 333 56990 59011=

48094 32950 00000 10220 20210 40151 333 59010=

48097 32956 00301 10220 20185 40159 333 59014=

48099 32440 22302 10240 20191 40142 82500 333 56900 59011=

48108 NIL=

48109 32995 00000 10240 20209 40141 70222 333 56000 59017=

48110 NIL=

48112 32597 70402 10262 20229 40128 83876 333 56199 59012=  





