



*-*-*


<!--
.style2 {
	font-family:"Courier New", Courier, monospace;
	font-size: 14px;
}
-->






SIBM20 VBRR 040322

AAXX 04034

48001 31440 70000 10120 20118 40179 70522 85920 333 56260 59029=

48004 32562 33201 10180 20147 83800 333 56500=

48008 32558 30401 10177 20129 40155 82430 333 56560 59003= 

48010 32550 20000 10190 20175 40144 80050 333 56060 59004= 

48018 32558 41401 10185 20165 40154 70344 82870 333 56550 59004= 

48019 32560 13601 10189 20129 40143 80001 333 56006 59036=

48020 31256 30000 10210 20175 70144 82830 333 56550=

48025 32456 50000 10214 20175 40149 82540 333 56550 59033=

48030 31250 42202 10128 20086 70344 80050 333 56060=

48031 32257 50401 10165 20144 83840 333 56490=

48033 32962 00401 10230 20163 40142 333 58005= 

48034 31956 00000 10177 20129 71000 333= 

48035 31/09 90000 10151 20150 40154 74744 333 59027= 

48037 32958 03601 10212 20175 40132 333 59049=

48039 31940 22201 10227 20181 74044 80002 333 56009=

48042 32957 00000 10280 20181 40129 333 59034= 

48043 32057 03205 10180 20147 333=

48045 32560 31401 10160 20106 81541 333 56559=

48048 32960 00401 10213 20175 40129 333 59021= 

48051 32558 13102 10230 20200 70111 81200 333 56900=

48052 32960 00402 10250 20167 333=

48053 32950 00000 10220 20185 40148 333 59015= 

48055 31440 10901 10150 20134 40159 71044 81500 333 56500 59029= 

48057 32456 31401 10200 20130 83800 333 56900= 

48060 31910 20000 10165 20140 40156 71044 82100 333 56900 59005= 

48062 31550 20402 10237 20210 40137 71044 82500 333 56900 58026=

48064 32960 01401 10210 20175 40130 333 59021=

48065 32968 00000 10239 20174 333=

48071 31458 30000 10265 20240 40141 70500 83800 333 56700 59027=

48072 32459 11301 10270 20240 81200 333 56900=

48074 32559 00401 10225 20185 40150 333 59029=

48075 31958 00000 10190 20190 40154 70144 333 59027=

48077 32959 10401 10240 20191 40131 80001 333 56009 59033= 

48078 31956 12301 10234 20203 40143 70144 80001 333 56009 59022=

48080 32959 00402 10230 20198 40147 333 59014=

48085 32958 00000 10244 20226 40136 333 59024=

48087 32960 00000 10234 20214 333=

48092 31950 00501 10260 20209 40124 70522 333 59020=

48093 32957 00401 10250 20186 333= 

48094 32959 00402 10270 20230 40145 333 59019= 

48095 32958 00000 10240 20226 333=

48097 31457 21801 10270 20211 40144 70511 82500 333 56900 59035=

48099 31440 20000 10240 20174 40144 70544 82500 333 56900 59027=

48101 32958 00000 10254 20205 333=

48103 32956 00401 10230 20163 40141 333 59028=

48107 31950 02302 10220 20173 40129 7//44 333 59026=

48108 31596 40501 10230 20163 40147 70144 81406 333 56909 59020=

48109 32497 10401 10282 20220 40141 81500 333 56900 59014= 

48110 31996 11303 10265 20177 40138 70544 80005 333 56009 59023= 

48112 32597 80407 10250 20219 40134 83876 333 56199 58008=  
SIBM20 VBRR 040300

AAXX 04034

48001 31440 70000 10120 20118 40179 70522 85920 333

56260 59029=

48004 32562 33201 10180 20147 83800 333 56500=

48008 32558 30401 10177 20129 40155 82430 333 56560

59003=

48010 32550 20000 10190 20175 40144 80050 333 56060

59004=

48018 32558 41401 10185 20165 40154 70344 82870 333

56550 59004=

48019 32560 13601 10189 20129 40143 80001 333 56006

59036=

48020 31256 30000 10210 20175 70144 82830 333 56550=

48025 32456 50000 10214 20175 40149 82540 333 56550

59033=

48035 31/09 90000 10151 20150 40154 74744 333 59027=

48037 32958 03601 10212 20175 40132 333 59049=

48042 32957 00000 10280 20181 40129 333 59034=

48045 32560 31401 10160 20106 81541 333 56559=

48048 32960 00401 10213 20175 40129 333 59021=

48051 32558 13102 10230 20200 70111 81200 333 56900=

48053 32950 00000 10220 20185 40148 333 59015=

48060 31910 20000 10165 20140 40156 71044 82100 333

56900 59005=

48062 31550 20402 10237 20210 40137 71044 82500 333

56900 58026=

48071 31458 30000 10265 20240 40141 70500 83800 333

56900=

48075 31958 00000 10190 20190 40154 70144 333 59027=

48077 32959 10401 10240 20191 40131 80001 333 56009

59033=

48078 31956 12301 10234 20203 40143 70144 80001 333

56009 59022=

48080 32959 00402 10230 20198 40147 333 59014=

48085 32958 00000 10244 20226 40136 333 59024=

48095 32958 00000 10240 20226 333=

48108 31596 40501 10230 20163 40147 70144 81406 333

56909 59020=

48109 32497 10401 10282 20220 40141 81500 333 56900

59014=

48110 31996 11303 10265 20177 40138 70544 80005 333

56009 59023=

48112 32597 80407 10250 20219 40134 83876 333 56199

58008=

48030 31250 42202 10128 20086 70344 80050 333 56060=

48072 32459 11301 10270 20240 81200 333 56900=

48087 32960 00000 10234 20214 333=

48099 31440 20000 10240 20174 40144 70544 82500 333

56900 59027=

48101 32958 00000 10254 20205 333=

48103 32956 00401 10230 20163 40141 333 59028=

48057 32456 31401 10200 20130 83800 333 56900=

48094 32959 00402 10270 20230 40145 333 59019=

48097 31457 21801 10270 20211 40144 70511 82500 333

56900 59035=

48031 32257 50401 10165 20144 83840 333 56490=

48033 32962 00401 10230 20163 40142 333 58005=

48034 31956 00000 10177 20129 71000 333=

48039 31940 22201 10227 20181 74044 80002 333 56009=

48043 32057 03205 10180 20147 333=

48052 32960 00402 10250 20167 333=

48055 31440 10901 10150 20134 40159 71044 81500 333

56500 59029=

48064 32960 01401 10210 20175 40130 333 59021=

48065 32968 00000 10239 20174 333=

48074 32559 00401 10225 20185 40150 333 59029=

48092 31950 00501 10260 20209 40124 70522 333 59020=

48093 32957 00401 10250 20186 333=

48107 31950 02302 10220 20173 40129 7//44 333 59026=  





