



*-*-*


<!--
.style2 {
	font-family:"Courier New", Courier, monospace;
	font-size: 14px;
}
-->






SIBM20 VBRR 040914

AAXX 04094

48001 NIL=

48004 32460 40401 10267 20191 84300 333 56500=

48008 32558 21401 10286 20140 40095 81430 333 56560 59032=

48010 32560 30000 10290 20215 40096 83800 333 56550 59048=

48018 32560 21401 10290 20179 40108 70311 82800 333 56500 59032=

48019 NIL=

48020 NIL=

48025 32458 13201 10290 20207 40094 81100 333 56900 59004=

48030 32256 52203 10214 20120 84900 333 56500=

48031 32258 61801 10230 20124 86800 333 56400=

48033 32562 62702 10310 20225 40094 84806 333 56560 59009=

48034 32457 22302 10267 20154 82800 333 56500=

48035 32560 12202 10271 20154 40062 81100 333 56900 59031=

48037 32662 33601 10321 20200 40085 80039 333 56655 59026=

48039 32460 62201 10320 20184 81100 333 56500=

48042 32558 12201 10330 20191 40089 81100 333 56900 59026=

48043 32656 31405 10250 20150 83200 333 56600=

48045 32560 61804 10245 20167 85801 333 56509=

48048 32962 02201 10335 20184 40091 333 59037=

48051 32559 43103 10318 20200 70311 82200 333 56900=

48052 32470 22201 10345 20182 82200 333 56900=

48053 32556 23602 10330 20212 40095 82500 333 56800 59017=

48055 32557 40904 10283 20184 40058 84800 333 56500 59038=

48057 32458 42301 10245 20136 84800 333 56600=

48060 32440 23201 10285 20158 40069 70111 82100 333 56500 58038=

48062 31557 22705 10305 20252 40108 82500 333 56900 59021=

48064 32970 01401 10294 20196 40076 333 59024=

48065 32970 00000 10343 20184 333=

48071 31960 03203 10297 20207 40115 70500 333 59015=

48072 32960 02702 10310 20254 70122 333=

48074 32961 03202 10325 20200 40092 333 59027=

48075 32560 40000 10300 20170 40059 84200 333 56500 59044=

48077 32559 20000 10350 20202 40086 81201 333 56909 59025=

48078 32559 22301 10330 20201 40105 81100 333 56809 59020=

48080 32460 22206 10315 20237 40103 82300 333 56700 59020=

48085 32458 23205 10298 20223 40100 82800 333 56300 59019=

48087 NIL=

48092 32458 40501 10310 20203 40079 70322 84100 333 56900 59019=

48093 32657 40401 10313 20203 84800 333 56100=

48094 32560 30402 10340 20230 40096 83900 333 56900 59030=

48095 32960 00000 10340 20225 333=

48096 32558 53004 10320 20200 40102 70311 83204 333 56909 59026= 

48097 31457 72301 10320 20184 40105 70522 87800 333 56900 59017=

48099 32456 22701 10320 20200 40090 82500 333 56900 59020=

48101 32660 13201 10313 20203 70311 81100 333 56900=

48103 32957 00401 10329 20172 40094 333 59022=

48107 32950 00902 10310 20169 40094 333 59016=

48108 32996 32302 10330 20162 40101 80006 333 56009 59017=

48109 NIL=

48110 31996 43205 10320 20184 40103 70522 80006 333 56009 59009=

48112 NIL=  





