



*-*-*


<!--
.style2 {
	font-family:"Courier New", Courier, monospace;
	font-size: 14px;
}
-->






SMBM01 VBRR 041200

AAXX 04124

48001 32450 60000 10320 20265 40036 83950 333 10335 56150 59026=

48004 32458 50401 10348 20266 85900 333 10382 56500=

48008 32557 21402 10330 20244 40021 81430 333 10350 56560 59016=

48010 32556 60000 10355 20294 40016 82930 333 10375 56760 59003=

48018 31558 62201 10325 20248 40038 84872 333 10335 56549 59008=

48019 32556 22701 10337 20258 40021 82200 333 10351 56500 59005=

48020 31350 63603 10310 20237 70399 84331 333 10382 56559=

48025 31456 62201 10336 20270 40033 70399 8597/ 333 10380 5655/

58020=

48030 21240 82202 10210 20195 70595 8794/ 333 10268 5656/

69902=

48031 21257 81801 10230 20181 70299 883// 333 10285 564// 60132=

48033 32562 72301 10350 20240 40044 85970 333 10390 56690 58043=

48034 21456 60000 10231 20204 70155 86300 333 10298 56500 60052=

48035 21558 50000 10277 20203 40029 70399 83960 333 10331 56590

58015 60022=

48037 21457 82701 10270 20256 40045 79595 8597/ 333 10395 5666/

58037 60022=

48039 32460 83201 10340 20240 8496/ 333 10375 5655/=

48042 32559 71302 10350 20240 40028 83906 333 10385 56409 58014=

48043 32530 80000 10265 20226 8687/ 333 10295 5699/=

48045 NIL=

48048 21550 81802 10274 20240 40047 72996 8692/ 333 10420 5699/

58037 60152=

48051 22558 70403 10330 20260 85930 333 10360 56790 60032=

48052 32450 52206 10372 20246 85900 333 10420 56900=

48053 32456 71801 10340 20270 40031 85950 333 10350 56550 59007=

48055 21556 80000 10248 20219 40060 75095 8597/ 333 10304 5656/

58016 69902=

48057 22456 61401 10230 20198 84350 333 10270 56590 69902=

48060 32420 70000 10290 20215 40022 83872 333 10325 56599 58013=

48062 32556 72703 10330 20290 40056 85970 333 10345 56790 59003=

48064 32550 61401 10330 20275 40024 82806 333 10390 56409 58018=

48065 32450 60000 10320 20236 84970 333 10390 56990=

48071 32456 63201 10315 20265 40065 84970 333 10340 56990 58002=

48072 32456 82701 10300 20266 85970 333 10345 56590=

48074 32457 81402 10320 20267 40054 8497/ 333 10365 5644/ 59004=

48075 21456 82202 10240 20209 40070 75055 8677/ 333 10320 5659/

59009 60042=

48077 32556 82301 10280 20250 40061 85970 333 10362 56490 58028=

48078 31556 71401 10316 20242 40061 70399 84933 333 10345 56499

58001=

48080 21457 80401 10260 20246 40071 71796 85970 333 10335 56690

58004 60072=

48085 31456 72203 10298 20253 40063 75095 85976 333 10323 56799

58002=

48087 32450 80000 10290 20248 8497/ 333 10356 5649/=

48092 21357 82301 10270 20233 40047 75022 84331 333 10325 56999

59001 60122=

48093 32650 42302 10282 20233 82341 333 10340 56999=

48094 21456 72201 10266 20260 40068 70196 85970 333 10326 56990

59004 60172=

48095 21456 60000 10260 20260 79622 83970 333 10324 56990 60362=

48096 21350 71903 10270 20256 40076 79596 85970 333 10340 56990

59001 60042=

48097 21457 71802 10260 20260 40085 76299 8697/ 333 10345 5699/

58008 60192=

48099 21456 52702 10310 20267 40062 70295 84301 333 10334 56909

58005 69902=

48101 32556 52701 10298 20266 82331 333 10330 56599=

48103 32450 41402 10302 20253 40064 83730 333 10334 56330 59002=

48107 32340 42301 10300 20253 40071 84900 333 10345 56500 59004=

48108 32596 83201 10300 20239 40074 84377 333 10345 56699 59008=

48109 22496 70000 10268 20256 40078 84970 333 10313 56990 58012

60422=

48110 32496 83202 10305 20253 40075 85307 333 10350 56909 59005=

48112 32597 82201 10295 20259 40096 83876 333 10348 56599 59005=  





