



*-*-*


<!--
.style2 {
	font-family:"Courier New", Courier, monospace;
	font-size: 14px;
}
-->






SIBM20 VBRR 040900

AAXX 04094

48001 NIL=

48004 32340 82201 10278 20184 8697/ 333 56559=

48008 31556 82302 10291 20115 40082 71044 8497/ 333

56569 58037=

48010 32558 72302 10285 20146 40081 84770 333 56660

58036=

48018 32560 73202 10300 20098 40082 70322 84870 333

56760 58017=

48019 32457 83201 10303 20166 40079 8577/ 333 56459

58009=

48020 NIL=

48025 31456 83202 10312 20146 40069 70544 85840 333

56450 58024=

48035 31556 32704 10309 20068 40043 70511 83800 333

56900 58029=

48037 31557 70000 10360 20156 40060 70544 83330 333

56660 58020=

48042 32558 22202 10380 20159 40054 81250 333 56990

58010=

48045 32560 41812 10270 20113 83340 333 56550=

48048 32562 43201 10395 20196 40056 85800 333 56400

58003=

48051 32559 33104 10354 20180 70311 83200 333 56700=

48053 32950 62202 10370 20148 40059 83852 333 56599

58018=

48060 32450 32705 10330 20151 40052 70322 82130 333

56590 58031=

48062 32556 32708 10305 20270 40102 70322 82530 333

56690 58014=

48071 32960 03204 10305 20254 40103 333 58010=

48075 31457 32703 10335 20034 40050 70511 83500 333

56500 58008=

48077 31558 40000 10400 20196 40065 70500 83901 333

56909 58017=

48078 32960 11801 10382 20173 40075 80001 333 56009

58012=

48080 32960 02209 10322 20236 40087 333 58014=

48085 NIL=

48095 32960 02202 10380 20221 333=

48108 32596 63208 10355 20210 40093 84306 333 56609

58015=

48109 32997 00401 10324 20236 40116 70222 333 58013=

48110 31596 30404 10335 20257 40092 70511 81305 333

56909 59008=

48112 NIL=

48030 21150 82204 10134 20113 75055 86870 333 56560=

48072 32960 02704 10330 20258 70222 333=

48087 NIL=

48099 32558 32302 10362 20235 40080 83800 333 56500

58015=

48101 32960 03202 10340 20225 333=

48103 32957 02202 10347 20219 40086 333 58021=

48057 32457 41403 10282 20126 83801 333 56409=

48094 32960 03203 10350 20220 40086 333 58006=

48097 32457 31302 10360 20177 40084 83400 333 56900

58006=

48031 31260 82202 10150 20134 70355 888// 333 56400=

48033 32963 03601 10360 20177 40061 333 58021=

48034 32457 61803 10268 20085 85830 333 56550=

48039 NIL=

48043 32058 03205 10280 20098 333=

48052 32470 32203 10395 20196 83800 333 56900=

48055 31556 33206 10318 20116 40030 70511 83800 333

56500 58017=

48064 32570 31401 10387 20253 40039 82801 333 56409

58012=

48065 32568 52201 10385 20203 84840 333 56590=

48074 32561 13203 10376 20159 40075 81100 333 56900

58027=

48092 32959 02306 10375 20205 40059 333 58021=

48093 32958 02301 10362 20235 333=

48107 32950 02303 10353 20202 40090 333 58015=  
SIBM20 VBRR 040900

AAXX 04094
48001 NIL=
48004 32340 82201 10278 20184 8697/ 333 56559=
48008 31556 82302 10291 20115 40082 71044 8497/ 333 56569 58037=
48010 32558 72302 10285 20146 40081 84770 333 56660 58036=
48018 32560 73202 10300 20098 40082 70322 84870 333 56760 58017=
48019 32457 83201 10303 20166 40079 8577/ 333 56459 58009=
48020 NIL=
48025 31456 83202 10312 20146 40069 70544 85840 333 56450 58024=
48030 21150 82204 10134 20113 75055 86870 333 56560=
48031 31260 82202 10150 20134 70355 888// 333 56400=
48033 32963 03601 10360 20177 40061 333 58021=
48034 32457 61803 10268 20085 85830 333 56550=
48035 31556 32704 10309 20068 40043 70511 83800 333 56900 58029=
48037 31557 70000 10360 20156 40060 70544 83330 333 56660 58020=
48039 32459 20401 10359 20156 82100 333 56500=
48042 32558 22202 10380 20159 40054 81250 333 56990 58010=
48043 32058 03205 10280 20098 333=
48045 32560 41812 10270 20113 83340 333 56550=
48048 32562 43201 10395 20196 40056 85800 333 56400 58003=
48051 32559 33104 10354 20180 70311 83200 333 56700=
48052 32470 32203 10395 20196 83800 333 56900=
48053 32950 62202 10370 20148 40059 83852 333 56599 58018=
48055 31556 33206 10318 20116 40030 70511 83800 333 56500 58017=
48057 32457 41403 10282 20126 83801 333 56409=
48060 32450 32705 10330 20151 40052 70322 82130 333 56590 58031=
48062 32556 32708 10305 20270 40102 70322 82530 333 56690 58014=
48064 32570 31401 10387 20253 40039 82801 333 56409 58012=
48065 32568 52201 10385 20203 84840 333 56590=
48071 32960 03204 10305 20254 40103 333 58010=
48072 32960 02704 10330 20258 70222 333=
48074 32561 13203 10376 20159 40075 81100 333 56900 58027=
48075 31457 32703 10335 20034 40050 70511 83500 333 56500 58008=
48077 31558 40000 10400 20196 40065 70500 83901 333 56909 58017=
48078 32960 11801 10382 20173 40075 80001 333 56009 58012=
48080 32960 02209 10322 20236 40087 333 58014=
48085 NIL=
48087 NIL=
48092 32959 02306 10375 20205 40059 333 58021=
48093 32958 02301 10362 20235 333=
48094 32960 03203 10350 20220 40086 333 58006=
48095 32960 02202 10380 20221 333=
48096 32058 02904 10360 20195 40084 333 58010=
48097 32457 31302 10360 20177 40084 83400 333 56900 58006=
48099 32558 32302 10362 20235 40080 83800 333 56500 58015=
48101 32960 03202 10340 20225 333=
48103 32957 02202 10347 20219 40086 333 58021=
48107 32950 02303 10353 20202 40090 333 58015=
48108 32596 63208 10355 20210 40093 84306 333 56609 58015=
48109 32997 00401 10324 20236 40116 70222 333 58013=
48110 31596 30404 10335 20257 40092 70511 81305 333 56909 59008=
48112 NIL=  





