



*-*-*


<!--
.style2 {
	font-family:"Courier New", Courier, monospace;
	font-size: 14px;
}
-->






SMBM01 VBRR 041204

AAXX 04124
48001 21440 82701 10216 20185 40078 71595 8692/ 333 10260 56459
 58005=
48004 NIL=
48008 31540 80000 10262 20160 40086 71044 8497/ 333 10300 56569 58040
 60002=
48010 21420 82203 10245 20174 40090 75155 8577/ 333 10320 56559
 58053=
48018 21556 83201 10275 20146 40073 75055 8587/ 333 10320 56769
 58023=
48019 32440 80000 10263 20203 40081 8577/ 333 10325 56459 58042
 60002=
48020 21240 73602 10250 20186 72055 87800 333 10365 56500=
48025 31456 83201 10276 20158 40103 70255 85870 333 10333 56550
 58069=
48030 21150 82205 10128 20113 76355 84970 333 10220 56560=
48031 21260 81801 10140 20107 70266 883// 333 10225 56499=
48033 21560 73302 10260 20203 40098 72055 85870 333 10360 56660
 58061=
48034 32456 80000 10232 20074 8437/ 333 10280 5659/ 60002=
48035 31530 62702 10266 20085 40056 70500 84960 333 10315 56560 58035
 60002=
48037 21556 43602 10277 20158 40076 72055 82330 333 10375 56660
 58048=
48039 32459 70401 10326 20151 85960 333 10375 56660 60002=
48042 32557 73601 10336 20184 40052 82950 333 10385 56960 58016
 60002=
48043 32520 73203 10250 20105 85230 333 10290 56590 60002=
48045 32558 31413 10230 20097 83300 333 10278 56500 60002=
48048 32550 21802 10360 20214 40053 82800 333 10400 56900 58025
 60002=
48051 32559 23103 10312 20170 70122 82200 333 10357 56900 60002=
48052 32450 32202 10368 20171 83800 333 10398 56900 60002=
48053 32550 62203 10350 20158 40054 84850 333 10370 56590 58021
 60002=
48055 31556 43603 10288 20128 40050 70511 84800 333 10333 56500 58024
 60002=
48057 32456 31401 10243 20136 83800 333 10290 56400=
48060 32420 20000 10265 20135 40072 70122 82800 333 10330 56500 58038
 60002=
48062 31556 23204 10285 20260 40098 70522 82500 333 10310 56900 58020
 60002=
48064 32550 12701 10345 20206 40054 81500 333 10396 56900 59006=
48065 32450 32216 10347 20219 82101 333 10395 56909 60002=
48071 32958 03203 10283 20233 40105 333 10310 58020 60002=
48072 32456 22702 10275 20233 70322 82300 333 10335 56700=
48074 32458 60000 10345 20206 40063 84880 333 10380 56550 58022
 60002=
48075 31456 12701 10285 20145 40072 70511 81500 333 10345 56900 58015
 60002=
48077 31956 22303 10350 20158 40061 70522 80001 333 10402 56009
 58021=
48078 32950 10000 10340 20123 40074 80001 333 10385 56009 58023
 60002=
48080 32457 52202 10280 20250 40106 83870 333 10345 56590 58016
 60002=
48085 32456 63205 10274 20240 40104 85870 333 10308 56790 58021
 60002=
48087 32950 02302 10310 20203 333 10392=
48092 32956 02701 10330 20191 40062 333 10380 58006 60002=
48093 32950 02301 10322 20200 333 10362=
48094 32956 03202 10290 20230 40106 333 10365 58027=
48095 32956 02702 10325 20236 333 10380 60002=
48097 32556 32301 10320 20200 40101 83400 333 10375 56900 58020=
48099 32456 12307 10310 20203 40078 82500 333 10366 56900 58011=
48101 32956 00000 10308 20203 333 10345 60002=
48103 32940 02201 10290 20215 40092 333 10356 58023=
48107 32940 02301 10282 20220 40092 333 10360 58017=
48108 32596 53205 10310 20214 40095 83306 333 10361 56909 58013=
48110 31596 82302 10310 20267 40097 70522 81307 333 10335 56909
 58010=
48112 32598 63201 10303 20253 40095 70122 82216 333 10335 56799
 58010=  





