



*-*-*


<!--
.style2 {
	font-family:"Courier New", Courier, monospace;
	font-size: 14px;
}
-->






SMBM01 VBRR 040600 RRA

AAXX 04064
48087 32560 20000 10380 20221 82200 333 56900=
48107 32350 51301 10363 20235 40097 84930 333 56660
58001=  
SMBM01 VBRR 040600

AAXX 04064
48001 32450 80000 10235 20209 40119 8487/ 333 56219 58001=
48004 32560 50401 10319 20236 85900 333 56500=
48008 32958 00000 10345 20237 40088 333 58001=
48010 32560 31801 10340 20240 40074 82130 333 56660 59011=
48018 32960 00402 10366 20207 40082 333 59003=
48019 32960 03203 10350 20237 40086 333 58003=
48020 32356 03602 10380 20240 333 /////=
48025 32956 02701 10358 20214 40092 333 59002=
48030 32356 22202 10244 20095 82200 333 56500=
48031 31958 00401 10265 20138 70544 333 /////=
48033 32963 03601 10392 20213 40075 333 58006=
48034 31456 10102 10310 20124 81500 333 56500=
48035 31556 33203 10329 20106 40063 70500 83800 333 56900 58004=
48037 32960 03601 10394 20154 40077 333 59005=
48039 32460 30401 10375 20240 83100 333 56500=
48042 32558 21302 10385 20208 40082 82800 333 56900 58006=
48043 32658 23205 10305 20146 82200 333 56900=
48045 31559 31803 10310 20047 70444 83800 333 56500=
48048 32962 00401 10400 20196 40086 333 58001=
48051 32960 00402 10360 20250 333 /////=
48052 32470 20401 10406 20189 82200 333 56900=
48053 32456 41802 10380 20255 40079 83950 333 56590 59005=
48055 32556 53602 10333 20162 40058 85800 333 56500 59004=
48057 32458 52203 10300 20149 85300 333 56600=
48060 32450 20000 10340 20164 40076 82100 333 56500 58016=
48062 32558 22708 10340 20300 40101 82100 333  56900 59010=
48064 32970 00901 10415 20308 40072 333 58000=
48065 32970 00408 10410 20230=
48071 32960 03203 10335 20270 40112 333 58000=
48072 32460 12705 10305 20280 81200 333 56900=
48074 32560 11401 10370 20246 40104 81100 333 56400 58013=
48075 32557 42201 10320 20240 40081 84300 333 56500 59007=
48077 32959 02301 10370 20227 40083 333 59005=
48078 32558 21801 10385 20254 40095 333 56909 58002=
48080 32461 33206 10353 20240 40091 82830 333 56990 59009=
48085 32458 13206 10336 20270 40098 81100 333 56700 59005=
48087 32560 20000 10380 20221 82200 333 56900=
48092 32457 21303 10370 20227 40073 82200 333 56900 58000=
48093 32658 41401 10377 20240 84800 333 56500=
48094 32560 23203 10370 20290 40096 82100 333 56900 59002=
48095 32460 10401 10380 20255 81200 333 56900=
48097 32557 62301 10360 20249 40108 84801 333 56909 58010=
48099 32458 63202 10370 20246 40092 84902 333 56709 59002=
48101 32660 22702 10348 20237 82100 333 56600=
48103 32457 52201 10360 20249 40094 84830 333 56550 59004=
48107 32350 51301 10363 20235 40097 84930 333 56660 58001=
48108 32596 63202 10350 20266 40105 83366 333 56769 59006=
48109 32497 60401 10345 20266 40116 86900 333 56900 58009=
48110 32596 83202 10340 20235 40105 82307 333 56909 59006=
48112 32597 80402 10340 20270 40114 83876 333 56199 58002=  
SMBM01 VBRR 040600

AAXX 04064
48001 32450 80000 10235 20209 40119 8487/ 333 56219 58001=
48004 32560 50401 10319 20236 85900 333 56500=
48008 32958 00000 10345 20237 40088 333 58001=
48010 32560 31801 10340 20240 40074 82130 333 56660 59011=
48018 32960 00402 10366 20207 40082 333 59003=
48019 32960 03203 10350 20237 40086 333 58003=
48020 32356 03602 10380 20240 333 /////=
48025 32956 02701 10358 20214 40092 333 59002=
48030 32356 22202 10244 20095 82200 333 56500=
48031 31958 00401 10265 20138 70544 333 /////=
48033 32963 03601 10392 20213 40075 333 58006=
48034 31456 10102 10310 20124 81500 333 56500=
48035 31556 33203 10329 20106 40063 70500 83800 333 56900 58004=
48037 32960 03601 10394 20154 40077 333 59005=
48039 32460 30401 10375 20240 83100 333 56500=
48042 32558 21302 10385 20208 40082 82800 333 56900 58006=
48043 32658 23205 10305 20146 82200 333 56900=
48045 31559 31803 10310 20047 70444 83800 333 56500=
48048 32962 00401 10400 20196 40086 333 58001=
48051 32960 00402 10360 20250 333 /////=
48052 32470 20401 10406 20189 82200 333 56900=
48053 32456 41802 10380 20255 40079 83950 333 56590 59005=
48055 32556 53602 10333 20162 40058 85800 333 56500 59004=
48057 32458 52203 10300 20149 85300 333 56600=
48060 32450 20000 10340 20164 40076 82100 333 56500 58016=
48062 32558 22708 10340 20300 40101 82100 333  56900 59010=
48064 32970 00901 10415 20308 40072 333 58000=
48065 32970 00408 10410 20230=
48071 32960 03203 10335 20270 40112 333 58000=
48072 32460 12705 10305 20280 81200 333 56900=
48074 32560 11401 10370 20246 40104 81100 333 56400 58013=
48075 32557 42201 10320 20240 40081 84300 333 56500 59007=
48077 32959 02301 10370 20227 40083 333 59005=
48078 32558 21801 10385 20254 40095 333 56909 58002=
48080 32461 33206 10353 20240 40091 82830 333 56990 59009=
48085 32458 13206 10336 20270 40098 81100 333 56700 59005=
48087 32560 20000 10380 20221 82200 333 56900=
48092 32457 21303 10370 20227 40073 82200 333 56900 58000=
48093 32658 41401 10377 20240 84800 333 56500=
48094 32560 23203 10370 20290 40096 82100 333 56900 59002=
48095 32460 10401 10380 20255 81200 333 56900=
48097 32557 62301 10360 20249 40108 84801 333 56909 58010=
48099 32458 63202 10370 20246 40092 84902 333 56709 59002=
48101 32660 22702 10348 20237 82100 333 56600=
48103 32457 52201 10360 20249 40094 84830 333 56550 59004=
48107 32350 51301 10363 20235 40097 84930 333 56660 58001=
48108 32596 63202 10350 20266 40105 83366 333 56769 59006=
48109 32497 60401 10345 20266 40116 86900 333 56900 58009=
48110 32596 83202 10340 20235 40105 82307 333 56909 59006=
48112 32597 80402 10340 20270 40114 83876 333 56199 58002=  





