



*-*-*


<!--
.style2 {
	font-family:"Courier New", Courier, monospace;
	font-size: 14px;
}
-->






SIBM20 VBRR 040900

AAXX 04094

48001 NIL=

48004 NIL=

48008 NIL=

48010 NIL=

48018 NIL=

48019 NIL=

48020 NIL=

48025 NIL=

48035 NIL=

48037 NIL=

48042 NIL=

48045 NIL=

48048 NIL=

48051 NIL=

48053 NIL=

48060 NIL=

48062 32458 52703 10340 20290 40071 84930 333 56390

58003=

48071 31460 63201 10333 20258 40083 71799 84970 333

56990 58009=

48075 32457 61401 10310 20225 40059 70222 85801 333

56509 58004=

48077 21559 70000 10298 20253 40068 70362 85931 333

56499 58010=

48078 31559 61801 10306 20274 40068 71799 84933 333

56599 59004=

48080 21460 61302 10265 20256 40071 79596 84970 333

56490 59004=

48085 32457 71403 10304 20266 40070 84376 333 56999

59004=

48095 NIL=

48108 21494 81801 10255 20248 40095 75155 8537/ 333

5699/ 58007=

48109 NIL=

48110 21495 82303 10275 20253 40102 70255 8632/ 333

5659/ 58002=

48112 22957 82703 10275 20245 40110 70222 84876 333

56699 58004=

48030 NIL=

48072 32459 60401 10320 20275 70222 84830 333 56590=

48087 32560 62301 10334 20258 70322 83371 333 56299=

48099 32458 52301 10327 20275 40059 85300 333 56900

59013=

48101 32559 61401 10320 20265 70222 85330 333 56390=

48103 21330 82203 10320 20265 40067 76055 86770 333

56550 59005=

48057 32458 61401 10238 20209 85350 333 56490=

48094 32459 70402 10325 20260 40066 85970 333 56290

59004=

48097 21557 62302 10280 20268 40077 72162 86300 333

56900 59006=

48031 NIL=

48033 NIL=

48034 NIL=

48039 NIL=

48043 NIL=

48052 NIL=

48055 NIL=

48064 NIL=

48065 NIL=

48074 NIL=

48092 31457 71805 10330 20258 40053 71722 85970 333

56490 58004=

48093 32658 62301 10332 20291 70222 85301 333 56599=

48107 21330 82301 10267 20256 40086 76166 8597/ 333

5655/ 58003=

48096 21457 72405 10270 20256 40075 71766 8597/ 333

5699/ 58003=  





