



*-*-*


<!--
.style2 {
	font-family:"Courier New", Courier, monospace;
	font-size: 14px;
}
-->






SMBM01 VBRR 040600

AAXX 04064

48001 NIL=

48004 32460 52201 10326 20258 85900 333 56500=

48008 32457 50000 10319 20248 40101 82970 333 56450

58005=

48010 32560 41801 10315 20265 40107 83830 333 56440

58031=

48018 32560 21402 10312 20254 40111 70311 81460 333

56460 58013=

48019 32462 20401 10340 20257 40089 82300 333 56100

59002=

48020 32462 23604 10320 20265 82200 333 56500=

48025 32458 53601 10314 20237 40114 84840 333 56590

58014=

48035 31456 72202 10256 20229 40096 71796 85970 333

56349 58013=

48037 21440 80000 10234 20234 40116 75196 8572/ 333

56829 58026=

48042 21456 80000 10262 20262 40104 70255 8597/ 333

56999 58023=

48045 21556 70403 10195 20185 74196 87300 333 56100=

48048 32560 70000 10300 20239 40108 85950 333 56190

58010=

48051 22560 53602 10316 20270 70222 83931 333 56899=

48053 32456 53602 10330 20258 40097 83850 333 56890

59006=

48060 32356 30000 10305 20224 40086 83100 333 56400

58016=

48062 32458 51303 10316 20280 40100 84930 333 56290

59005=

48071 32458 83202 10310 20267 40096 85970 333 56990

59003=

48075 32457 61401 10280 20220 40092 70322 84830 333

56690 59021=

48077 32559 60000 10310 20254 40095 85901 333 56409

59002=

48078 32560 41802 10299 20266 40104 83801 333 56309

59002=

48080 32460 52204 10316 20281 40090 83370 333 56490

59010=

48085 32458 60903 10320 20265 40092 84306 333 56309

59007=

48095 32558 61802 10325 20281 83940 333 56990=

48108 21494 83202 10265 20258 40115 75165 8537/ 333

5679/ 59001=

48109 21497 82701 10290 20259 40102 70222 8697/ 333

5699/ 59007=

48110 21495 81801 10260 20253 40124 75165 873// 333

5699/ 58002=

48112 21597 82203 10270 20240 40132 70152 84876 333

56599 58007=

48030 21/09 90402 10180 20180 75055 89/// 333 56999=

48072 32460 40902 10325 20258 83830 333 56590=

48087 32560 40000 10300 20275 83840 333 56290=

48099 32456 42302 10310 20254 40092 84900 333 56500

59006=

48101 32559 61401 10326 20275 70322 84331 333 56299=

48103 32356 73202 10316 20265 40094 87700 333 56700

59003=

48057 32458 62301 10240 20209 85330 333 56590=

48094 32460 70402 10324 20270 40092 84970 333 56290

59003=

48097 32557 61303 10315 20260 40107 86800 333 56900

59010=

48031 NIL=

48033 32562 71801 10270 20256 40113 85970 333 56990

58019=

48034 21456 63602 10250 20205 71795 86300 333 56500=

48039 21456 70000 10262 20262 70155 87900 333 56500=

48043 22556 80000 10235 20214 8487/ 333 56999=

48052 32465 70000 10275 20275 85930 333 56990=

48055 32456 62305 10263 20220 40094 86900 333 56300

58000=

48064 32458 50901 10310 20267 40092 83831 333 56449

58001=

48065 32558 42201 10308 20254 82531 333 56599=

48074 32458 70901 10310 20267 40100 85351 333 56449

59015=

48092 32459 51302 10320 20265 40079 70122 85800 333

56900 59000=

48093 32658 62301 10321 20265 70322 84341 333 56399=

48107 21350 10282 20268 40098 70165 84900 333 56300

59005=

48096 32458 60404 10310 20267 40099 85930 333 56990

59004=  





