



*-*-*


<!--
.style2 {
	font-family:"Courier New", Courier, monospace;
	font-size: 14px;
}
-->






SMBM01 VBRR 041200

AAXX 04124

48001 NIL=

48004 32560 40000 10306 20267 84900 333 10346 56500

60002=

48008 32556 20000 10322 20265 40063 81430 333 10352

56450 59011 60002=

48010 32540 10000 10310 20282 40064 81400 333 10340

56900 59002 60002=

48018 NIL=

48019 NIL=

48020 NIL=

48025 NIL=

48035 NIL=

48037 NIL=

48042 NIL=

48045 NIL=

48048 NIL=

48051 NIL=

48053 NIL=

48060 NIL=

48062 NIL=

48071 NIL=

48075 NIL=

48077 NIL=

48078 NIL=

48080 NIL=

48085 NIL=

48095 NIL=

48108 NIL=

48109 NIL=

48110 NIL=

48112 NIL=

48030 NIL=

48072 NIL=

48087 NIL=

48099 NIL=

48101 NIL=

48103 NIL=

48057 NIL=

48094 NIL=

48097 NIL=

48031 NIL=

48033 NIL=

48034 NIL=

48039 NIL=

48043 NIL=

48052 NIL=

48055 NIL=

48064 NIL=

48065 NIL=

48074 NIL=

48092 NIL=

48093 NIL=

48107 NIL=

48096 NIL=  
SMBM01 VBRR 041200 RRA

AAXX 04124

48018 32558 61401 10315 20254 40068 83872 333 10346

56569 59019 60002=

48019 31458 50000 10306 20267 40066 70299 81363 333

10352 56766 59004 60002=

48020 32440 20000 10310 20254 82800 333 10346 56900

60002=

48025 31340 61404 10300 20253 40089 71799 84941 333

10335 56340 58006 60002=

48035 21550 60000 10251 20233 40071 70522 8597/ 333

10276 56309 58013 60012=

48037 22540 60000 10255 20246 40073 81135 333 10282

56822 58001 60122=

48042 22557 50000 10286 20260 40068 83802 333 10286

56709 58001 60322=

48045 21450 50902 10201 20185 70144 83806 333 10230

56209 60022=

48048 32550 50000 10290 20259 40074 84901 333 10313

56809 58013 60002=

48053 21440 83602 10260 20260 40080 79596 8597/ 333

10335 56799 58002 60192=

48060 22420 60000 10242 20209 40075 70322 84830 333

10310 56590 59024 60022=

48030 21256 60401 10180 20180 70155 83940 333 10208

56189 69902=

48033 32562 70000 10290 20259 40084 85970 333 10300

56490 58000 60002=

48034 22456 70402 10230 20181 70322 87300 333 10260

56500 60092=

48039 22460 60000 10285 20256 83902 333 10299 56404

60122=

48043 22030 20000 10240 20226 80030 333 10263 56090

60092=

48052 32450 50000 10305 20267 85900 333 10312 56900

60002=

48055 32556 60000 10253 20233 40066 84940 333 10300

56330 59003 60002=

48064 32550 60901 10290 20259 40057 83831 333 10325

56449 58008 60002=

48065 32450 60000 10298 20253 82131 333 10324 56999

60002=

48074 22556 70000 10260 20246 83970 333 10320 56490

60082=  





