



*-*-*


<!--
.style2 {
	font-family:"Courier New", Courier, monospace;
	font-size: 14px;
}
-->






SIBM20 VBRR 050300

AAXX 05034

48001 31330 80000 10130 20130 40196 72844 887// 333

56499 58010=

48004 31905 93201 10154 20134 74744 89/// 333 56999=

48008 32456 10000 10170 20154 40199 81100 333 56400

58016=

48010 31540 30000 10180 20165 40196 70244 83600 333

56800 58021=

48018 32958 01401 10180 20165 40173 333 58014=

48019 32457 70401 10165 20160 40182 87600 333 56100

58012=

48020 32340 83602 10190 20175 88700 333 56500=

48025 31120 63602 10200 20200 40189 74044 85840 333

56600 58021=

48035 31530 80000 10157 20144 40184 71044 8597/ 333

56189 58000=

48037 32950 03602 10201 20168 40171 333 58013=

48042 31930 00000 10218 20173 40168 71000 333 58017=

48045 32557 31403 10131 20113 83600 333 56300=

48048 32958 40401 10203 20185 40177 84800 333 56800

58016=

48051 32958 03103 10206 20190 333=

48053 22956 03602 10200 20168 40173 333 58010=

48060 22440 40000 10170 20135 40190 83830 333 56440

58008=

48062 32956 00403 10225 20200 40155 333 59003=

48071 32958 00403 10247 20219 40159 333 58003=

48075 22457 70000 10150 20134 40203 70222 85770 333

56590 58009=

48077 22559 20000 10212 20195 40160 81201 333 56909

58009=

48078 22557 43203 10192 20175 40162 83501 333 56809

58008=

48080 31959 00401 10192 20159 40142 70244 333 59005=

48085 22958 00000 10239 20209 40139 333 59004=

48095 22958 00403 10230 20181 333=

48108 22494 80501 10270 20240 40130 85377 333 56899

59003=

48109 32497 70908 10288 20230 40139 86970 333 56990

58005=

48110 21996 20903 10310 20254 40131 70544 80005 333

56009 59003=

48112 22597 80403 10290 20248 40108 83876 333 56199

59015=

48030 31/09 92202 10057 20035 74344 333=

48072 32960 00401 10250 20205 333=

48087 32950 00403 10220 20185 333=

48099 22450 73201 10256 20203 40140 84840 333 56790

58012=

48101 32658 53601 10240 20191 81170 333 56990=

48103 22450 50404 10263 20179 40141 83730 333 56110

58010=

48057 21119 31401 10140 20124 74044 83500 333 56800=

48094 32959 00402 10245 20180 40144 333 58003=

48097 32557 20203 10250 20196 40151 81530 333 56990

58008=

48031 31/05 92201 10120 20102 74744 89/// 333 56999=

48033 32962 03601 10200 20185 40167 70200 333 58014=

48034 32456 10402 10157 20123 81500 333 56500=

48039 31450 20401 10226 20181 74044 81402 333 56909=

48043 32556 80505 10145 20134 8587/ 333 56199=

48052 31450 83601 10200 20185 70522 85370 333 56990=

48055 21456 70302 10148 20133 40201 72844 86330 333

56890 59002=

48064 32456 81401 10190 20175 40155 70300 84720 333

56440 58006=

48065 31440 80401 10195 20185 71022 8537/ 333 5699/=

48074 22457 20402 10130 20130 40182 82600 333 56100

58011=

48092 32457 22702 10240 20209 40137 82500 333 56900

58015=

48093 32958 00402 10268 20211 333=

48107 21330 80401 10258 20246 40132 75065 8597/ 333

5619/ 58007=

48096 32958 10304 10240 20209 40154 80001 333 56009

58012=  





