



*-*-*


<!--
.style2 {
	font-family:"Courier New", Courier, monospace;
	font-size: 14px;
}
-->






SIBM20 VBRR 050908

AAXX 05094

48001 32440 71301 10240 20136 40149 85740 333 56430 59008=

48004 32356 62201 10267 20154 86900 333 56500=

48008 NIL=

48010 32560 50000 10275 20184 40132 83830 333 56550 59007=

48018 32560 41401 10283 20158 40139 82870 333 56550 59010=

48019 32960 30401 10218 20184 40137 80001 333 56009 58000=

48020 NIL=

48025 31456 30401 10302 20098 40137 82540 333 56990 59010=

48030 32256 42204 10190 20014 82506 333 56509=

48031 32962 23201 10210 20019 80040 333 56090=

48033 32963 03201 10315 20116 40121 333 59010=

48034 32457 21802 10262 20039 82500 333 56500=

48035 31558 32702 10267 20022 40103 70500 82801 333 56909 59016=

48037 32960 13601 10325 20116 40126 80002 333 56009 59007=

48039 32960 30402 10309 20169 80002 333 56005=

48042 32958 33602 10320 20116 40127 80006 333 56009 58000=

48043 32058 42705 10245 20068 80002 333 56009=

48045 32961 41404 10245 20024 80006 333 56009=

48048 32560 50901 10325 20163 40130 84850 333 56490 59010=

48051 32959 33106 10321 20120 80016 333 56099=

48052 32470 33201 10340 20145 83800 333 56900=

48053 32556 23603 10320 20089 40123 82500 333 56500 59013=

48055 32956 11405 10291 20092 40086 80001 333 56009 59027=

48057 32458 32202 10244 20034 81506 333 56409=

48060 32950 02202 10285 20133 40103 80002 333 56009 59016=

48062 32556 42704 10300 20240 40122 82230 333 56690 59020=

48064 32970 11401 10320 20236 40101 80001 333 56009 59011=

48065 32970 00405 10335 20145 333=

48071 32960 03203 10275 20203 40135 333 59019=

48072 32560 13202 10295 20239 81200 333 56900=

48074 32960 12303 10345 20145 40118 80001 333 56009 59017=

48075 31558 31401 10295 20100 40099 70511 82101 333 56509 59012=

48077 32559 30401 10350 20083 40104 81201 333 56909 59019=

48078 32960 20401 10346 20119 40114 80002 333 56009 59012=

48080 32460 32203 10330 20244 40118 82206 333 56909 59015=

48085 32958 13204 10302 20207 40121 80006 333 56009 59017=

48087 32960 10000 10354 20158 80040 333 56090=

48092 32959 13201 10350 20158 40094 80030 333 56090 59026=

48093 NIL=

48094 32960 03202 10365 20185 40115 333 59020=

48095 32960 00000 10335 20172 333=

48097 32557 21402 10345 20144 40120 82800 333 56900 59022=

48099 32558 43203 10352 20202 40112 82830 333 56790 59015=

48101 32960 00401 10332 20201 333=

48103 32457 42201 10347 20240 40109 84800 333 56500 59018=

48107 32950 03201 10344 20270 40106 333 59011=

48108 32596 50506 10350 20170 40113 83807 333 56909 59017=

48109 32997 00401 10312 20267 40128 70122 333 59023=

48110 31596 33203 10340 20206 40109 70511 82305 333 56209 59013=

48112 32597 80405 10310 20203 40112 83876 333 56199 59017=  
SIBM20 VBRR 050900

AAXX 05094

48001 32440 71301 10240 20136 40149 85740 333 56430

59008=

48004 32356 62201 10267 20154 86900 333 56500=

48008 NIL=

48010 32560 50000 10275 20184 40132 83830 333 56550

59007=

48018 32560 41401 10283 20158 40139 82870 333 56550

59010=

48019 32960 30401 11028 20184 40137 80001 333 56009

58000=

48020 NIL=

48025 31456 30401 10302 20098 40137 82540 333 56990

59010=

48035 31558 32702 10267 20022 40103 70500 82801 333

56909 59016=

48037 32960 13601 10325 20116 40126 80002 333 56009

59007=

48042 32958 33602 10320 20116 40127 80006 333 56009

58000=

48045 32961 41404 10245 20024 80006 333 56009=

48048 32560 50901 10325 20163 40130 84850 333 56490

59010=

48051 32959 33106 10321 20120 80016 333 56099=

48053 32556 23603 10320 20089 40123 82500 333 56500

59013=

48060 32950 02202 10285 20133 40103 80002 333 56009

59016=

48062 32556 42704 10300 20240 40122 82230 333 56690

59020=

48071 32960 03203 10275 20203 40135 333 59019=

48075 31558 31401 10295 20100 40099 70511 82101 333

56509 59012=

48077 32559 30401 10350 20083 40104 81201 333 56909

59019=

48078 32960 20401 10346 20119 40114 80002 333 56009

59012=

48080 32460 32203 10330 20244 40118 82206 333 56909

59015=

48085 32958 13204 10302 20207 40121 80006 333 56009

59017=

48095 32960 00000 10335 20172 333=

48108 32596 50506 10350 20170 40113 83807 333 56909

59017=

48109 32997 00401 10312 20267 40128 70122 333 59023=

48110 31596 33203 10340 20206 40109 70511 82305 333

56209 59013=

48112 32597 80405 10310 20203 40112 83876 333 56199

59017=

48030 32256 42204 10190 20014 82506 333 56509=

48072 32560 13202 10295 20239 81200 333 56900=

48087 32960 10000 10354 20158 80040 333 56090=

48099 32558 43203 10352 20202 40112 82830 333 56790

59015=

48101 32960 00401 10332 20201 333=

48103 32457 42201 10347 20240 40109 84800 333 56500

59018=

48057 32458 32202 10244 20034 81506 333 56409=

48094 32960 03202 10365 20185 40115 333 59020=

48097 32557 21402 10345 20144 40120 82800 333 56900

59022=

48031 32962 23201 10210 20019 80040 333 56090=

48033 32963 03201 10315 20116 40121 333 59010=

48034 32457 21802 10262 20039 82500 333 56500=

48039 32960 30402 10309 20169 80002 333 56005=

48043 32058 42705 10245 20068 80002 333 56009=

48052 32470 33201 10340 20145 83800 333 56900=

48055 32956 11405 10291 20092 40086 80001 333 56009

59027=

48064 32970 11401 10320 20236 40101 80001 333 56009

59011=

48065 32970 00405 10335 20145 333=

48074 32960 12303 10345 20145 40118 80001 333 56009

59017=

48092 32959 13201 10350 20158 40094 80030 333 56090

59026=

48093 NIL=

48107 32950 03201 10344 20270 40106 333 59011=  





