



*-*-*


<!--
.style2 {
	font-family:"Courier New", Courier, monospace;
	font-size: 14px;
}
-->






SMBM01 VBRR 050600

AAXX 05064

48001 NIL=

48004 32460 60402 10234 20163 86900 333 56500=

48008 31456 81401 10208 20175 40120 75055 8497/ 333 56569 58001=

48010 32560 30000 10235 20209 40103 83800 333 56500 59016=

48018 21558 71401 10215 20195 40119 72166 84970 333 56550 59015=

48019 22458 70000 10204 20200 40099 85760 333 56560 59019=

48020 32258 30402 10245 20205 83200 333 56500=

48025 32456 20901 10265 20203 40101 82100 333 56900 59004=

48030 32256 52208 10160 20085 85800 333 56500=

48031 32268 51401 10190 20139 85800 333 56400=

48033 NIL=

48034 32456 61802 10210 20160 86300 333 56500=

48035 32560 32204 10263 20160 40064 83800 333 56500 59028=

48037 32960 00000 10298 20185 40083 333 59031=

48039 32460 12201 10317 20200 81100 333 56700=

48042 32558 31802 10327 20212 40083 83800 333 56400 59037=

48043 32657 21406 10225 20163 82200 333 56500=

48045 32560 32315 10227 20074 83800 333 56600=

48048 32962 01801 10325 20184 40087 333 59036=

48051 32559 43603 10283 20200 70311 84800 333 56500=

48052 32460 33202 10350 20202 83800 333 56900=

48053 32556 31803 10310 20226 40089 83800 333 56500 59038=

48055 32556 22302 10268 20154 40070 82100 333 56500 59033=

48057 32456 52203 10230 20124 85800 333 56600=

48060 32440 20000 10268 20154 40082 82100 333 56500 59033=

48062 32556 53204 10282 20250 40117 84930 333 56790 59011=

48064 32970 00401 10310 20223 40087 333 59019=

48065 32570 10000 10330 20172 81100 333 56900=

48071 32560 13602 10260 20220 40120 81200 333 56900 59009=

48072 32560 10401 10290 20248 81200 333 56900=

48074 32961 12301 10290 20215 40106 80001 333 56009 59018=

48075 32558 41401 10270 20190 40100 84300 333 56500 59006=

48077 32559 10401 10320 20200 40100 81200 333 56900 59016=

48078 32558 22303 10312 20203 40116 81101 333 56909 59008=

48080 32461 20404 10303 20223 40116 82200 333 56900 59007=

48085 31458 23207 10296 20239 40108 82800 333 56700 59013=

48087 32960 00000 10300 20223 333=

48092 31456 23201 10300 20215 40091 70522 82800 333 56900 59007=

48093 32658 22301 10313 20237 82100 333 56100=

48094 32460 40402 10315 20245 40110 84900 333 56800 59015=

48095 32960 00902 10315 20225 333=

48097 31457 23301 10320 20184 40118 70511 82800 333 56900 59012=

48099 31450 33202 10310 20206 40108 70511 83800 333 56700 59016=

48101 32960 03202 10305 20223 333=

48103 32957 00401 10312 20189 40107 333 59015=

48107 32950 00902 10314 20189 40101 333 59012=

48108 31996 30505 10320 20163 40107 70244 80006 333 56009 59022=

48109 NIL=

48110 31996 13205 10310 20214 40111 70511 80005 333 56009 59015=

48112 NIL=  
SMBM01 VBRR 050600

AAXX 05064

48001 NIL=

48004 32460 60402 10234 20163 86900 333 56500=

48008 31456 81401 10208 20175 40120 75055 8497/ 333

56569 58001=

48010 32560 30000 10235 20209 40103 83800 333 56500

59016=

48018 21558 71401 10215 20195 40119 72166 84970 333

56550 59015=

48019 22458 70000 10204 20200 40099 85760 333 56560

59019=

48020 32258 30402 10245 20205 83200 333 56500=

48025 32456 20901 10265 20203 40101 82100 333 56900

59004=

48035 32560 32204 10263 20160 40064 83800 333 56500

59028=

48037 32960 00000 10298 20185 40083 333 59031=

48042 32558 31802 10327 20212 40083 83800 333 56400

59037=

48045 32560 32315 10227 20074 83800 333 56600=

48048 32962 01801 10325 20184 40087 333 59036=

48051 32559 43603 10283 20200 84800 333 56500=

48053 32556 31803 10310 20226 40089 83800 333 56500

59032=

48060 32440 20000 10268 20154 40082 82100 333 56500

59033=

48062 32556 53204 10282 20250 40117 84930 333 56790

59011=

48071 32560 13602 10260 20220 40120 81200 333 56900

59009=

48075 32558 41401 10270 20190 40100 84300 333 56500

59006=

48077 32559 10401 10320 20200 40100 81200 333 56900

59016=

48078 32558 22303 10312 20203 40116 81101 333 56909

59008=

48080 32461 20404 10303 20223 40116 82200 333 56900

59007=

48085 31458 23207 10296 20239 40108 82800 333 56700

59013=

48095 32960 00902 10315 20225 333=

48108 31996 30505 10320 20163 40107 70244 80006 333

56009 59022=

48109 NIL=

48110 31996 13205 10310 20214 40111 70511 80006 333

56009 59015=

48112 NIL=

48030 32256 52208 10160 20085 85800 333 56500=

48072 32560 10401 10290 20248 81200 333 56900=

48087 32960 00000 10300 20223 333=

48099 31450 33202 10310 20206 40108 70511 83800 333

56700 59016=

48101 32960 03202 10305 20223 333=

48103 32957 00401 10312 20189 40107 333 59015=

48057 32456 52203 10230 20124 85800 333 56600=

48094 32460 40402 10315 20245 40110 84900 333 56800

59015=

48097 31457 23301 10320 20184 40118 70511 82800 333

56900 59012=

48031 32268 51401 10190 20139 85800 333 56400=

48033 NIL=

48034 32456 61802 10210 20160 86300 333 56500=

48039 32460 12201 10317 20200 81100 333 56700=

48043 32657 21406 10225 20163 82200 333 56500=

48052 32460 33202 10350 20202 83800 333 56900=

48055 32556 22302 10268 20154 40070 82100 333 56500

59033=

48064 32970 00401 10310 20223 40087 333 59019=

48065 32570 10000 10330 20172 81100 333 56900=

48074 32961 12301 10290 20215 40106 80001 333 56009

59018=

48092 31456 23201 10300 20215 40091 70522 82800 333

56900 59007=

48093 32658 22301 10313 20237 82100 333 56100=

48107 32950 00902 10314 20189 40101 333 59012=  





