



*-*-*


<!--
.style2 {
	font-family:"Courier New", Courier, monospace;
	font-size: 14px;
}
-->






SMBM01 VBRR 050000

AAXX 05004

48001 21430 80000 10250 20219 40009 70255 8477/ 333

10255 56339 58028 60112=

48004 21458 60000 10277 20256 70255 86900 333 10285

56500 60022=

48008 22456 70000 10279 20268 49999 84970 333 10283

56450 59005 60302=

48010 32450 73601 10298 20253 40980 84930 333 10346

56770 59009 60002=

48018 32560 62201 10345 20257 49986 83872 333 10355

56566 59009 60002=

48019 32550 33201 10328 20275 40001 80035 333 10334

56067 58017 60002=

48020 32458 40000 10350 20266 84800 333 10380 56400

60002=

48025 32456 51402 10356 20249 49972 83840 333 10378

56550 59011 60002=

48035 32560 43202 10299 20207 40974 83960 333 10317

56490 59015 60002=

48037 32558 71401 10345 20257 49991 85802 333 10391

56509 58006 60002=

48042 32560 21805 10360 20249 49978 81202 333 10380

56409 59017 60002=

48045 32556 61402 10241 20209 86300 333 10283 56500

60002=

48048 32550 21802 10360 20235 40978 82800 333 10385

56900 59024 60002=

48051 32559 61302 10286 20260 84930 333 10308 56490

60002=

48053 32456 41803 10330 20258 49991 83950 333 10350

56590 59025 60002=

48060 32340 30000 10300 20207 49995 82130 333 10332

56560 59000 60002=

48062 22456 81801 10270 20260 40008 85970 333 10300

56990 59028 61042=

48071 22456 70000 10280 20268 40018 86970 333 10275

56590 59028 60452=

48075 32456 42301 10300 20207 40006 83801 333 10305

56509 59052 60002=

48077 21556 82302 10290 20259 40019 85931 333 10312

56999 59012 60012=

48078 21557 61401 10286 20254 40031 84331 333 10316

56499 59023 69902=

48080 21457 82201 10260 20248 40030 75065 85770 333

10290 56590 59033 60092=

48085 21356 83205 10256 20256 40033 76266 86720 333

10290 56690 59023 60322=

48095 21456 82202 10265 20265 75155 8597/ 333 10315

5699/ 60102=

48108 21595 71401 10265 20258 40069 70255 84366 333

10293 56769 59013=

48109 21496 72305 10290 20270 40059 75022 86970 333

10313 56990 59020 60012=

48110 21596 81802 10280 20250 40075 70255 82357 333

10325 56599 59012 60022=

48112 22597 82208 10295 20248 40084 83876 333 10325

56599 59019 60022=

48030 22256 62201 10230 20181 85840 333 10244 56560

69902=

48072 22456 80000 10285 20259 86970 333 10310 56990

60122=

48087 22450 80000 10280 20268 70355 8497/ 333 10310

5649/ 60252=

48099 21440 60000 10260 20260 40043 72161 85930 333

10295 56590 59018 60392=

48101 NIL=

48103 21440 82202 10260 20260 40048 75065 8672/ 333

10324 5659/ 59015 60252=

48057 32457 41401 10250 20186 82831 333 10268 56499

60002=

48094 21456 82201 10270 20270 40038 70365 86970 333

10308 56590 59022 60272=

48097 21556 82301 10285 20254 40054 70265 84801 333

10325 56609 59010 60062=

48031 32257 70401 10244 20209 87800 333 10258 56400

60002=

48033 32562 51801 10350 20237 49985 85900 333 10373

56400 59022 60002=

48034 22456 30000 10245 20214 83800 333 10253 56500

69902=

48039 32460 31401 10348 20237 83900 333 10363 56700

60002=

48043 32030 21802 10280 20220 80002 333 10285 56009

60002=

48052 32450 32203 10370 20246 83800 333 10390 56900

60002=

48055 32556 41804 10298 20223 49972 83801 333 10329

56509 59024 60002=

48064 32450 60401 10324 20265 49976 84801 333 10340

56909 59034 60002=

48065 22450 61402 10315 20267 84831 333 10335 56999

69900=

48074 32558 31801 10310 20267 40009 82901 333 10334

56909 59029 60002=

48092 22456 72302 10280 20259 40020 84371 333 10315

56599 59010 60182=

48093 NIL=

48107 22330 62301 10280 20250 40057 84970 333 10305

56550 59019 60082=  





