



*-*-*


<!--
.style2 {
	font-family:"Courier New", Courier, monospace;
	font-size: 14px;
}
-->






SMBM01 VBRR 051200

AAXX 05124
48001 NIL=
48004 32458 60403 10257 20160 86900 333 56500=
48008 32557 13201 10320 20098 40107 81400 333 56500 58025=
48010 32560 61802 10290 20196 40116 84830 333 56660 58036=
48018 32560 41402 10320 20116 40101 83810 333 56320 59019=
48019 32460 22301 10330 20172 40106 82800 333 56400 58027=
48020 NIL=
48025 31456 73601 10320 20161 40105 70544 84870 333 56450 58036=
48030 21256 62205 10154 20092 70155 84850 333 56560=
48031 31260 82701 10175 20097 70544 888// 333 56499=
48033 32563 10901 10350 20202 40112 81500 333 56900 58051=
48034 32458 21802 10278 20098 82800 333 56500=
48035 32560 32703 10297 20069 40073 83800 333 56900 58030=
48037 31557 43601 10350 20143 40090 70544 83830 333 56690 58031=
48039 32459 21401 10340 20145 82100 333 56500=
48042 32558 12701 10350 20132 40091 81400 333 56900 58037=
48043 32058 03205 10250 20113 333=
48045 32559 61403 10260 20113 86700 333 56500=
48048 32562 50401 10360 20177 40095 84850 333 56490 58039=
48051 NIL=
48052 32470 23204 10380 20159 82200 333 56900=
48053 31950 13602 10350 20143 40088 70511 81500 333 56600 58028=
48055 31556 12701 10326 20098 40046 70511 81500 333 56500 58016=
48057 32460 12203 10270 20154 81500 333 56600=
48060 32456 22704 10318 20140 40072 81130 333 56560 58020=
48062 32558 32701 10300 20270 40125 82230 333 56690 58023=
48064 32970 01401 10378 20240 40062 333 58023=
48065 32970 00000 10380 20159 333=
48071 32960 03202 10305 20237 40123 333 58020=
48072 32960 02704 10302 20218 333=
48074 32961 02703 10362 20156 40090 333 58015=
48075 31557 22203 10340 20130 40078 70511 82100 333 56300 58028=
48077 32559 40401 10380 20159 40084 83901 333 56909 58019=
48078 32558 20909 10368 20148 40094 81101 333 56609 58019=
48080 32960 03207 10324 20236 40107 333 58020=
48085 32958 03206 10308 20237 40114 333 58015=
48087 32960 00401 10378 20159 333=
48092 32958 03201 10375 20188 40076 333 58016=
48093 32958 02301 10357 20214 333=
48094 32960 02702 10350 20220 40106 333 58020=
48095 32960 00000 10350 20202 333=
48097 32557 43101 10365 20192 40106 84500 333 56900 58022=
48099 32558 32304 10368 20227 40092 82801 333 56509 58010=
48101 NIL=
48103 32957 01401 10345 20225 40091 333 58005=
48107 32950 02701 10334 20212 40095 333 58005=
48108 32596 23201 10345 20222 40098 82800 333 56900 58005=
48109 32497 10401 10316 20248 40125 81500 333 56900 58016=
48110 31597 33207 10325 20261 40105 70511 81305 333 56909 58013=
48112 32598 63605 10330 20244 40095 82216 333 56899 59003=  





