



*-*-*


<!--
.style2 {
	font-family:"Courier New", Courier, monospace;
	font-size: 14px;
}
-->






SIBM20 VBRR 050900 RRA

AAXX 05094

48039 32860 21401 10400 20176 80002 333 56009=

48055 31456 73402 10318 20184 40013 71799 87300 333

56400 59026=  
SIBM20 VBRR 050900

AAXX 05094
48001 32450 61401 10270 20226 40071 84730 333 56230 59039=
48004 32460 41301 10350 20202 84900 333 56500=
48008 32557 22303 10370 20190 40040 81430 333 56560 59030=
48010 32560 20000 10375 20255 40037 80030 333 56050 59020=
48018 32560 22202 10405 20240 40027 70311 80011 333 56059 59029=
48019 32960 02301 10378 20203 40040 333 59022=
48020 32358 23602 10410 20230 82200 333 56500=
48025 32458 22701 10414 20189 40034 81540 333 56690 59020=
48030 32357 12203 10264 20138 81200 333 56500=
48031 NIL=
48033 32963 02701 10415 20240 40026 333 58007=
48034 32458 83602 10322 20089 81500 333 56500=
48035 31958 03203 10341 20184 40009 70500 333 59024=
48037 32965 03201 10423 20161 40031 333 59004=
48039 32860 21401 10400 20176 80002 333 56009=
48042 32958 01802 10420 20202 40025 333 59023=
48045 31557 51402 10318 20089 70444 84801 333 56505=
48048 32960 00401 10420 20202 40032 333 59019=
48051 31559 83602 10382 20240 71799 85930 333 56690=
48052 32470 33202 10435 20225 83800 333 56900=
48053 32456 60000 10390 20253 40021 83956 333 56699 59027=
48055 31456 73402 10318 20184 40013 71799 87300 333 56400 59026=
48057 21458 51402 10294 20159 70255 84301 333 56509=
48060 31440 12201 10348 20158 40016 70544 81100 333 56500 59021=
48062 32558 22709 10370 20300 40069 70122 82200 333 56600 59012=
48064 32970 31401 10424 20240 40018 80006 333 56009 58020=
48065 32970 22204 10430 20194 80006 333 56009=
48071 32460 13205 10345 20270 40073 81200 333 56900 59008=
48072 32462 12704 10345 20280 70222 81200 333 56900=
48074 32560 73201 10395 20246 40035 85970 333 56440 59018=
48075 21457 61802 10250 20205 40066 71795 85970 333 56590 58020=
48077 32559 72301 10390 20253 40033 85931 333 56999 59005=
48078 32557 42301 10406 20264 40040 83301 333 56509 59018=
48080 32960 02213 10350 20240 40051 333 59009=
48085 32458 62705 10338 20270 40067 83830 333 56990 59006=
48087 32560 42301 10400 20214 70322 83801 333 56909=
48092 32458 22302 10385 20208 40028 82100 333 56900 59015=
48093 32660 42301 10374 20246 84800 333 56500=
48094 32460 53203 10375 20275 40058 85900 333 56900 59011=
48095 32460 32202 10380 20255 70222 83800 333 56900=
48097 32557 42303 10380 20255 40068 84800 333 56900 59009=
48099 32458 52302 10372 20258 40049 85900 333 56500 59008=
48101 32560 21802 10338 20270 70111 82300 333 56900=
48103 32457 20401 10369 20246 40053 82800 333 56100 59003=
48107 32350 42302 10353 20240 40068 84900 333 56600 59007=
48108 31596 73202 10320 20273 40070 71799 84966 333 56679 59007=
48109 NIL=
48110 31496 82302 10310 20254 40081 70299 85307 333 56709 59002=
48112 32598 60402 10360 20264 40073 70122 82216 333 56199 59007=  
SIBM20 VBRR 050900 RRB

AAXX 05094
48039 32860 21401 10400 20176 80002 333 56009=  
SIBM20 VBRR 050900

AAXX 05094
48001 32450 61401 10270 20226 40071 84730 333 56230 59039=
48004 32460 41301 10350 20202 84900 333 56500=
48008 32557 22303 10370 20190 40040 81430 333 56560 59030=
48010 32560 20000 10375 20255 40037 80030 333 56050 59020=
48018 32560 22202 10405 20240 40027 70311 80011 333 56059 59029=
48019 32960 02301 10378 20203 40040 333 59022=
48020 32358 23602 10410 20230 82200 333 56500=
48025 32458 22701 10414 20189 40034 81540 333 56690 59020=
48030 32357 12203 10264 20138 81200 333 56500=
48031 NIL=
48033 32963 02701 10415 20240 40026 333 58007=
48034 32458 83602 10322 20089 81500 333 56500=
48035 31958 03203 10341 20184 40009 70500 333 59024=
48037 32965 03201 10423 20161 40031 333 59004=
48039 32860 21401 10400 20176 80002 333 56009=
48042 32958 01802 10420 20202 40025 333 59023=
48045 31557 51402 10318 20089 70444 84801 333 56505=
48048 32960 00401 10420 20202 40032 333 59019=
48051 31559 83602 10382 20240 71799 85930 333 56690=
48052 32470 33202 10435 20225 83800 333 56900=
48053 32456 60000 10390 20253 40021 83956 333 56699 59027=
48055 31456 73402 10318 20184 40013 71799 87300 333 56400 59026=
48057 21458 51402 10294 20159 70255 84301 333 56509=
48060 31440 12201 10348 20158 40016 70544 81100 333 56500 59021=
48062 32558 22709 10370 20300 40069 70122 82200 333 56600 59012=
48064 32970 31401 10424 20240 40018 80006 333 56009 58020=
48065 32970 22204 10430 20194 80006 333 56009=
48071 32460 13205 10345 20270 40073 81200 333 56900 59008=
48072 32462 12704 10345 20280 70222 81200 333 56900=
48074 32560 73201 10395 20246 40035 85970 333 56440 59018=
48075 21457 61802 10250 20205 40066 71795 85970 333 56590 58020=
48077 32559 72301 10390 20253 40033 85931 333 56999 59005=
48078 32557 42301 10406 20264 40040 83301 333 56509 59018=
48080 32960 02213 10350 20240 40051 333 59009=
48085 32458 62705 10338 20270 40067 83830 333 56990 59006=
48087 32560 42301 10400 20214 70322 83801 333 56909=
48092 32458 22302 10385 20208 40028 82100 333 56900 59015=
48093 32660 42301 10374 20246 84800 333 56500=
48094 32460 53203 10375 20275 40058 85900 333 56900 59011=
48095 32460 32202 10380 20255 70222 83800 333 56900=
48097 32557 42303 10380 20255 40068 84800 333 56900 59009=
48099 32458 52302 10372 20258 40049 85900 333 56500 59008=
48101 32560 21802 10338 20270 70111 82300 333 56900=
48103 32457 20401 10369 20246 40053 82800 333 56100 59003=
48107 32350 42302 10353 20240 40068 84900 333 56600 59007=
48108 31596 73202 10320 20273 40070 71799 84966 333 56679 59007=
48109 NIL=
48110 31496 82302 10310 20254 40081 70299 85307 333 56709 59002=
48112 32598 60402 10360 20264 40073 70122 82216 333 56199 59007=  
SIBM20 VBRR 050900 RRB

AAXX 05094

48039 32860 21401 10400 20176 80002 333 56009=  





