



*-*-*


<!--
.style2 {
	font-family:"Courier New", Courier, monospace;
	font-size: 14px;
}
-->






SIBM20 VBRR 050300

AAXX 05034

48001 32440 50401 10275 20250 40121 83850 333 56540

59005=

48004 32562 10401 10284 20233 81500 333 56900=

48008 32557 50000 10280 20250 40114 83970 333 56660

59010=

48010 32556 60000 10270 20246 40131 82530 333 56660

58000=

48018 32558 70401 10283 20250 40115 83874 333 56119

58000=

48019 32558 32302 10283 20250 40113 85730 333 56550

59002=

48020 22357 70403 10285 20250 85330 333 56440=

48025 21110 72201 10278 20250 40120 74044 85840 333

56650 59002=

48035 21456 80000 10247 20219 40119 70522 8597/ 333

56129 58014=

48037 22558 32201 10279 20268 40111 83700 333 56900

59008=

48042 22458 61301 10285 20255 40116 85950 333 56390

59004=

48045 22557 71402 10210 20175 86640 333 56330=

48048 32560 43201 10300 20266 40115 84800 333 56400

58001=

48051 32560 43603 10282 20240 70222 81230 333 56990=

48053 22456 60000 10280 20256 40118 83856 333 56599

58003=

48060 22340 30000 10248 20205 40117 83100 333 56400

58000=

48062 32457 50902 10300 20270 40166 84930 333 56990

59028=

48071 22458 52301 10285 20266 40108 84930 333 56990

58007=

48075 22457 70000 10250 20219 40139 85770 333 56590

58021=

48077 22559 70000 10292 20248 40110 85931 333 56499

58014=

48078 32557 52301 10266 20243 40127 83501 333 56409

58012=

48080 22459 60402 10291 20259 40106 84870 333 56490

58004=

48085 22457 70905 10294 20259 40108 84376 333 56299

58004=

48095 22458 70000 10270 20256 70122 84970 333 56990=

48108 21494 82303 10263 20246 40140 75055 8537/ 333

5659/ 58013=

48109 22497 72701 10268 20256 40109 70122 85970 333

56990 59006=

48110 21493 81303 10280 20268 40140 76066 8692/ 333

5699/ 58006=

48112 22597 81802 10280 20250 40142 70222 83876 333

56499 59002=

48030 21250 70401 10182 20165 70244 86840 333 56180=

48072 22460 41302 10310 20267 70222 83830 333 56590=

48087 22450 80000 10274 20256 8497/ 333 5629/=

48099 22450 61304 10280 20250 40121 85930 333 56390

58008=

48101 21458 80000 10260 20260 76165 8592/ 333 5639/=

48103 22456 40402 10292 20248 40124 83830 333 56110

58009=

48057 32457 51403 10230 20181 84801 333 56309=

48094 32459 60402 10305 20270 40105 84970 333 56290

59004=

48097 21557 71403 10270 20256 40128 72065 85350 333

56990 58004=

48031 32557 82201 10205 20185 88/// 333 56499=

48033 32562 60000 10290 20270 40113 85930 333 56490

58002=

48034 22456 60000 10226 20205 86300 333 56500=

48039 22460 30000 10290 20256 83900 333 56500=

48043 22556 83202 10225 20214 8587/ 333 56599=

48052 32460 50000 10306 20267 85900 333 56900=

48055 32456 60904 10238 20214 40123 70244 86900 333

56300 59001=

48064 32558 50901 10280 20250 40101 81136 333 56449

59003=

48065 22456 60000 10285 20259 84570 333 56990=

48074 32460 61403 10270 20240 40125 82502 333 56409

58012=

48092 21456 70903 10280 20268 40099 70155 85970 333

56990 58009=

48093 21456 71401 10268 20256 70165 85370 333 56390=

48107 21330 81801 10258 20258 40125 76366 8597/ 333

5655/ 58017=

48096 22458 71206 10280 20250 40118 70211 85940 333

56990 58001=  





