



*-*-*


<!--
.style2 {
	font-family:"Courier New", Courier, monospace;
	font-size: 14px;
}
-->






SIBM20 VBRR 050300

AAXX 05034

48001 21330 80000 10243 20241 40087 76166 8522/ 333

56519 59022=

48004 31110 80000 10260 20260 75055 8697/ 333 56559=

48008 31450 80000 10275 20250 40097 76355 8497/ 333

56459 59010=

48010 32558 60000 10270 20256 40096 84830 333 56550

59003=

48018 32558 72201 10275 20256 40096 83872 333 56544

59011=

48019 32460 52301 10295 20248 40092 83850 333 56560

59013=

48020 32458 30403 10310 20267 83200 333 56400=

48025 32120 82201 10280 20250 40100 8562/ 333 56599

59001=

48035 32256 82201 10267 20226 40079 8597/ 333 56459

59008=

48037 32558 51802 10288 20248 40086 83830 333 56450

59014=

48042 NIL=

48045 NIL=

48048 NIL=

48051 NIL=

48053 NIL=

48060 NIL=

48062 NIL=

48071 NIL=

48075 NIL=

48077 NIL=

48078 NIL=

48080 NIL=

48085 NIL=

48095 NIL=

48108 NIL=

48109 NIL=

48110 NIL=

48112 NIL=

48030 32256 42201 10189 20175 84830 333 56560=

48072 NIL=

48087 NIL=

48099 NIL=

48101 NIL=

48103 NIL=

48057 NIL=

48094 NIL=

48097 NIL=

48031 32260 60401 10215 20173 84840 333 56490=

48033 32562 71801 10280 20250 40091 86930 333 56490

59011=

48034 21148 80000 10207 20203 75196 8692/ 333 5659/=

48039 NIL=

48043 NIL=

48052 NIL=

48055 NIL=

48064 NIL=

48065 NIL=

48074 NIL=

48092 NIL=

48093 NIL=

48107 NIL=

48096 NIL=  
SIBM20 VBRR 050300 RRA

AAXX 05034

48042 32558 41805 10304 20239 40089 82852 333 56449

59008=

48045 21556 62203 10218 20185 70165 86800 333 56500=

48048 32560 41802 10297 20239 40096 82850 333 56440

59006=

48051 22559 61301 10280 20270 70122 83930 333 56590=

48053 32456 81803 10280 20233 40108 85750 333 56490

59008=

48060 21340 80000 10238 20226 40117 70265 85870 333

56590 58018=

48062 32456 50902 10295 20270 40102 70222 83902 333

56209 59008=

48071 22458 72301 10290 20274 40103 85970 333 56990

59013=

48075 22457 70000 10244 20226 40117 85840 333 56590

59004=

48077 22559 82301 10280 20250 40100 85970 333 56490

59001=

48078 22556 81402 10265 20251 40121 8552/ 333 56499

59004=

48080 32459 81304 10264 20229 40111 85970 333 56490

59007=

48085 21356 82703 10246 20240 40102 76166 86920 333

56590 58004=

48095 21458 82202 10270 20270 76055 83970 333 56990=

48108 21496 71302 10280 20250 40141 75055 84377 333

56379 58007=

48109 22497 82301 10268 20256 40138 8697/ 333 5699/

58002=

48110 22596 62301 10290 20259 40138 82356 333 56999

58000=

48112 22597 81801 10285 20254 40148 83876 333 56499

58013=

48072 21459 82702 10265 20256 70365 8697/ 333 5659/=

48087 22560 62302 10280 20268 83370 333 56490=

48099 21330 81301 10244 20244 40119 76165 8697/ 333

5639/ 59008=

48101 21658 72301 10273 20256 70165 84370 333 56590=

48103 22350 81402 10290 20259 40127 8677/ 333 5633/

59002=

48057 22458 82701 10200 20200 86950 333 56490=

48094 21459 72201 10268 20260 40115 70155 85970 333

56590 59010=

48097 22557 72101 10290 20266 40125 85830 333 56990

58006=

48039 32460 41402 10285 20233 81152 333 56555=

48043 32556 51802 10235 20209 83230 333 56590=

48052 32460 62201 10300 20239 85920 333 56990=

48055 21356 81302 10232 20216 40107 75055 8597/ 333

5633/ 58008=

48064 32458 73201 10285 20259 40078 84831 333 56449

59015=

48065 22456 72201 10276 20268 85870 333 56990=

48074 32458 72301 10270 20240 40118 83850 333 56440

59008=

48092 22450 82605 10280 20250 40098 8597/ 333 5669/

59003=

48093 22557 52301 10287 20259 70122 85800 333 56500=

48107 22350 61301 10280 20268 40117 84970 333 56550

59006=  





