



*-*-*


<!--
.style2 {
	font-family:"Courier New", Courier, monospace;
	font-size: 14px;
}
-->






SIBM20 VBRR 060900

AAXX 06094
48001 NIL=
48004 31240 70401 10232 20198 70152 87900 333 56500=
48008 31556 80401 10220 20205 40123 70295 8497/ 333 56119 58057=
48010 21458 61801 10230 20222 40104 70155 84830 333 56550 58040=
48018 22559 71402 10265 20211 40097 84870 333 56520 58041=
48019 21457 80402 10244 20209 40110 75022 8577/ 333 56459 58065=
48020 21256 83602 10223 20205 70255 8672/ 333 56599=
48025 21240 80000 10230 20198 40103 72055 8577/ 333 56559 58059=
48030 21550 80402 10144 20144 79596 8697/ 333 56189=
48033 32562 63601 10280 20233 40075 86900 333 56500 58047=
48034 32456 80000 10260 20138 8637/ 333 5659/=
48035 31530 62202 10296 20149 40058 70522 84860 333 56190 58039=
48037 32459 83601 10266 20191 40076 8587/ 333 56660 58037=
48039 32459 53201 10315 20215 82102 333 56707=
48042 32958 43203 10305 20194 40078 80052 333 56099 58041=
48043 32656 83205 10245 20167 8487/ 333 56999=
48045 32560 61403 10260 20138 86300 333 56500=
48048 32560 60403 10370 20207 40073 85950 333 56490 59005=
48051 32559 60402 10356 20240 85930 333 56590=
48052 32470 30402 10385 20198 83800 333 56900=
48053 31550 53602 10290 20267 40045 70522 83950 333 56590 58009=
48055 31556 42310 10350 20158 40013 70511 84300 333 56500 58016=
48057 32458 32204 10300 20166 83800 333 56500=
48060 31930 03202 10347 20143 40011 70544 333 59001=
48062 32556 62704 10315 20280 40085 84970 333 56590 58014=
48064 32570 21401 10398 20230 40031 81101 333 56409 58012=
48065 32570 21405 10402 20176 82100 333 56900=
48071 32960 02704 10325 20258 40086 333 58015=
48072 32560 10406 10330 20258 81200 333 56900=
48074 32560 20403 10390 20212 40062 82100 333 56400 58011=
48075 31558 51401 10350 20180 40039 70522 85300 333 56700 58022=
48077 32959 00000 10400 20126 40045 333 58017=
48078 32558 31801 10392 20243 40054 82201 333 56409 58009=
48080 32460 22209 10343 20240 40065 82200 333 56900 59012=
48085 32458 33206 10324 20248 40077 83800 333 56700 58007=
48092 32958 02305 10380 20221 40045 333 58004=
48093 32958 30401 10380 20275 82801 333 56109=
48094 32962 03203 10365 20250 40073 333 58004=
48096 32559 12408 10370 20207 40067 81200 333 56500 58012=
48097 32557 52401 10370 20227 40061 85800 333 56900 59000=
48099 32457 32302 10365 20235 40060 83800 333 56500 58006=
48101 32661 11402 10332 20258 81300 333 56900=
48103 32556 12201 10352 20237 40072 81500 333 56500 59005=
48107 32350 42702 10350 20240 40071 84900 333 56700 58011=
48108 32596 33208 10375 20250 40072 82206 333 56609 59002=
48109 32497 30401 10338 20240 40095 83900 333 56900 58002=
48110 31596 53204 10340 20240 40074 70522 81306 333 56909 59003=
48112 32597 83205 10350 20266 40068 83876 333 56799 58000=  





