



*-*-*


<!--
.style2 {
	font-family:"Courier New", Courier, monospace;
	font-size: 14px;
}
-->






SMBM01 VBRR 060000

AXX 06004

48001 NIL=

48004 NIL=

48008 22556 63601 10200 20185 40102 83970 333 20192 56560 59002

60032=

48010 21430 80000 10240 20240 40092 75095 8587/ 333 20178 5655/

58018 60202=

48018 22550 63201 10200 20185 40091 83870 333 20195 56760 58013

60032=

48019 22940 53201 10200 20200 40086 80076 333 20195 56056 59000

60072=

48020 NIL=

48025 22410 73202 10220 20185 40098 85870 333 20210 56550 58041

69902=

48030 21250 52203 10147 20107 70196 84890 333 20122 56560 69902=

48031 21260 63601 10200 20085 70396 86800 333 20140 56400 60022=

48033 22560 70000 10240 20223 40069 85970 333 20220 56560 58000

60022=

48034 21456 70000 10172 20154 75065 85920 333 20160 56110 60062=

48035 31530 80000 10207 20160 40086 70500 8597/ 333 20200 5656/

59005=

48037 22430 70000 10228 20198 40074 83870 333 20202 56660 58018

60042=

48039 32456 52201 10239 20181 83402 333 20236 56509=

48042 32556 31801 10245 20198 40072 82850 333 20234 56440 58018=

48043 32930 00000 10180 20147 333 20145=

48045 NIL=

48048 32950 00000 10256 20217 40077 333 20250 58015=

48051 32556 40000 10240 20230 84800 333 20230 56900=

48052 32450 20000 10254 20205 82200 333 20240 56900=

48053 32550 30000 10250 20205 40092 81506 333 20244 56609 58022=

48055 31556 20000 10173 20135 40098 70511 81501 333 20155 56509

59023=

48057 32956 31401 10190 20159 80006 333 20170 56009=

48060 31920 00000 10185 20162 40095 74144 333 20165 59011=

48062 31540 70000 10240 20230 40080 71022 85970 333 20220 56590

58002=

48064 32550 33601 10260 20215 40056 82101 333 20210 56909 58001=

48065 32950 10000 10257 20203 80001 333 20240 56009=

48071 31940 03201 10248 20233 40081 74044 333 20245 58001=

48072 NIL=

48074 31456 10000 10272 20240 40080 70500 81400 333 20256 56900

59006=

48075 31456 40000 10215 20210 40122 70511 82505 333 20210 56509

58009=

48077 32956 00000 10260 20215 40073 333 20230 58010=

48078 32550 41801 10275 20238 40086 83501 333 20245 56409 58010=

48080 31456 30000 10231 20214 40091 71022 82870 333 20208 56990

58004=

48085 31950 00000 10240 20226 40081 74044 333 20238 58009=

48087 32450 40000 10220 20205 82840 333 20196 56990=

48092 31910 20000 10240 20240 40069 71011 82500 333 20235 56900

58009=

48093 32950 00000 10252 20233 333 20246=

48094 31950 00000 10250 20240 40088 71000 333 20210 58011=

48095 NIL=

48096 32956 12004 10250 20233 40088 80001 333 20240 56009 58005=

48097 32956 22301 10250 20233 40076 80006 333 20230 56009 59009=

48099 31330 20000 10254 20233 40081 71044 82700 333 20234 56900

58006=

48101 32956 00000 10250 20233 333 20220=

48103 31540 10000 10251 20233 40093 74044 81500 333 20231 56100

58015=

48107 31330 63201 10245 20233 40096 74144 84970 333 20237 56770

58014=

48108 31593 60501 10240 20226 40101 74244 83866 333 20225 56999

58022=

48109 31996 00000 10238 20226 40103 71022 333 20228 58024=

48110 31592 51802 10255 20247 40092 74244 82506 333 20250 56809

58014=

48112 32597 80402 10272 20240 40088 83876 333 20215 56199 58010=  
SMBM01 VBRR 060000 RRA

AAXX 06004
48108 31593 60501 10240 20226 40101 74244 83866 333
20225 56999 58022=
48109 31996 00000 10238 20226 40103 71022 333 20228
58024=
48110 31592 51802 10255 20247 40092 74244 82506 333
20250 56809 58014=
48112 32597 80402 10272 20240 40088 83876 333 20215
56199 58010=
48099 31330 20000 10254 20233 40081 71044 82700 333
20234 56900 58006=
48101 32956 00000 10250 20233 333 20220=
48103 31540 10000 10251 20233 40093 74044 81500 333
20231 56100 58015=
48097 32956 22301 10250 20233 40076 80006 333 20230
56009 59009=
48107 31330 63201 10245 20233 40096 74144 84970 333
20237 56770 58014=  
SMBM01 VBRR 060000

AAXX 06004
48001 NIL=
48004 NIL=
48008 22556 63601 10200 20185 40102 83970 333 20192 56560 59002
60032=
48010 21430 80000 10240 20240 40092 75095 8587/ 333 20178 5655/
58018 60202=
48018 22550 63201 10200 20185 40091 83870 333 20195 56760 58013
60032=
48019 22940 53201 10200 20200 40086 80076 333 20195 56056 59000
60072=
48020 NIL=
48025 22410 73202 10220 20185 40098 85870 333 20210 56550 58041
69902=
48030 21250 52203 10147 20107 70196 84890 333 20122 56560 69902=
48031 21260 63601 10200 20085 70396 86800 333 20140 56400 60022=
48033 22560 70000 10240 20223 40069 85970 333 20220 56560 58000
60022=
48034 21456 70000 10172 20154 75065 85920 333 20160 56110 60062=
48035 31530 80000 10207 20160 40086 70500 8597/ 333 20200 5656/
59005=
48037 22430 70000 10228 20198 40074 83870 333 20202 56660 58018
60042=
48039 32456 52201 10239 20181 83402 333 20236 56509=
48042 32556 31801 10245 20198 40072 82850 333 20234 56440 58018=
48043 32930 00000 10180 20147 333 20145=
48045 NIL=
48048 32950 00000 10256 20217 40077 333 20250 58015=
48051 32556 40000 10240 20230 84800 333 20230 56900=
48052 32450 20000 10254 20205 82200 333 20240 56900=
48053 32550 30000 10250 20205 40092 81506 333 20244 56609 58022=
48055 31556 20000 10173 20135 40098 70511 81501 333 20155 56509
59023=
48057 32956 31401 10190 20159 80006 333 20170 56009=
48060 31920 00000 10185 20162 40095 74144 333 20165 59011=
48062 31540 70000 10240 20230 40080 71022 85970 333 20220 56590
58002=
48064 32550 33601 10260 20215 40056 82101 333 20210 56909 58001=
48065 32950 10000 10257 20203 80001 333 20240 56009=
48071 31940 03201 10248 20233 40081 74044 333 20245 58001=
48072 NIL=
48074 31456 10000 10272 20240 40080 70500 81400 333 20256 56900
59006=
48075 31456 40000 10215 20210 40122 70511 82505 333 20210 56509
58009=
48077 32956 00000 10260 20215 40073 333 20230 58010=
48078 32550 41801 10275 20238 40086 83501 333 20245 56409 58010=
48080 31456 30000 10231 20214 40091 71022 82870 333 20208 56990
58004=
48085 31950 00000 10240 20226 40081 74044 333 20238 58009=
48087 32450 40000 10220 20205 82840 333 20196 56990=
48092 31910 20000 10240 20240 40069 71011 82500 333 20235 56900
58009=
48093 32950 00000 10252 20233 333 20246=
48094 31950 00000 10250 20240 40088 71000 333 20210 58011=
48095 NIL=
48096 32956 12004 10250 20233 40088 80001 333 20240 56009 58005=
48097 32956 22301 10250 20233 40076 80006 333 20230 56009 59009=
48099 31330 20000 10254 20233 40081 71044 82700 333 20234 56900
58006=
48101 32956 00000 10250 20233 333 20220=
48103 31540 10000 10251 20233 40093 74044 81500 333 20231 56100
58015=
48107 31330 63201 10245 20233 40096 74144 84970 333 20237 56770
58014=
48108 31593 60501 10240 20226 40101 74244 83866 333 20225 56999
58022=
48109 31996 00000 10238 20226 40103 71022 333 20228 58024=
48110 31592 51802 10255 20247 40092 74244 82506 333 20250 56809
58014=
48112 32597 80402 10272 20240 40088 83876 333 20215 56199 58010=  
SMBM01 VBRR 060000

AAXX 06004

48001 NIL=

48004 NIL=

48008 22556 63601 10200 20185 40102 83970 333 20192 56560 59002

60032=

48010 21430 80000 10240 20240 40092 75095 8587/ 333 20178 5655/

58018 60202=

48018 22550 63201 10200 20185 40091 83870 333 20195 56760 58013

60032=

48019 22940 53201 10200 20200 40086 80076 333 20195 56056 59000

60072=

48020 NIL=

48025 22410 73202 10220 20185 40098 85870 333 20210 56550 58041

69902=

48030 21250 52203 10147 20107 70196 84890 333 20122 56560 69902=

48031 21260 63601 10200 20085 70396 86800 333 20140 56400 60022=

48033 22560 70000 10240 20223 40069 85970 333 20220 56560 58000

60022=

48034 21456 70000 10172 20154 75065 85920 333 20160 56110 60062=

48035 31530 80000 10207 20160 40086 70500 8597/ 333 20200 5656/

59005=

48037 22430 70000 10228 20198 40074 83870 333 20202 56660 58018

60042=

48039 32456 52201 10239 20181 83402 333 20236 56509=

48042 32556 31801 10245 20198 40072 82850 333 20234 56440 58018=

48043 32930 00000 10180 20147 333 20145=

48045 NIL=

48048 32950 00000 10256 20217 40077 333 20250 58015=

48051 32556 40000 10240 20230 84800 333 20230 56900=

48052 32450 20000 10254 20205 82200 333 20240 56900=

48053 32550 30000 10250 20205 40092 81506 333 20244 56609 58022=

48055 31556 20000 10173 20135 40098 70511 81501 333 20155 56509

59023=

48057 32956 31401 10190 20159 80006 333 20170 56009=

48060 31920 00000 10185 20162 40095 74144 333 20165 59011=

48062 31540 70000 10240 20230 40080 71022 85970 333 20220 56590

58002=

48064 32550 33601 10260 20215 40056 82101 333 20210 56909 58001=

48065 32950 10000 10257 20203 80001 333 20240 56009=

48071 31940 03201 10248 20233 40081 74044 333 20245 58001=

48072 NIL=

48074 31456 10000 10272 20240 40080 70500 81400 333 20256 56900

59006=

48075 31456 40000 10215 20210 40122 70511 82505 333 20210 56509

58009=

48077 32956 00000 10260 20215 40073 333 20230 58010=

48078 32550 41801 10275 20238 40086 83501 333 20245 56409 58010=

48080 31456 30000 10231 20214 40091 71022 82870 333 20208 56990

58004=

48085 31950 00000 10240 20226 40081 74044 333 20238 58009=

48087 32450 40000 10220 20205 82840 333 20196 56990=

48092 31910 20000 10240 20240 40069 71011 82500 333 20235 56900

58009=

48093 32950 00000 10252 20233 333 20246=

48094 31950 00000 10250 20240 40088 71000 333 20210 58011=

48095 NIL=

48096 32956 12004 10250 20233 40088 80001 333 20240 56009 58005=

48097 32956 22301 10250 20233 40076 80006 333 20230 56009 59009=

48099 31330 20000 10254 20233 40081 71044 82700 333 20234 56900

58006=

48101 32956 00000 10250 20233 333 20220=

48103 31540 10000 10251 20233 40093 74044 81500 333 20231 56100

58015=

48107 31330 63201 10245 20233 40096 74144 84970 333 20237 56770

58014=

48108 31593 60501 10240 20226 40101 74244 83866 333 20225 56999

58022=

48109 31996 00000 10238 20226 40103 71022 333 20228 58024=

48110 31592 51802 10255 20247 40092 74244 82506 333 20250 56809

58014=

48112 32597 80402 10272 20240 40088 83876 333 20215 56199 58010=  





