



*-*-*


<!--
.style2 {
	font-family:"Courier New", Courier, monospace;
	font-size: 14px;
}
-->






SMBM01 VBRR 060000 RRA

AAXX 06004

48004 31901 90000 10135 20135 74744 333 20088 60002=

48008 31420 70000 10138 20135 40187 74444 84970 333

20120 56450 58010 60002=

48010 31320 30000 10145 20145 40172 74244 83600 333

20140 56800 58005 60002=

48018 32560 23201 10192 20190 40173 82500 333 20140

56700 59000 60002=

48019 31940 00000 10140 20124 40168 74544 333 20130

59002 60002=

48020 31920 90000 10170 20154 76566 333 20140 60002=

48025 31008 83201 10180 20180 40169 74744 886// 333

20176 56699 59001 60002=

48035 31/01 90000 10111 20110 40193 74744 333 20102

58014 60002=

48037 32910 00000 10165 20152 40155 333 20162 59002

60002=

48042 31940 00000 10175 20160 40151 71000 333 20160

58000 60002=

48048 32940 00000 10155 20144 40156 333 20150 58000

60002=

48053 32950 03601 10170 20154 40149 333 20161 59011

60002=

48060 31/10 90000 10132 20130 40219 71044 333 20125

58028 60002=

48030 31/03 92201 10063 20063 74344 89/// 333 20050

56999 60002=

48057 31940 01401 10100 20100 71000 333 20080 60002=

48031 32256 80000 10108 20091 888// 333 20098 56499

60002=

48033 32957 03601 10160 20160 40149 333 20150 59009

60002=

48034 32456 12301 10083 20071 81500 333 20075 56500

60002=

48039 31540 00000 10170 20164 71011 83400 333 20168

56900 60002=

48043 31010 00000 10100 20100 71044 333 20060 60002=

48052 31320 40000 10160 20160 74522 84600 333 20155

56900 60002=

48055 31/02 91802 10075 20073 40207 74744 333 20050

60002=

48064 32950 00000 10176 20165 40143 333 20130 58000

60002=

48065 31950 00000 10172 20154 70522 333 20140 60002=

48074 32957 00406 10180 20165 40144 333 20170 59023

60002=  





