



*-*-*


<!--
.style2 {
	font-family:"Courier New", Courier, monospace;
	font-size: 14px;
}
-->






SMBM01 VBRR 060614

AAXX 06064

48001 NIL=

48004 32458 60401 10225 20143 86900 333 56900=

48008 32557 61401 10243 20136 40170 82831 333 56566 58014=

48010 32560 31801 10240 20136 40165 82801 333 56509 58000=

48018 32558 62202 10255 20167 40176 83870 333 56550 58000=

48019 32962 60401 10253 20150 40168 80001 333 56005 58003=

48020 32357 43602 10253 20156 82401 333 56505=

48025 32440 50901 10250 20105 40172 83540 333 56450 59004=

48030 32356 42201 10172 29027 82506 333 56509=

48031 32358 21401 10198 20118 80002 333 56009=

48033 32963 03601 10300 20098 40157 333 58001=

48034 32457 32302 10237 20034 83500 333 56500=

48035 31560 22702 10242 20034 40138 70500 81501 333 56909 59003=

48037 32660 33601 10285 20098 40163 80002 333 56006 58003=

48039 31956 23202 10285 20098 70511 80002 333 56005=

48042 32957 23602 10285 20098 40148 80002 333 56009 59013=

48043 32058 20205 10230 20045 80006 333 56009=

48045 32963 61404 10201 20033 80006 333 56009=

48048 32560 50401 10290 20179 40167 84850 333 56490 58003=

48051 32959 33104 10294 20120 80006 333 56009=

48052 32470 33203 10290 20140 83800 333 56900=

48053 32956 23604 10300 20069 40154 80006 333 56009 59010=

48055 32956 31402 10252 20068 40127 80006 333 56009 59000=

48057 32958 42203 10214 20051 80006 333 56009=

48060 32440 23201 10225 20104 40146 81102 333 56509 59012=

48062 32558 60903 10275 20220 40160 82536 333 56999 59004=

48064 32970 23201 10280 20184 40144 80001 333 56009 58007=

48065 32970 10406 10299 20069 80001 333 56009=

48071 32460 13203 10260 20179 40164 81200 333 56900 58000=

48072 32560 13202 10290 20179 70222 81200 333 56900=

48074 32959 10903 10275 20126 40159 80001 333 56009 58005=

48075 31958 21402 10270 20110 40138 70511 80006 333 56009 59021=

48077 32959 20401 10310 20146 40149 80001 333 56009 58002=

48078 32957 10901 10290 20140 40167 80001 333 56009 58015=

48080 32961 03206 10302 20223 40144 333 58026=

48085 31958 13203 10289 20196 40154 70500 80001 333 56009 58002=

48087 32960 00401 10300 20149 333=

48092 31958 11301 10330 20161 40131 70521 80030 333 56090 58003=

48093 32957 03201 10317 20200 333=

48094 32960 23202 10315 20190 40152 80006 333 56009 58006=

48095 32960 30000 10300 20207 70222 80002 333 56009=

48097 31557 40302 10320 20140 40153 70511 82806 333 56909 59012=

48099 32456 42303 10314 20200 40150 84800 333 56500 58006=

48101 32960 20000 10320 20163 70211 80005 333 56009=

48103 32456 10401 10331 20172 40138 81500 333 56100 59002=

48107 32950 03201 10332 20126 40131 333 58010=

48108 32596 42308 10330 20160 40154 81106 333 56909 58012=

48109 32497 10401 10315 20248 40156 70122 81500 333 56900 58004=

48110 31996 21303 10290 20215 40146 70511 80005 333 56009 58009=

48112 32598 60405 10318 20215 40144 70122 82216 333 56199 58008=  
SMBM01 VBRR 060600

AAXX 06064

48001 NIL=

48004 32458 60401 10225 20143 86900 333 56900=

48008 32557 61401 10243 20136 40170 82831 333 56566

58014=

48010 32560 31801 10240 20136 40165 82801 333 56509

58000=

48018 32558 62202 10255 20167 40176 83870 333 56550

58000=

48019 32962 60401 10253 20150 40168 80001 333 56005

58003=

48020 32357 43602 10253 20156 82401 333 56505=

48025 32440 50901 10250 20105 40172 83540 333 56450

59004=

48035 31560 22702 10242 20034 40138 70500 81501 333

56909 59003=

48037 32660 33601 10285 20098 40163 80002 333 56006

58003=

48042 32957 23602 10285 20098 40148 80002 333 56009

59013=

48045 32963 61404 10201 20033 80006 333 56009=

48048 32560 50401 10290 20179 40167 84850 333 56490

58003=

48051 32959 33104 10294 20120 80006 333 56009=

48053 32956 23604 10300 20069 40154 80006 333 56009

59010=

48060 32440 23201 10225 20104 40146 81102 333 56509

59012=

48062 32558 60903 10275 20220 40160 82536 333 56999

59004=

48071 32460 13203 10260 20179 40164 81200 333 56900

58000=

48075 31958 21402 10270 20110 40138 70511 80006 333

56009 59021=

48077 32959 20401 10310 20146 40149 80001 333 56009

58002=

48078 32957 10901 10290 20140 40167 80001 333 56009

58015=

48080 32961 03206 10302 20223 40144 333 58026=

48085 31958 13203 10289 20196 40154 70500 80001 333

56009 58002=

48095 32960 30000 10300 20207 70222 80002 333 56009=

48108 32596 42308 10330 20160 40154 81106 333 56909

58012=

48109 32497 10401 10315 20248 40156 70122 81500 333

56900 58004=

48110 31996 21303 10290 20215 40146 70511 80005 333

56009 58009=

48112 32598 60405 10318 20215 40144 70122 82216 333

56199 58008=

48030 32356 42201 10172 29027 82506 333 56509=

48072 32560 13202 10290 20179 70222 81200 333 56900=

48087 32960 00401 10300 20149 333=

48099 32456 42303 10314 20200 40150 84800 333 56500

58006=

48101 32960 20000 10320 20163 70211 80005 333 56009=

48103 32456 10401 10331 20172 40138 81500 333 56100

59002=

48057 32958 42203 10214 20051 80006 333 56009=

48094 32960 23202 10315 20190 40152 80006 333 56009

58006=

48097 31557 40302 10320 20140 40153 70511 82806 333

56909 59012=

48031 32358 21401 10198 20118 80002 333 56009=

48033 32963 03601 10300 20098 40157 333 58001=

48034 32457 32302 10237 20034 83500 333 56500=

48039 31956 23202 10285 20098 70511 80002 333 56005=

48043 32058 20205 10230 20045 80006 333 56009=

48052 32470 33203 10290 20140 83800 333 56900=

48055 32956 31402 10252 20068 40127 80006 333 56009

59000=

48064 32970 23201 10280 20184 40144 80001 333 56009

58007=

48065 32970 10406 10299 20069 80001 333 56009=

48074 32959 10903 10275 20126 40159 80001 333 56009

58005=

48092 31958 11301 10330 20161 40131 70521 80030 333

56090 58003=

48093 32957 03201 10317 20200 333=

48107 32950 03201 10332 20126 40131 333 58010=  





