



*-*-*


<!--
.style2 {
	font-family:"Courier New", Courier, monospace;
	font-size: 14px;
}
-->






SMBM01 VBRR 061800

NIL=  
SMBM01 VBRR 061800 RRA

AAXX 06184

48008 31510 10000 10180 20155 40115 71044 81400 333 56900 58002=

48010 32003 00000 10155 20155 40115 333 59009=

48018 32910 00000 10205 20185 40129 333 58022=

48025 32405 22201 10180 20147 40127 82500 333 56400 58015=

48042 32950 00000 10220 20185 40101 333 58005=

48053 32940 00000 10200 20168 40119 333 58017=

48057 32939 01501 10142 20107 333=

48060 32410 10000 10152 20134 40148 81100 333 56500 58017=

48062 31540 33202 10210 20200 40126 70511 83500 333 56900 58003=

48071 32930 00000 10200 20185 40128 333 58007=

48080 32940 00000 10190 20135 40140 333 58015=

48094 32950 00000 10215 20180 40113 333 59008=

48097 32456 31101 10225 20210 40124 83500 333 56900 58000=

48099 31940 00000 10240 20209 40102 71011 333 59005=  





