



*-*-*


<!--
.style2 {
	font-family:"Courier New", Courier, monospace;
	font-size: 14px;
}
-->






SIBM20 VBRR 060900

AAXX 06094

48001 32450 40901 10340 20240 49973 82350 333 56350

59034=

48004 32460 50401 10299 20253 85900 333 56500=

48008 31457 70000 10277 20250 40013 75055 84970 333

56450 59004=

48010 21440 80000 10250 20250 40013 75055 8587/ 333

56599 58016=

48018 21558 80000 10270 20256 40013 75055 8497/ 333

56459 58017=

48019 32458 83601 10290 20259 40009 8577/ 333 56459

58013=

48020 21450 83602 10270 20256 75155 88700 333 56400=

48025 21240 83202 10283 20250 40014 70296 8532/ 333

56559 58027=

48035 31560 80000 10251 20233 40008 76066 8597/ 333

56449 58050=

48037 32560 72701 10378 20240 49981 85330 333 56560

58006=

48042 21558 71803 10330 20258 49998 70255 84970 333

56440 58017=

48045 22556 71402 10225 20214 70144 87300 333 56200=

48048 32558 71801 10380 20240 49990 86950 333 56490

58001=

48051 32559 81303 10312 20270 70122 85930 333 56490=

48053 32558 51804 10350 20266 49997 84950 333 56490

58008=

48060 21330 80000 10226 20226 40005 76166 8597/ 333

5649/ 58026=

48062 22457 71805 10292 20270 49987 70122 85970 333

56490 59015=

48071 21458 71803 10290 20259 49994 72052 85970 333

56590 59016=

48075 22457 62201 10280 20220 40000 70222 84870 333

56390 58001=

48077 21558 80000 10270 20256 40001 70262 85970 333

56490 59003=

48078 22557 51401 10316 20274 40012 83831 333 56499

59018=

48080 22458 82205 10294 20274 40010 85870 333 56590

59014=

48085 32457 82204 10280 20250 40009 86970 333 56590

59012=

48095 21456 80000 10265 20265 76566 8497/ 333 5699/=

48108 21494 82701 10290 20259 40053 72055 8537/ 333

5669/ 59006=

48109 NIL=

48110 22270 82704 10315 20253 40052 84357 333 56599

59032=

48112 22597 82205 10288 20248 40063 70222 83876 333

56599 59007=

48030 21/03 90402 10200 20200 75055 333 56999=

48072 22460 81304 10280 20268 70222 8697/ 333 5659/=

48087 32458 72304 10300 20253 8437/ 333 5649/=

48099 21440 71303 10282 20250 40031 70165 85920 333

56390 59012=

48101 32558 82304 10303 20266 70222 8597/ 333 5659/=

48103 21350 82201 10252 20252 40034 75066 8677/ 333

5655/ 59007=

48057 21457 61401 10230 20198 70265 84950 333 56590=

48094 21357 82201 10260 20260 40014 76066 8697/ 333

5669/ 59019=

48097 21457 83202 10275 20269 40031 75055 8597/ 333

5699/ 59015=

48031 21/02 91401 10200 20197 76496 89/// 333 56999=

48033 32563 71401 10310 20240 49989 86970 333 56440

58009=

48034 21356 80401 10245 20233 75055 8692/ 333 5659/=

48039 32460 70401 10320 20265 85960 333 56550=

48043 22556 83205 10250 20219 8587/ 333 56599=

48052 22468 51302 10368 20258 85900 333 56900=

48055 22557 72307 10278 20211 49979 70265 84931 333

56559 58020=

48064 32470 63201 10310 20267 49980 83831 333 56449

58001=

48065 32456 61402 10312 20254 85870 333 56990=

48074 32459 61404 10320 20265 40997 84960 333 56440

59018=

48092 21457 81801 10290 20267 40023 75022 8597/ 333

5649/ 58016=

48093 21456 81801 10279 20250 70255 8637/ 333 56599=

48107 32350 62702 10310 20267 40037 84970 333 56550

59021=  





