



*-*-*


<!--
.style2 {
	font-family:"Courier New", Courier, monospace;
	font-size: 14px;
}
-->






SMBM01 VBRR 061800

NIL=  
SMBM01 VBRR 061800 RRA

AAXX 06184
48008 31510 10000 10220 20173 40110 71044 81400 333 56500 59003=
48010 32903 00000 10170 20154 40119 333 59006=
48018 32920 00000 10210 20175 40113 333 58026=
48025 31907 03201 10230 20163 40129 70544 333 59016=
48042 32950 00000 10248 20167 40083 333 59016=
48053 32940 00000 10240 20155 40107 333 59002=
48057 32939 01401 10190 20139 333=
48060 32910 00000 10158 20123 40125 333 59006=
48062 31950 03206 10240 20230 40122 71000 333 59010=
48071 32930 03203 10255 20203 40111 333 58000=
48078 32950 10000 10253 20194 40103 80001 333 56009 59013=
48080 32950 00000 10220 20185 40116 333 59015=
48094 32950 00000 10230 20210 40114 333 59007=
48097 32956 01404 10260 20179 40117 333 59015=
48099 31930 00000 10260 20229 40097 71000 333 58005=
48103 32510 20401 10262 20203 40093 82500 333 56100 59005=
48108 32594 40000 10250 20233 40120 83506 333 56909 59002=
48109 32495 30000 10262 20215 40116 83500 333 56900 59009=
48110 31594 40000 10275 20245 40116 70522 81306 333 56909 59006=
48112 32597 60401 10281 20233 40106 82246 333 56199 59002=  





