



*-*-*


<!--
.style2 {
	font-family:"Courier New", Courier, monospace;
	font-size: 14px;
}
-->






SIBM20 VBRR 060900

AAXX 06094

48001 NIL=

48004 32562 21301 10306 20169 82800 333 56900=

48008 32557 11401 10318 20116 40092 81400 333 56500

59015=

48010 32560 11801 10320 20163 40100 81100 333 56900

59016=

48018 31560 42202 10328 20151 40089 70311 82870 333

56560 59012=

48019 32560 10402 10324 20184 40087 81100 333 56600

59019=

48020 NIL=

48025 31956 03601 10347 20158 40091 70544 333 59013=

48035 31540 30000 10301 20098 40053 70500 83800 333

56900 59019=

48037 31956 03201 10360 20156 40093 70544 333 58002=

48042 32958 03602 10357 20152 40077 333 59014=

48045 32558 10903 10271 20113 81100 333 56500=

48048 32562 22201 10355 20177 40096 82800 333 56900

58001=

48051 32960 03102 10340 20150 70200 333=

48053 31950 03602 10350 20143 40086 70500 333 59002=

48060 32456 02702 10330 20126 40057 333 59015=

48062 32958 03209 10301 20240 40111 333 59014=

48071 32960 03203 10303 20185 40114 333 59009=

48075 31957 02701 10340 20130 40039 70511 333 59039=

48077 32958 00000 10380 20140 40068 333 59016=

48078 32958 11801 10380 20159 40072 80001 333 56009

59021=

48080 32960 03206 10324 20236 40091 333 59016=

48085 32958 03207 10310 20225 40107 333 59007=

48095 32960 02202 10370 20190 333=

48108 32596 53207 10350 20219 40093 83306 333 56609

59005=

48109 32497 20401 10308 20237 40116 70322 82500 333

56000 59009=

48110 31596 33204 10335 20264 40093 70511 81306 333

56909 59012=

48112 NIL=

48030 32256 12203 10224 29023 81300 333 56500=

48072 32960 02705 10295 20185 70222 333=

48087 32960 00000 10380 20159 333=

48099 32560 41304 10372 20207 40078 82830 333 56390

59016=

48101 32960 03201 10330 20224 333=

48103 32457 22201 10363 20177 40081 82800 333 56500

59010=

48057 32460 12203 10284 20126 81500 333 56600=

48094 32960 03202 10330 20200 40101 333 59005=

48097 32957 02304 10370 20190 40088 333 59018=

48031 31260 20401 10235 20097 70511 82800 333 56900=

48033 32963 03201 10350 20237 40084 333 59028=

48034 32458 11804 10288 20115 81500 333 56500=

48039 32959 11401 10345 20145 80002 333 56009=

48043 32058 03205 10280 20126 333=

48052 32970 03202 10380 20187 333=

48055 31556 12203 10331 20126 40034 70500 81100 333

56500 59012=

48064 32970 01401 10380 20240 40069 333 58008=

48065 32970 00403 10370 20190 333=

48074 32961 02302 10365 20195 40079 333 59011=

48092 32959 02306 10375 20205 40068 333 59008=

48093 32958 02301 10372 20207 333=

48107 32950 00401 10344 20240 40085 333 59010=  
SIBM20 VBRR 060900

AAXX 06094
48001 NIL=
48004 32562 21301 10306 20169 82800 333 56900=
48008 32557 11401 10318 20116 40092 81400 333 56500 59015=
48010 32560 11801 10320 20163 40100 81100 333 56900 59016=
48018 31560 42202 10328 20151 40089 70311 82870 333 56560 59012=
48019 32560 10402 10324 20184 40087 81100 333 56600 59019=
48020 NIL=
48025 31956 03601 10347 20158 40091 70544 333 59013=
48030 32256 12203 10224 29023 81300 333 56500=
48031 31260 20401 10235 20097 70511 82800 333 56900=
48033 32963 03201 10350 20237 40084 333 59028=
48034 32458 11804 10288 20115 81500 333 56500=
48035 31540 30000 10301 20098 40053 70500 83800 333 56900 59019=
48037 31956 03201 10360 20156 40093 70544 333 58002=
48039 32959 11401 10345 20145 80002 333 56009=
48042 32958 03602 10357 20152 40077 333 59014=
48043 32058 03205 10280 20126 333=
48045 32558 10903 10271 20113 81100 333 56500=
48048 32562 22201 10355 20177 40096 82800 333 56900 58001=
48051 32960 03102 10340 20150 70200 333=
48052 32970 03202 10380 20187 333=
48053 31950 03602 10350 20143 40086 70500 333 59002=
48055 31556 12203 10331 20126 40034 70500 81100 333 56500 59012=
48057 32460 12203 10284 20126 81500 333 56600=
48060 32456 02702 10330 20126 40057 333 59015=
48062 32958 03209 10301 20240 40111 333 59014=
48064 32970 01401 10380 20240 40069 333 58008=
48065 32970 00403 10370 20190 333=
48071 32960 03203 10303 20185 40114 333 59009=
48072 32960 02705 10295 20185 70222 333=
48074 32961 02302 10365 20195 40079 333 59011=
48075 31957 02701 10340 20130 40039 70511 333 59039=
48077 32958 00000 10380 20140 40068 333 59016=
48078 32958 11801 10380 20159 40072 80001 333 56009 59021=
48080 32960 03206 10324 20236 40091 333 59016=
48085 32958 03207 10310 20225 40107 333 59007=
48087 32960 00000 10380 20159 333=
48092 32959 02306 10375 20205 40068 333 59008=
48093 32958 02301 10372 20207 333=
48094 32960 03202 10330 20200 40101 333 59005=
48095 32960 02202 10370 20190 333=
48097 32957 02304 10370 20190 40088 333 59018=
48099 32560 41304 10372 20207 40078 82830 333 56390 59016=
48101 32960 03201 10330 20224 333=
48103 32457 22201 10363 20177 40081 82800 333 56500 59010=
48107 32950 00401 10344 20240 40085 333 59010=
48108 32596 53207 10350 20219 40093 83306 333 56609 59005=
48109 32497 20401 10308 20237 40116 70322 82500 333 56000 59009=
48110 31596 33204 10335 20264 40093 70511 81306 333 56909 59012=
48112 NIL=  





