



*-*-*


<!--
.style2 {
	font-family:"Courier New", Courier, monospace;
	font-size: 14px;
}
-->






SMBM01 VBRR 060600

AAXX 06064

48001 NIL=

48004 32562 12201 10277 20146 81100 333 56900=

48008 32557 13201 10288 20115 40129 81400 333 56500

59013=

48010 31560 11801 10285 20146 40130 70344 81100 333

56900 58001=

48018 32960 00402 10300 20149 40125 333 59012=

48019 32560 10402 10284 20158 40125 81100 333 56500

58001=

48020 32958 00402 10290 20196 333=

48025 31940 03201 10298 20141 40136 70544 333 59002=

48035 31558 12702 10289 20092 40082 70500 81100 333

56900 59022=

48037 31956 03201 10322 20140 40134 70544 333 58016=

48042 31956 03202 10325 20146 40109 70500 333 59009=

48045 32960 01405 10243 20066 333=

48048 32962 00402 10330 20164 40125 333 59002=

48051 32958 03102 10314 20150 70111 333=

48053 31950 03605 10320 20140 40126 70500 333 58008=

48060 32956 00000 10283 20146 40106 333 58010=

48062 32960 03206 10298 20240 40147 333 58006=

48071 32960 03204 10285 20215 40140 333 59002=

48075 31957 00401 10310 20150 40084 70511 333 59032=

48077 32958 00401 10360 20156 40107 333 59002=

48078 32958 12701 10343 20173 40115 80001 333 56009

59009=

48080 32461 23204 10330 20234 40115 82200 333 56900

59006=

48085 32958 03209 10306 20223 40128 333 59005=

48095 32960 00401 10335 20201 333=

48108 31596 41402 10340 20206 40110 70144 82806 333

56409 59012=

48109 32997 00401 10312 20254 40142 70122 333 58009=

48110 31596 83203 10315 20266 40122 70522 84307 333

56909 59007=

48112 32598 63202 10331 20258 40119 70222 82216 333

56799 59005=

48030 32957 02201 10200 29026 333=

48072 32960 02704 10290 20248 70122 333=

48087 32960 02301 10354 20182 333=

48099 32456 22302 10340 20225 40112 82800 333 56500

59008=

48101 32960 03201 10330 20224 333=

48103 32457 22201 10347 20202 40113 82800 333 56500

59009=

48057 32960 03203 10254 20105 333=

48094 32960 03202 10330 20230 40128 333 58000=

48097 32957 02303 10355 20180 40118 333 59007=

48031 31258 21801 10220 20087 70511 82800 333 56900=

48033 32963 03601 10330 20212 40129 333 58007=

48034 32458 11803 10275 20113 81500 333 56500=

48039 31950 13201 10328 20151 70500 80002 333 56005=

48043 32858 13205 10275 20126 81200 333 56900=

48052 32958 03203 10340 20164 333=

48055 31956 01306 10310 20146 40071 70500 333 59013=

48064 32970 03201 10357 20235 40095 333 59002=

48065 32970 00404 10348 20182 333=

48074 32961 00000 10330 20172 40117 333 59009=

48092 32958 02704 10355 20188 40095 333 59011=

48093 32958 02301 10346 20202 333=

48107 32950 02302 10350 20219 40108 333 59003=  
SMBM01 VBRR 060600

AAXX 06064
48001 NIL=
48004 32562 12201 10277 20146 81100 333 56900=
48008 32557 13201 10288 20115 40129 81400 333 56500 59013=
48010 31560 11801 10285 20146 40130 70344 81100 333 56900 58001=
48018 32960 00402 10300 20149 40125 333 59012=
48019 32560 10402 10284 20158 40125 81100 333 56500 58001=
48020 32958 00402 10290 20196 333=
48025 31940 03201 10298 20141 40136 70544 333 59002=
48030 32957 02201 10200 29026 333=
48031 31258 21801 10220 20087 70511 82800 333 56900=
48033 32963 03601 10330 20212 40129 333 58007=
48034 32458 11803 10275 20113 81500 333 56500=
48035 31558 12702 10289 20092 40082 70500 81100 333 56900 59022=
48037 31956 03201 10322 20140 40134 70544 333 58016=
48039 31950 13201 10328 20151 70500 80002 333 56005=
48043 32858 13205 10275 20126 81200 333 56900=
48042 31956 03202 10325 20146 40109 70500 333 59009=
48045 32960 01405 10243 20066 333=
48048 32962 00402 10330 20164 40125 333 59002=
48051 32958 03102 10314 20150 70111 333=
48052 32958 03203 10340 20164 333=
48055 31956 01306 10310 20146 40071 70500 333 59013=
48053 31950 03605 10320 20140 40126 70500 333 58008=
48057 32960 03203 10254 20105 333=
48060 32956 00000 10283 20146 40106 333 58010=
48062 32960 03206 10298 20240 40147 333 58006=
48064 32970 03201 10357 20235 40095 333 59002=
48065 32970 00404 10348 20182 333=
48071 32960 03204 10285 20215 40140 333 59002=
48072 32960 02704 10290 20248 70122 333=
48074 32961 00000 10330 20172 40117 333 59009=
48075 31957 00401 10310 20150 40084 70511 333 59032=
48077 32958 00401 10360 20156 40107 333 59002=
48078 32958 12701 10343 20173 40115 80001 333 56009 59009=
48080 32461 23204 10330 20234 40115 82200 333 56900 59006=
48085 32958 03209 10306 20223 40128 333 59005=
48087 32960 02301 10354 20182 333=
48092 32958 02704 10355 20188 40095 333 59011=
48093 32958 02301 10346 20202 333=
48094 32960 03202 10330 20230 40128 333 58000=
48095 32960 00401 10335 20201 333=
48096 32958 03208 10340 20164 40120 333 59008=
48097 32957 02303 10355 20180 40118 333 59007=
48099 32456 22302 10340 20225 40112 82800 333 56500 59008=
48101 32960 03201 10330 20224 333=
48103 32457 22201 10347 20202 40113 82800 333 56500 59009=
48107 32950 02302 10350 20219 40108 333 59003=
48108 31596 41402 10340 20206 40110 70144 82806 333 56409 59012=
48109 32997 00401 10312 20254 40142 70122 333 58009=
48110 31596 83203 10315 20266 40122 70522 84307 333 56909 59007=
48112 32598 63202 10331 20258 40119 70222 82216 333 56799 59005=  





