



*-*-*


<!--
.style2 {
	font-family:"Courier New", Courier, monospace;
	font-size: 14px;
}
-->






SIBM20 VBRR 060300

AAXX 06034

48001 21330 80000 10254 20250 40077 75166 8572/ 333

56459 59010=

48004 NIL=

48008 22456 80000 10272 20256 40088 8497/ 333 56459

59009=

48010 32550 60000 10265 20250 40088 84830 333 56550

59008=

48018 21558 82201 10272 20256 40095 72055 8597/ 333

56559 59001=

48019 21456 80000 10270 20256 40085 72022 85360 333

56590 59007=

48020 22357 80000 10300 20266 86730 333 56590=

48025 21120 80000 10275 20256 40090 75055 8572/ 333

56599 59016=

48035 31550 82202 10253 20219 40081 70522 8597/ 333

56569 58002=

48037 32558 41801 10292 20248 40105 82130 333 56440

58015=

48042 32550 71303 10290 20240 40096 84850 333 56440

58007=

48045 21450 52302 10220 20185 74144 83670 333 56550=

48048 32560 52201 10302 20239 40091 84950 333 56490

59005=

48051 22559 60902 10280 20250 85930 333 56590=

48053 32456 61803 10270 20240 40109 84550 333 56590

59021=

48060 22350 70000 10262 20215 40092 84870 333 56550

59025=

48062 21356 81301 10267 20260 40095 72055 86920 333

56390 59007=

48071 21458 71801 10272 20256 40104 72162 84970 333

56490 58001=

48075 32457 70000 10240 20209 40116 85770 333 56590

59001=

48077 22559 82301 10270 20256 40102 85970 333 56490

58003=

48078 21450 81802 10266 20251 40122 75055 8572/ 333

5649/ 58001=

48080 21459 80401 10252 20250 40113 76066 86720 333

56490 58002=

48085 21356 81401 10250 20250 40113 76366 86920 333

56590 59009=

48095 22458 82202 10265 20246 85970 333 56690=

48108 21596 72301 10260 20246 40141 70255 84366 333

56699 58001=

48109 21496 82302 10255 20246 40131 75166 8697/ 333

5699/ 59007=

48110 21496 81301 10270 20256 40143 70255 84357 333

56699 58005=

48112 32598 63601 10290 20259 40145 82216 333 56899

59003=

48030 31256 72201 10193 20175 70244 85840 333 56560=

48072 22459 71302 10295 20259 85930 333 56590=

48087 22560 82302 10280 20250 8437/ 333 5649/=

48099 21340 80903 10266 20256 40123 75055 8697/ 333

5639/ 58004=

48101 22557 80000 10265 20246 8497/ 333 5659/=

48103 22456 82202 10278 20250 40128 86770 333 56550

58001=

48057 22458 81401 10200 20200 8695/ 333 5649/=

48094 22457 70000 10270 20260 40120 85970 333 56590

58005=

48097 22557 72302 10270 20256 40124 85830 333 56990

59001=

48031 31/08 93201 10214 20195 74744 89/// 333 56999=

48033 32562 52302 10300 20239 40092 84501 333 56409

58000=

48034 21456 82301 10205 20190 70255 8692/ 333 5659/=

48039 32460 72202 10285 20233 84950 333 56590=

48043 32556 81802 10225 20214 8587/ 333 56599=

48052 32468 52201 10306 20237 85900 333 56900=

48055 22459 71403 10242 20209 40098 85930 333 56490

59010=

48064 32458 70401 10287 20259 40087 84831 333 56449

58009=

48065 32456 70402 10285 20248 85370 333 56590=

48074 32457 82304 10265 20246 40117 8577/ 333 56449

59001=

48092 22456 82302 10270 20256 40104 8597/ 333 5699/

58006=

48093 22557 72301 10286 20259 86840 333 56590=

48107 22350 61301 10282 20268 40124 84970 333 56550

58007=

48096 NIL=  
SIBM20 VBRR 060300 RRA

AAXX 06034

48004 31110 80000 10249 20249 75365 8692/ 333 56549=

48096 22457 72106 10270 20256 40124 84970 333 56990

58001=  





