



*-*-*


<!--
.style2 {
	font-family:"Courier New", Courier, monospace;
	font-size: 14px;
}
-->






SIBM20 VBRR 060900

AAXX 06094

48001 21456 72701 10253 20248 40052 70366 85770 333

56220 58013=

48004 21356 73201 10268 20268 70152 87900 333 56500=

48008 21456 80000 10260 20257 40069 75195 8497/ 333

56459 58013=

48010 32558 60000 10295 20253 40052 84801 333 56404

59009=

48018 32558 72301 10310 20254 40058 84870 333 56450

59012=

48019 22457 80000 10290 20248 40062 85770 333 56560

58010=

48020 32458 40903 10330 20291 83830 333 56590=

48025 32350 81401 10324 20248 40056 83841 333 56459

58001=

48035 32560 62204 10291 20215 40042 84960 333 56560

59005=

48037 32562 50901 10351 20240 40054 82130 333 56599

59001=

48042 32560 41305 10357 20225 40049 82802 333 56409

58004=

48045 31002 90903 10221 20185 74544 89/// 333 56999=

48048 32560 71801 10330 20244 40058 85950 333 56490

58003=

48051 NIL=

48053 32458 61805 10330 20244 40070 84956 333 56499

58010=

48060 32456 60000 10308 20203 40032 84830 333 56560

59014=

48062 32458 62302 10305 20280 40070 70122 85930 333

56490 59002=

48071 21458 82302 10280 20268 40080 75065 8697/ 333

5659/ 59001=

48075 32457 52201 10290 20215 40064 70322 84830 333

56390 59000=

48077 32559 82304 10310 20254 40075 85931 333 56499

59008=

48078 22559 61803 10316 20260 40079 84331 333 56499

59004=

48080 NIL=

48085 21357 83201 10262 20262 40088 75165 86920 333

56990 58002=

48095 32558 82203 10290 20274 84970 333 56590=

48108 32596 62302 10310 20254 40105 84366 333 56699

59007=

48109 NIL=

48110 22596 43204 10315 20259 40110 82946 333 56999

59009=

48112 32598 62703 10330 20258 40107 70222 82216 333

56699 59009=

48030 21254 82201 10200 20200 75066 8694/ 333 56569=

48072 21458 81801 10270 20256 75066 86970 333 56590=

48087 22458 72301 10290 20259 70322 84371 333 56499=

48099 NIL=

48101 21558 80000 10280 20250 70265 8497/ 333 5659/=

48103 21350 82202 10280 20250 40092 70255 86770 333

56550 59003=

48057 32460 53204 10250 20205 83306 333 56509=

48094 21458 82201 10270 20260 40088 75165 86920 333

56590 59001=

48097 32557 72301 10300 20266 40104 70222 85330 333

56990 58010=

48031 21/06 92201 10235 20209 74764 89/// 333 56999=

48033 32563 41801 10330 20244 40042 84800 333 56400

59010=

48034 32456 52301 10260 20215 85300 333 56500=

48039 32460 41401 10320 20236 83902 333 56404=

48043 32557 41807 10265 20226 82230 333 56590=

48052 32468 51301 10356 20249 85900 333 56900=

48055 NIL=

48064 32560 30401 10331 20275 40045 82801 333 56409

59014=

48065 32557 50302 10330 20258 84301 333 56409=

48074 32560 42305 10320 20265 40086 82351 333 56659

58002=

48092 32457 82305 10290 20253 40074 8597/ 333 5656/

58003=

48093 32558 72301 10306 20282 70122 85341 333 56599=

48107 21350 62301 10282 20268 40101 70165 84970 333

56550 59004=

48096 32458 72404 10300 20253 40092 70222 85940 333

56690 58006=  
SIBM20 VBRR 060900 RRA

AAXX 06094

48080 21459 82203 10275 20263 40084 75065 86720 333

56490 59004=

48099 21456 51302 10300 20253 40095 70151 85900 333

56900 58000=

48055 21556 73201 10250 20226 40060 70296 85931 333

56499 59009=  





