



*-*-*


<!--
.style2 {
	font-family:"Courier New", Courier, monospace;
	font-size: 14px;
}
-->






SIBM20 VBRR 070900

AAXX 07094
48001 NIL=
48004 32460 50401 10315 20215 85900 333 56500=
48008 32557 51401 10315 20163 40092 82970 333 56450 59030=
48010 32560 30000 10300 20239 40088 82130 333 56550 59016=
48018 32559 30402 10315 20200 40091 83800 333 56100 59007=
48019 32960 00401 10316 20215 40091 333 59018=
48020 32360 43203 10320 20248 84800 333 56500=
48025 32456 23601 10325 20200 40088 81100 333 56990 58015=
48030 32256 73202 10233 20097 87900 333 56700=
48031 31260 31401 10255 20072 70544 83800 333 56400=
48033 32963 03601 10350 20202 40076 333 58001=
48034 32457 30402 10281 20146 83800 333 56500=
48035 31550 72203 10324 20265 40039 70500 85960 333 56590 59018=
48037 32956 00401 10353 20202 40101 333 58025=
48039 32860 23201 10368 20171 80002 333 56009=
48042 32958 03602 10370 20190 40066 333 59012=
48043 32059 01805 10290 20140=
48045 32560 30902 10280 20146 83300 333 56500=
48048 32960 00902 10365 20214 40078 333 58005=
48051 32559 23601 10377 20220  82300 333 56900=
48052 32970 00402 10372 20207=
48053 32956 03602 10360 20249 40071 333 58026=
48055 31656 40404 10338 20135 40020 70511 84800 333 56500 58007=
48057 32458 21403 10298 20166 82800 333 56600=
48060 32440 13201 10348 20182 40036 81100 333 56500 58026=
48062 32958 22708 10328 20290 40088 82500 333 56900 58003=
48064 32970 01401 10383 20221 40051 333 58020=
48065 32970 00000 10380 20187=
48071 32960 03204 10325 20258 40086 333 58000=
48072 32960 02705 10330 20275=
48074 32960 02703 10390 20177 40068 333 58006=
48075 31457 23201 10350 20160 40036 70511 82300 333 56500 59004=
48077 32959 00000 10400 20196 40054 333 58009=
48078 32558 32301 10401 20223 40062 82801 333 56909 58011=
48080 32960 02211 10344 20240 40067 333 58002=
48085 32458 13206 10330 20244 40086 81800 333 56900 58009=
48087 32960 00000 10397 20214=
48092 32458 21301 10390 20233 40034 82100 333 56900 59010=
48093 32958 01401 10390 20267=
48094 32962 03203 10375 20270 40065 333 59008=
48095 32960 00000 10380 20240=
48096 32559 12304 10380 20202 40062 81100 333 56900 59002=
48097 32557 63201 10390 20213 40072 86800 333 56900 58011=
48099 32557 31202 10376 20255 40053 83800 333 56300 59007=
48101 32961 01403 10343 20270=
48103 32456 32202 10368 20258 40058 83800 333 56500 59013=
48107 32950 02702 10348 20240 40062 333 59009=
48108 32596 43207 10355 20265 40057 82406 333 56909 59015=
48109 NIL=
48110 31596 53204 10340 20240 40067 70522 81306 333 56909 59007=
48112 NIL=  





