



*-*-*


<!--
.style2 {
	font-family:"Courier New", Courier, monospace;
	font-size: 14px;
}
-->






SIBM20 VBRR 070300

AAXX 07034
48001 31456 43201 10195 20168 40139 72822 84800 333 56800 59001=
48004 32562 31301 10230 20198 83800 333 56560=
48008 22457 70000 10222 20173 40136 84970 333 56450 58032=
48010 22557 53601 10230 20198 40136 82830 333 56780 58015=
48018 22557 71402 10235 20191 40122 70344 84870 333 56320 58029=
48019 22960 03601 10242 20209 40133 333 58030=
48020 22350 40403 10240 20209 83830 333 56580=
48025 22420 30401 10250 20205 40144 84840 333 56550 58026=
48030 22256 12201 10170 20117 81200 333 56500=
48031 21260 50401 10200 20130 70544 85800 333 56400=
48033 32962 03601 10250 20205 40118 333 58033=
48034 32456 20000 10213 20143 81530 333 56550=
48035 31550 30000 10240 20174 40116 70522 82801 333 56569 58014=
48037 32957 03602 10253 20186 40127 333 58030=
48039 32859 50401 10265 20203 80002 333 56009=
48042 31956 02702 10275 20216 40120 70500 333 58016=
48043 32656 30000 10225 20163 81230 333 56990=
48045 32960 11402 10226 20097 80008 333 56009=
48048 32960 00401 10293 20196 40126 333 58032=
48051 32958 03202 10286 20230=
48052 32460 20402 10270 20211 82200 333 56900=
48053 32950 03604 10270 20211 40117 333 58013=
48055 31956 00000 10248 20150 40112 70511 333 58028=
48057 32958 03202 10240 20155=
48060 32930 00000 10243 20155 40128 70544 333 58026=
48062 31556 50402 10285 20260 40116 70511 84830 333 56690 58018=
48064 32960 03201 10295 20223 40111 333 58034=
48065 32960 03205 10294 20196=
48071 32458 43202 10292 20248 40113 84800 333 56900 58008=
48072 32459 40404 10300 20254 70322 83830 333 56690=
48074 31958 00403 10285 20184 40125 70500 333 58025=
48075 31957 02701 10270 20210 40110 70500 333 58009=
48077 32959 00000 10314 20203 40102 333 58007=
48078 32556 21801 10311 20237 40112 81501 333 56909 58014=
48080 32959 03202 10292 20259 40116 333 58001=
48085 32958 03204 10302 20239 40117 333 58016=
48087 32360 00402 10312 20225=
48092 31956 01302 10280 20242 40090 70500 333 58001=
48093 32658 20401 10305 20237 82800 333 56300=
48094 32960 03202 10304 20250 40106 333 58001=
48096 32457 71304 10280 20250 40112 83840 333 56990 58012=
48095 32958 00000 10300 20239=
48097 32557 52302 10285 20249 40108 84801 333 56909 58005=
48099 31450 33202 10302 20239 40105 70511 83800 333 56700 58000=
48101 32959 03602 10290 20248=
48103 32456 31301 10320 20248 40109 83800 333 56300 59001=
48107 31950 02701 10300 20239 40104 70144 333 58001=
48108 31596 43203 10295 20234 40114 70144 82406 333 56909 58003=
48109 32497 10401 10305 20237 40120 81500 333 56900 58005=
48110 31596 43204 10310 20260 40108 70522 82306 333 56809 59002=
48112 32597 80401 10302 20253 40106 83876 333 56199 58000=  





