



*-*-*


<!--
.style2 {
	font-family:"Courier New", Courier, monospace;
	font-size: 14px;
}
-->






SMBM01 VBRR 071200 RRA

AAXX 07124

48071 32956 03205 10300 20253 40076 333 10330 59005=

48075 31456 13201 10310 20170 40056 70511 81100 333

10350 56300 59010=

48077 32956 00000 10368 20171 40040 333 10404 59005=

48078 32556 20000 10366 20210 40051 81202 333 10405

56909 59003=

48080 32457 22702 10300 20239 40073 82800 333 10360

56900 59009=

48085 32956 03205 10294 20259 40071 333 10332 59006=

48095 32956 00402 10360 20264 333 10380=

48108 32596 53201 10310 20267 40070 82406 333 10372

56909 59005=

48109 32496 30000 10308 20254 40084 83900 333 10348

56900 59007=

48110 32596 83606 10310 20260 40067 81307 333 10345

56909 59009=

48112 32597 83203 10315 20254 40065 83876 333 10355

56799 59010=

48072 32956 03202 10295 20253 333 10335=

48087 32940 00000 10346 20240 333 10399=

48099 32440 32303 10340 20257 40050 83700 333 10380

56900 59011=

48101 32956 00000 10310 20267 333 10363=

48103 32440 22201 10323 20236 40059 82500 333 10388

56500 59016=

48094 32956 03203 10305 20245 40072 333 10385 58000=

48097 32557 42401 10340 20206 40082 84500 333 10394

56900 58019=

48065 32950 20000 10350 20202 80006 333 10385 56009=

48074 32457 10401 10370 20171 40062 81400 333 10392

56900 58012=

48092 31956 02301 10365 20293 40048 70500 333 10395

58007=

48093 32950 01401 10332 20258 333 10392=

48107 32940 22301 10300 20253 40066 80006 333 10368

56009 59010=  
SMBM01 VBRR 071200 RRA

AAXX 07124
48071 32956 03205 10300 20253 40076 333 10330 59005=
48075 31456 13201 10310 20170 40056 70511 81100 333
10350 56300 59010=
48077 32956 00000 10368 20171 40040 333 10404 59005=
48078 32556 20000 10366 20210 40051 81202 333 10405
56909 59003=
48080 32457 22702 10300 20239 40073 82800 333 10360
56900 59009=
48085 32956 03205 10294 20259 40071 333 10332 59006=
48095 32956 00402 10360 20264 333 10380=
48108 32596 53201 10310 20267 40070 82406 333 10372
56909 59005=
48109 32496 30000 10308 20254 40084 83900 333 10348
56900 59007=
48110 32596 83606 10310 20260 40067 81307 333 10345
56909 59009=
48112 32597 83203 10315 20254 40065 83876 333 10355
56799 59010=
48072 32956 03202 10295 20253 333 10335=
48087 32940 00000 10346 20240 333 10399=
48099 32440 32303 10340 20257 40050 83700 333 10380
56900 59011=
48101 32956 00000 10310 20267 333 10363=
48103 32440 22201 10323 20236 40059 82500 333 10388
56500 59016=
48094 32956 03203 10305 20245 40072 333 10385 58000=
48097 32557 42401 10340 20206 40082 84500 333 10394
56900 58019=
48065 32950 20000 10350 20202 80006 333 10385 56009=
48074 32457 10401 10370 20171 40062 81400 333 10392
56900 58012=
48092 31956 02301 10365 20293 40048 70500 333 10395
58007=
48093 32950 01401 10332 20258 333 10392=
48107 32940 22301 10300 20253 40066 80006 333 10368
56009 59010=  





