



*-*-*


<!--
.style2 {
	font-family:"Courier New", Courier, monospace;
	font-size: 14px;
}
-->






SMBM01 VBRR 071800

NIL=  
SMBM01 VBRR 071800 RRA

AAXX 07184

48008 31510 21801 10200 20168 40132 71044 82400 333 56400 59004=

48010 32502 20000 10155 20152 40141 80031 333 56056 59015=

48018 32520 50000 10165 20144 40143 83870 333 56560 59007=

48025 32406 52701 10190 20159 40151 84840 333 56590 59004=

48042 32550 10000 10186 20139 40132 81400 333 56900 58005=

48053 32940 20000 10160 20123 40132 80006 333 56009 59017=

48057 32956 21401 10130 20086 80001 333 56009=

48060 32910 20000 10110 20091 40178 80070 333 56090 59002=

48062 31540 73204 10202 20190 40155 71022 84870 333 56790 58008=

48071 32460 13203 10235 20191 40140 81800 333 56900 59010=

48078 32940 30000 10202 20168 40153 80031 333 56099 58004=

48080 32450 40000 10195 20159 40157 82870 333 56990 58005=

48094 32450 20000 10202 20150 40145 82500 333 56990 59001=

48097 32956 02301 10230 20198 40148 333 58002=

48099 32440 30000 10230 20198 40132 83800 333 56900 59008=

48108 31595 51401 10220 20185 40145 71022 82407 333 56909 59005=

48109 32995 10000 10240 20191 40134 70222 80001 333 56009 59002=

48110 31994 11302 10235 20203 40145 70511 80005 333 56009 59002=

48112 32597 70402 10262 20191 40124 83876 333 56199 59004=  





