



*-*-*


<!--
.style2 {
	font-family:"Courier New", Courier, monospace;
	font-size: 14px;
}
-->






SMBM01 VBRR 070000

AAXX 07004

48001 NIL=

48004 NIL=

48008 31550 13601 10179 20155 40121 71044 81400 333 20164 56500

 59004=

48010 32930 00000 10135 20132 40117 333 20130 59004=

48018 31956 02201 10165 20135 40106 74244 333 20150 58002=

48019 32940 00000 10150 20150 40107 333 20148 59007=

48020 NIL=

48025 31410 12202 10170 20135 40117 70500 81500 333 20164 56900

 59005=

48030 32950 02204 10050 20025 333 20038=

48031 31960 03602 10114 20045 70500 333 20090=

48033 32960 03301 10200 20150 40100 333 20180 58021=

48034 32956 00000 10100 20079 333 20090=

48035 31902 00000 10106 20091 40138 74244 333 20100 58009=

48037 31930 00000 10185 20129 40123 70544 333 20175 58026=

48039 31440 20000 10202 20129 70511 81402 333 20201 56909=

48042 32956 00000 10205 20155 40093 333 20195 59012=

48043 32920 00000 10125 20086 333 20092=

48045 NIL=

48048 32940 00000 10176 20147 40100 333 20171 59009=

48051 32956 00404 10174 20120 333 20146=

48052 32950 00000 10200 20150 333 20190=

48053 32950 00000 10190 20159 40104 333 20189 59001=

48055 31920 00000 10099 20091 40153 71000 333 20094 59010=

48057 32950 00000 10140 20124 333 20130=

48060 32920 00000 10142 20124 40154 333 20125 59000=

48062 31950 00000 10190 20160 40108 333 20160 59011=

48064 32950 01401 10203 20168 40070 333 20160 59009=

48065 32950 00000 10200 20168 333 20185=

48071 32940 03205 10233 20181 40110 333 20220 59006=

48072 NIL=

48074 31950 01401 10225 20173 40098 70500 333 20212 59012=

48075 31956 00000 10150 20150 40139 71044 333 20135 59022=

48077 32950 00000 10220 20205 40094 333 20198 59009=

48078 32956 11401 10223 20205 40101 80001 333 20200 56009 59016=

48080 31950 00000 10161 20144 40108 74044 333 20148 59016=

48085 31950 10000 10184 20180 40101 74244 80006 333 20182 56009

 59010=

48087 NIL=

48092 31520 10000 10190 20190 40081 71011 81500 333 20167 56900

 59005=

48093 32950 02301 10204 20198 333 20203=

48094 32956 00000 10210 20200 40105 333 20175 59008=

48095 NIL=

48096 32956 02305 10210 20195 40106 333 20196 59009=

48097 32956 22301 10215 20185 40109 80001 333 20200 56009 59011=

48099 31440 30901 10226 20198 40100 70244 81501 333 20212 56909

 58000=

48101 32950 10000 10198 20185 80001 333 20170 56009=

48103 32530 20401 10222 20205 40106 82500 333 20209 56100 59001=

48107 31330 40000 10220 20205 40105 74144 84900 333 20212 56300

 59004=

48108 31/91 90000 10230 20222 40110 74144 333 20215 59010=

48109 32496 20000 10233 20209 40118 333 20225 59010=

48110 31596 81803 10250 20241 40107 70522 84507 333 20250 56409

 59008=

48112 32597 70401 10265 20226 40112 83876 333 20219 56699 59002=

48047 32940 00000 10190 20139 333 20180=

48067 32956 00000 10190 20139 333 20166=  
SMBM01 VBRR 070000 RRA

AAXX 07004

48062 31950 00000 10190 20160 40108 333 20160 59011=  





