



*-*-*


<!--
.style2 {
	font-family:"Courier New", Courier, monospace;
	font-size: 14px;
}
-->






SIBM20 VBRR 070900

AAXX 07094

48001 32440 60000 10290 20196 40066 83970 333 56330

58025=

48004 32460 50402 10335 20225 85900 333 56500=

48008 32558 42701 10380 20159 40041 81431 333 56566

58002=

48010 21557 83203 10250 20205 40055 79696 8696/ 333

56559 58025 00033=

48018 32560 11402 10390 20177 40028 80001 333 56009

58003=

48019 32560 12301 10384 20221 40036 80001 333 56006

59002=

48020 32956 03602 10390 20253=

48025 32440 43203 10397 20196 40033 70444 82540 333

56990 58000=

48035 31540 33204 10357 20235 40009 70500 83800 333

56700 58009=

48037 32560 11801 10420 20202 40022 81100 333 56600

58002=

48042 32558 11802 10420 20226 40025 81200 333 56900

58005=

48045 31558 71403 10310 20146 70444 86340 333 56590=

48048 32560 61801 10425 20274 40026 85950 333 56490

58004=

48051 32559 31306 10360 20260 82230 333 56790=

48053 31556 41802 10380 20255 40036 71799 84900 333

56500 58008=

48060 32450 10000 10355 20168 40010 81100 333 56500

59008=

48062 32556 62710 10340 20300 40071 84830 333 56690

58010=

48071 32460 23203 10348 20280 40078 82200 333 56900

58010=

48075 31457 61803 10300 20185 40050 71722 83971 333

56599 58000=

48077 32559 52302 10370 20246 40033 84901 333 56909

58002=

48078 32557 41401 10371 20246 40055 83301 333 56509

58014=

48080 32460 22206 10350 20240 40055 82200 333 56900

58010=

48085 32458 63205 10334 20258 40073 84970 333 56990

58013=

48095 32560 32202 10380 20255 83800 333 56900=

48108 32596 73205 10320 20248 40082 84366 333 56699

58017=

48109 NIL=

48110 31596 73202 10340 20257 40080 70299 83306 333

56909 58003=

48112 NIL=

48030 32356 22203 10267 20085 81240 333 56560=

48072 32462 23206 10345 20280 82300 333 56500=

48087 32560 42301 10390 20233 83840 333 56990=

48099 32558 42304 10372 20246 40052 83901 333 56509

58003=

48101 32560 21802 10340 20257 81301 333 56609=

48103 32457 33202 10357 20249 40061 83800 333 56500

58006=

48057 32458 52203 10300 20149 85300 333 56500=

48094 32459 43202 10357 20250 40069 84900 333 56900

58011=

48097 32557 72302 10380 20221 40065 87800 333 56900

58003=

48031 32958 00901 10305 20098 70500=

48033 32563 21801 10400 20269 40019 82500 333 56900

59017=

48034 32458 31802 10333 20170 83800 333 56500=

48039 32460 20401 10393 20233 82100 333 56500=

48043 32060 03205 10330 20191=

48052 32468 33202 10420 20240 83800 333 56900=

48055 32556 42304 10355 20167 40002 84800 333 56500

59017=

48064 31468 71401 10388 20298 40019 71799 85970 333

56440 58010=

48065 21460 82206 10373 20246 75095 8697/ 333 5699/

=

48074 32960 00901 10371 20246 40048 333 58005=

48092 32458 42302 10380 20221 40038 82800 333 56900

58010=

48093 32658 33201 10374 20246 83800 333 56500=

48107 32350 22302 10370 20246 40069 82900 333 56500

58003=  





