



*-*-*


<!--
.style2 {
	font-family:"Courier New", Courier, monospace;
	font-size: 14px;
}
-->






SIBM20 VBRR 070900

AAXX 07094

48001 NIL=

48004 32560 22202 10316 20163 82800 333 56900=

48008 32558 31401 10330 20076 40087 82230 333 56390

59005=

48010 32060 02301 10330 20172 40089 333 59011=

48018 32560 21402 10335 20125 40081 82800 333 56900

58008=

48019 32960 00402 10324 20140 40086 333 59001=

48020 NIL=

48025 31456 33601 10340 20145 40078 70544 82540 333

56440 59013=

48035 31940 02704 10312 20092 40039 70500 333 59014=

48037 31956 03601 10367 20125 40067 70544 333 59026=

48042 32957 02201 10364 20156 40070 333 59007=

48045 32558 01805 10274 20057 333=

48048 32962 00401 10370 20145 40112 333 59003=

48051 32959 03602 10350 20110 333=

48053 31950 03602 10370 20190 40060 70500 333 59026=

48060 32950 02202 10330 20126 40039 333 59018=

48062 32958 02711 10315 20170 40097 333 59015=

48071 32960 03203 10300 20185 40100 333 59014=

48075 31557 12202 10340 20130 40056 70511 81100 333

56700 58017=

48077 32959 00000 10380 20159 40068 333 59000=

48078 32958 11403 10376 20121 40077 80001 333 56009

58005=

48080 32961 02204 10330 20234 40090 333 59001=

48085 32958 03205 10300 20207 40093 333 59014=

48095 32960 02202 10370 20227 333=

48108 32596 63208 10340 20232 40099 83866 333 56789

58006=

48109 32997 00401 10304 20223 40114 333 59002=

48110 21596 51303 10345 20253 40094 70255 83306 333

56409 58001=

48112 NIL=

48030 32956 02204 10238 20034 333=

48072 32960 02705 10295 20185 333=

48087 32960 00401 10350 20158 333=

48099 32458 32302 10370 20227 40083 83300 333 56500

58004=

48101 32961 03201 10333 20201 333=

48103 32556 12201 10339 20240 40091 81500 333 56500

58010=

48057 32458 11403 10290 20140 81500 333 56400=

48094 32961 03202 10340 20230 40091 333 59010=

48097 32557 23104 10350 20157 40094 82400 333 56900

58006=

48031 31960 01801 10255 20024 70500 333=

48033 32963 00000 10360 20264 40072 333 59012=

48034 32458 11802 10293 20092 81500 333 56500=

48039 32959 32201 10360 20132 80002 333 56009=

48043 32058 01806 10285 20092 333=

48052 32970 02202 10390 20177 333=

48055 31956 02308 10336 20116 40025 70500 333 59009=

48064 32970 01401 10390 20253 40058 333 59011=

48065 32970 02201 10385 20187 333=

48074 32961 01404 10383 20203 40068 333 59011=

48092 31958 01803 10350 20182 40064 70500 333 59004=

48093 32958 01801 10356 20177 333=

48107 32350 22302 10320 20236 40092 82900 333 56500

58007=  
SIBM20 VBRR 070900

AAXX 07094
48001 NIL=
48004 32560 22202 10316 20163 82800 333 56900=
48008 32558 31401 10330 20076 40087 82230 333 56390 59005=
48010 32060 02301 10330 20172 40089 333 59011=
48018 32560 21402 10335 20125 40081 82800 333 56900 58008=
48019 32960 00402 10324 20140 40086 333 59001=
48020 NIL=
48025 31456 33601 10340 20145 40078 70544 82540 333 56440 59013=
48030 32956 02204 10238 20034 333=
48031 31960 01801 10255 20024 70500 333=
48033 32963 00000 10360 20264 40072 333 59012=
48034 32458 11802 10293 20092 81500 333 56500=
48035 31940 02704 10312 20092 40039 70500 333 59014=
48037 31956 03601 10367 20125 40067 70544 333 59026=
48039 32959 32201 10360 20132 80002 333 56009=
48042 32957 02201 10364 20156 40070 333 59007=
48043 32058 01806 10285 20092 333=
48045 32558 01805 10274 20057 333=
48048 32962 00401 10370 20145 40112 333 59003=
48051 32959 03602 10350 20110 333=
48052 32970 02202 10390 20177 333=
48053 31950 03602 10370 20190 40060 70500 333 59026=
48055 31956 02308 10336 20116 40025 70500 333 59009=
48057 32458 11403 10290 20140 81500 333 56400=
48060 32950 02202 10330 20126 40039 333 59018=
48062 32958 02711 10315 20170 40097 333 59015=
48064 32970 01401 10390 20253 40058 333 59011=
48065 32970 02201 10385 20187 333=
48071 32960 03203 10300 20185 40100 333 59014=
48072 32960 02705 10295 20185 333=
48074 32961 01404 10383 20203 40068 333 59011=
48075 31557 12202 10340 20130 40056 70511 81100 333 56700 58017=
48077 32959 00000 10380 20159 40068 333 59000=
48078 32958 11403 10376 20121 40077 80001 333 56009 58005=
48080 32961 02204 10330 20234 40090 333 59001=
48085 32958 03205 10300 20207 40093 333 59014=
48087 32960 00401 10350 20158 333=
48092 31958 01803 10350 20182 40064 70500 333 59004=
48093 32958 01801 10356 20177 333=
48094 32961 03202 10340 20230 40091 333 59010=
48095 32960 02202 10370 20227 333=
48096 32058 02808 10350 20143 40088 333 58003=
48097 32557 23104 10350 20157 40094 82400 333 56900 58006=
48099 32458 32302 10370 20227 40083 83300 333 56500 58004=
48101 32961 03201 10333 20201 333=
48103 32556 12201 10339 20240 40091 81500 333 56500 58010=
48107 32350 22302 10320 20236 40092 82900 333 56500 58007=
48108 32596 63208 10340 20232 40099 83866 333 56789 58006=
48109 32997 00401 10304 20223 40114 333 59002=
48110 21596 51303 10345 20253 40094 70255 83306 333 56409 58001=
48112 NIL=  





