



*-*-*


<!--
.style2 {
	font-family:"Courier New", Courier, monospace;
	font-size: 14px;
}
-->






SMBM01 VBRR 070600

AAXX 07064

48001 NIL=

48004 NIL=

48008 NIL=

48010 NIL=

48018 NIL=

48019 NIL=

48020 NIL=

48025 NIL=

48035 NIL=

48037 NIL=

48042 NIL=

48045 NIL=

48048 NIL=

48051 32560 23604 10304 20240 70311 82200 333 56900=

48053 NIL=

48060 NIL=

48062 32458 20902 10315 20280 40128 82200 333 56900

58013=

48071 32960 03203 10300 20253 40124 333 58010=

48075 32458 51401 10290 20196 40109 70222 84830 333

56590 58005=

48077 32559 20401 10324 20236 40122 81201 333 56909

58018=

48078 32560 22703 10321 20242 40122 81201 333 56909

58016=

48080 32961 01302 10326 20258 40120 333 58006=

48085 32458 13203 10322 20265 40116 81100 333 56800

58013=

48095 32560 30402 10315 20254 70300 80002 333 56009=

48108 32596 70503 10330 20244 40108 84336 333 56299

58015=

48109 NIL=

48110 32596 83202 10315 20274 40107 84357 333 56999

58011=

48112 32597 83202 10293 20259 40101 70222 83876 333

56799 59008=

48030 NIL=

48072 32460 13202 10315 20265 70111 81200 333 56900=

48087 32960 10402 10325 20236 70110 80001 333 56009=

48099 32456 53201 10344 20257 40104 84901 333 56909

58011=

48101 32960 33602 10330 20244 70311 80005 333 56009=

48103 32457 40403 10352 20237 40106 70211 84800 333

56100 58016=

48057 NIL=

48094 32460 20402 10342 20240 40116 70211 81501 333

56909 58013=

48097 32957 40805 10330 20224 40115 80006 333 56009

58000=

48031 NIL=

48033 NIL=

48034 NIL=

48039 NIL=

48043 NIL=

48052 NIL=

48055 NIL=

48064 NIL=

48065 NIL=

48074 NIL=

48092 32557 30402 10330 20244 40107 81431 333 56999

58022=

48093 32958 10401 10346 20240 80001 333 56009=

48107 32350 63201 10330 20256 40104 84970 333 56110

58014=

48096 32959 30603 10320 20224 40116 70222 80002 333

56009 58010=  





