



*-*-*


<!--
.style2 {
	font-family:"Courier New", Courier, monospace;
	font-size: 14px;
}
-->






SIBM20 VBRR 080900

AAXX 08094
48001 21450 80000 10230 20181 40116 72055 8572/ 333 56120 58007=
48004 22560 30402 10292 20196 83900 333 56500=
48008 32557 30402 10294 20179 40086 82430 333 56110 59006=
48010 32560 41802 10330 20212 40066 82401 333 56506 59022=
48018 32560 51402 10360 20195 40064 83870 333 56320 59027=
48019 32460 30402 10320 20215 40074 80030 333 56040 59017=
48020 32460 30402 10360 20264 82201 333 56509=
48025 32456 43201 10372 20190 40069 83840 333 56560 59019=
48030 32256 42204 10233 20045 84800 333 56500=
48031 31260 22701 10260 20102 70544 82800 333 56900=
48033 32563 20000 10380 20203 40067 82500 333 56900 59009=
48034 32457 52302 10294 20140 85800 333 56500=
48035 31540 50000 10331 20234 40036 70522 83860 333 56590 59003=
48037 32559 53601 10374 20207 40056 83830 333 56660 59045=
48039 32460 62201 10394 20198 84850 333 56550=
48042 32558 42702 10402 20176 40055 82950 333 56960 59011=
48043 32059 33207 10310 20169 80030 333 56090=
48045 32560 70404 10270 20113 87300 333 56600=
48048 32560 63201 10415 20226 40056 85950 333 56490 59022=
48051 32559 53103 10373 20170 70322 84830 333 56690=
48052 32470 30401 10432 20194 83800 333 56909=
48053 32556 33602 10410 20278 40046 83800 333 56700 59025=
48055 31656 62705 10346 20193 40018 70522 85330 333 56550 59002=
48057 32460 62403 10290 20092 86300 333 56600=
48060 32450 22203 10320 20184 40045 82300 333 56600 58009=
48062 32958 02709 10340 20290 40079 333 59009=
48064 32970 01401 10424 20240 40027 333 59023=
48065 32970 00000 10429 20177=
48071 32960 03204 10338 20270 40079 333 59007=
48072 32459 23204 10340 20288 70122 82800 333 56900=
48074 32562 11403 10410 20189 40060 81100 333 56900 59008=
48075 31557 61401 10355 20180 40035 70522 86300 333 56500 59001=
48077 32559 32301 10414 20189 40042 82901 333 56909 59011=
48078 32558 30901 10406 20223 40054 82201 333 56909 59007=
48080 32960 22208 10363 20264 40063 80006 333 56009 59004=
48085 32458 13205 10332 20248 40075 81300 333 56900 59011=
48087 32960 02301 10410 20230=
48092 32458 30502 10405 20235 40046 70322 83200 333 56900 58011=
48093 32658 43201 10385 20300 70311 84800 333 56500=
48094 32562 23203 10390 20290 40063 82900 333 56900 59002=
48095 32460 10401 10390 20233 70300 81200 333 56900=
48097 32557 22303 10380 20248 40063 82800 333 56900 59008=
48099 32457 62304 10382 20255 40053 85901 333 56509 58000=
48101 32660 31403 10336 20257 70311 83300 333 56500=
48103 32457 31402 10366 20227 40059 83800 333 56300 58001=
48107 32950 03202 10332 20258 40074 333 58012=
48108 31596 72306 10370 20266 40070 71799 84966 333 56569 58013=
48109 NIL=
48110 31596 53203 10360 20249 40073 70522 82306 333 56909 58006=
48112 32598 60403 10372 20274 40076 70122 82216 333 56199 58008=  





