



*-*-*


<!--
.style2 {
	font-family:"Courier New", Courier, monospace;
	font-size: 14px;
}
-->






SIBM20 VBRR 080900

AAXX 08094

48001 21440 80901 10260 20255 40030 75455 8572/ 333

56439 59012=

48004 22560 53201 10313 20252 85900 333 56500=

48008 21557 60000 10310 20267 40026 70255 83970 333

56450 59001=

48010 32557 80000 10285 20268 40031 84831 333 56444

58000=

48018 32558 52301 10330 20258 40018 83830 333 56450

59013=

48019 32460 52301 10330 20253 40010 83630 333 56860

59015=

48020 21256 53602 10305 20254 75055 85800 333 56400=

48025 22240 81401 10308 20267 40021 8477/ 333 56449

58004=

48035 32560 60000 10297 20223 49994 84960 333 56560

59012=

48037 32560 51401 10273 20270 40026 83130 333 56339

58014=

48042 22558 71302 10277 20268 40002 84956 333 56449

59007=

48045 21130 91802 10231 20214 74564 89/// 333 56599=

48048 21560 73601 10282 20268 40017 72995 85950 333

56490 58005=

48051 32559 62302 10323 20270 70222 84930 333 56490=

48053 32456 73602 10330 20258 40008 84956 333 56499

59003=

48060 32450 50000 10298 20223 49998 83830 333 56560

58008=

48062 32458 70901 10300 20280 40021 70222 84932 333

56999 58004=

48071 32460 62303 10310 20254 40022 84970 333 56990

58001=

48075 22558 50000 10290 20230 40007 85300 333 56500

59007=

48077 32559 70000 10317 20265 40015 85931 333 56499

59004=

48078 32559 61802 10322 20265 40024 85301 333 56409

58007=

48080 32460 52207 10320 20265 40018 83430 333 56590

59011=

48085 32458 62705 10308 20267 40023 84870 333 56690

59003=

48095 32458 62202 10334 20275 70322 83940 333 56990=

48108 21495 82303 10290 20254 40057 70255 84377 333

56599 59001=

48109 21497 72305 10260 20246 40048 75065 85970 333

10293 56990 58001=

48110 21496 82701 10265 20251 40060 75165 86377 333

56999 59000=

48112 NIL=

48030 32250 80402 10220 20205 8684/ 333 56189=

48072 32460 40402 10310 20267 70122 83830 333 56590=

48087 32560 62301 10324 20265 83371 333 56499=

48099 21440 71301 10285 20250 40040 70155 85930 333

56390 58010=

48101 32559 62302 10310 20267 70322 85330 333 56590=

48103 32457 62202 10308 20254 40031 84770 333 56550

59001=

48057 21458 71301 10230 20214 76365 85970 333 56990=

48094 32460 62202 10290 20260 40030 70322 84940 333

56590 58000=

48097 32557 62402 10320 20292 40029 85801 333 56909

59009=

48031 31/07 91801 10225 20198 74744 89/// 333 56999=

48033 21562 70000 10280 20268 40009 70155 86930 333

56490 59008=

48034 21456 80000 10238 20226 75055 8637/ 333 56599=

48039 22460 61401 10300 20266 83902 333 56404=

48043 32556 73202 10240 20226 8587/ 333 56999=

48052 32465 60402 10320 20265 85920 333 56990=

48055 22558 52304 10303 20223 49978 85300 333 56500

59044=

48064 32565 33601 10342 20270 49999 82801 333 56409

58001=

48065 32558 32201 10355 20264 82801 333 56909=

48074 32461 61802 10330 20275 40014 84361 333 56449

58000=

48092 32457 61301 10310 20267 40012 85830 333 56990

58001=

48093 21456 61401 10289 20259 75065 8697/ 333 56399=

48107 32350 62301 10298 20239 40046 84970 333 56550

59005=  





