



*-*-*


<!--
.style2 {
	font-family:"Courier New", Courier, monospace;
	font-size: 14px;
}
-->






SIBM20 VBRR 080900

AAXX 08094

48001 NIL=

48004 NIL=

48008 NIL=

48010 NIL=

48018 NIL=

48019 NIL=

48020 NIL=

48025 NIL=

48035 NIL=

48037 NIL=

48042 NIL=

48045 NIL=

48048 NIL=

48051 32559 23601 10290 20200 82200 333 56700=

48053 NIL=

48060 NIL=

48062 32458 22704 10300 20250 40123 82500 333 56900

59007=

48071 32960 03203 10282 20203 40125 333 58001=

48075 32558 33201 10270 20154 40105 83200 333 56300

59024=

48077 32559 20000 10310 20203 40116 81201 333 56909

59005=

48078 32560 40401 10312 20196 40120 83801 333 56509

59006=

48080 32961 02203 10302 20185 40119 333 58001=

48085 32458 43204 10308 20225 40113 83806 333 56609

58002=

48095 32460 10000 10310 20237 81200 333 56900=

48108 32596 53201 10345 20222 40105 83806 333 56609

59005=

48109 32497 40901 10312 20267 40113 84900 333 56900

59018=

48110 31596 23203 10320 20248 40101 70511 81305 333

56909 58000=

48112 32597 80413 10307 20254 40092 84876 333 56199

59002=

48030 NIL=

48072 32960 00401 10310 20254 333=

48087 32558 50401 10328 20224 83841 333 56999=

48099 32560 32302 10343 20225 40107 82801 333 56509

58000=

48101 32560 43201 10322 20248 83201 333 56209=

48103 32456 30403 10340 20206 40103 83800 333 56100

59009=

48057 NIL=

48094 32460 30401 10335 20235 40116 81140 333 56990

58002=

48097 32557 61302 10320 20215 40125 85310 333 56990

58014=

48031 NIL=

48033 NIL=

48034 NIL=

48039 NIL=

48043 NIL=

48052 NIL=

48055 NIL=

48064 NIL=

48065 NIL=

48074 NIL=

48092 32458 43603 10320 20236 40087 84800 333 56800

59005=

48093 32658 40401 10330 20244 83801 333 56109=

48107 32350 20401 10330 20234 40104 82900 333 56200

59000=

48096 32558 33004 10320 20215 40115 83200 333 56600

58010=  
SIBM20 VBRR 080900 RRA

AAXX 08094

48001 32450 60000 10205 20195 40144 82270 333 56220

58000=

48004 32562 41301 10230 20163 84900 333 56500=

48008 32557 42701 10240 20174 40135 82830 333 56660

59019=

48010 32560 60000 10250 20186 40134 83830 333 56550

59001=

48018 32559 41401 10240 20155 40136 83860 333 56330

59021=

48019 32960 40401 10230 20163 40131 80030 333 56050

59014=

48020 32356 23602 10250 20186 82200 333 56400=

48025 32440 60401 10250 20167 40132 84800 333 56650

59014=

48035 31558 82202 10211 20160 40108 70522 8597/ 333

56459 59017=

48037 32558 40000 10278 20184 40104 82839 333 56779

59036=

48042 32558 33601 10283 20158 40118 83800 333 56900

59010=

48045 31450 71406 10174 20154 70144 87800 333 56300=

48048 32560 43601 10295 20166 40125 84800 333 56400

59006=

48053 32556 33601 10290 20179 40121 82506 333 56609

59010=

48060 32440 50000 10230 20181 40128 83830 333 56550

59011=

48030 32150 72202 10142 20082 86940 333 56560=

48057 32457 52203 10220 20087 85300 333 56500=

48031 32258 80401 10165 20123 888// 333 56499=

48033 32563 63601 10260 20229 40119 86900 333 56400

59010=

48034 32456 61802 10196 20119 86300 333 56500=

48039 32458 43201 10285 20184 82102 333 56509=

48043 32556 60000 10200 20150 86200 333 56500=

48052 32958 02701 10330 20223 333=

48055 32556 43205 10258 20138 40093 84800 333 56500

59022=

48064 32960 01401 10258 20215 40106 333 59011=

48065 32960 01401 10293 20179 333=

48074 32458 31402 10310 20189 40114 83800 333 56400

59009=  





