



*-*-*


<!--
.style2 {
	font-family:"Courier New", Courier, monospace;
	font-size: 14px;
}
-->






SIBM20 VBRR 080900

AAXX 08094

48001 NIL=

48004 32562 40401 10257 20138 84900 333 56500=

48008 32558 30401 10266 20113 40113 82430 333 56560

59002=

48010 32058 03601 10262 20179 40112 333 56003=

48018 32560 11402 10285 20184 40110 70311 81100 333

56900 59004=

48019 32460 20403 10264 20160 40103 81240 333 56450

59005=

48020 NIL=

48025 32558 43601 10265 20160 40110 83840 333 56490

59011=

48035 31560 50000 10227 20168 40094 70596 84960 333

56590 58012=

48037 32562 11801 10300 20166 40087 81100 333 56400

59048=

48042 32558 11801 10320 20184 40088 81200 333 56400

59007=

48045 32560 41805 10215 20136 84800 333 56500=

48048 32962 02201 10320 20163 40091 333 59007=

48051 32559 13101 10281 20160 70311 81200 333 56900=

48053 32456 53602 10310 20203 40068 83850 333 56599

59018=

48060 31430 71401 10232 20163 40123 74222 85930 333

56560 58031=

48062 31956 02705 10275 20200 40111 333 58002=

48071 31960 03203 10260 20179 40115 70500 333 58007=

48075 21458 71802 10220 20210 40126 70296 85970 333

56590 58044=

48077 32559 42302 10330 20151 40084 83801 333 56909

59010=

48078 21440 81801 10273 20197 40114 76165 8572/ 333

56499 58016=

48080 32960 23205 10290 20259 40104 80006 333 56009

58002=

48085 32958 12703 10284 20203 40143 80006 333 56009

58000=

48095 32458 80000 10320 20236 70322 83970 333 56990=

48108 32594 71404 10300 20223 40110 83876 333 56299

58015=

48109 NIL=

48110 32496 83205 10335 20241 40100 85357 333 56299

58006=

48112 NIL=

48030 32256 50402 10143 20107 85800 333 56100=

48072 32459 52302 10270 20240 70322 84830 333 56190=

48087 NIL=

48099 32660 82301 10296 20239 40106 72055 86930 333

56590 58014=

48101 32559 63201 10298 20207 70322 84831 333 56399=

48103 32456 80401 10307 20225 40103 85870 333 56110

58012=

48057 32457 61404 10210 20160 86900 333 56900=

48094 32560 33602 10305 20190 40109 82101 333 56909

58005=

48097 32457 72401 10290 20196 40118 70252 87800 333

56400 58014=

48031 32257 73601 10150 20111 87800 333 56400=

48033 32963 01801 10310 20169 40083 333 59002=

48034 32456 61802 10232 20124 86300 333 56500=

48039 32460 21401 10300 20166 82100 333 56300=

48043 32656 53205 10230 20143 84230 333 56590=

48052 32468 23201 10343 20164 82200 333 56900=

48055 31556 71406 10251 20177 40089 70522 85930 333

56450 58014=

48064 32970 01401 10276 20203 40077 333 58006=

48065 32970 00000 10319 20163 333=

48074 32560 32303 10310 20189 40093 81151 333 56339

58005=

48092 31456 82302 10295 20190 40087 70522 84676 333

56599 58011=

48093 21556 71401 10272 20211 70255 86340 333 56590=

48107 21330 80901 10264 20229 40102 76066 8597/ 333

5622/ 58011=  
SIBM20 VBRR 080900

AAXX 08094 

48001 NIL=

48004 32562 40401 10257 20138 84900 333 56500=

48008 32558 30401 10266 20113 40113 82430 333 56560 59002=

48010 32058 03601 10262 20179 40112 333 56003=

48018 32560 11402 10285 20184 40110 70311 81100 333 56900 59004=

48019 32460 20403 10264 20160 40103 81240 333 56450 59005=

48020 NIL=

48025 32558 43601 10265 20160 40110 83840 333 56490 59011=

48030 32256 50402 10143 20107 85800 333 56100=

48031 32257 73601 10150 20111 87800 333 56400=

48033 32963 01801 10310 20169 40083 333 59002=

48034 32456 61802 10232 20124 86300 333 56500=

48035 31560 50000 10227 20168 40094 70596 84960 333 56590 58012=

48037 32562 11801 10300 20166 40087 81100 333 56400 59048=

48039 32460 21401 10300 20166 82100 333 56300=

48042 32558 11801 10320 20184 40088 81200 333 56400 59007=

48043 32656 53205 10230 20143 84230 333 56590=

48045 32560 41805 10215 20136 84800 333 56500=

48048 32962 02201 10320 20163 40091 333 59007=

48051 32559 13101 10281 20160 70311 81200 333 56900=

48052 32468 23201 10343 20164 82200 333 56900=

48053 32456 53602 10310 20203 40068 83850 333 56599 59018=

48055 31556 71406 10251 20177 40089 70522 85930 333 56450 58014=

48057 32457 61404 10210 20160 86900 333 56900=

48060 31430 71401 10232 20163 40123 74222 85930 333 56560 58031=

48062 31956 02705 10275 20200 40111 333 58002=

48064 32970 01401 10276 20203 40077 333 58006=

48065 32970 00000 10319 20163 333=

48071 31960 03203 10260 20179 40115 70500 333 58007=

48072 32459 52302 10270 20240 70322 84830 333 56190=

48074 32560 32303 10310 20189 40093 81151 333 56339 58005=

48075 21458 71802 10220 20210 40126 70296 85970 333 56590 58044=

48077 32559 42302 10330 20151 40084 83801 333 56909 59010=

48078 21440 81801 10273 20197 40114 76165 8572/ 333 56499 58016=

48080 32960 23205 10290 20259 40104 80006 333 56009 58002=

48085 32958 12703 10284 20203 40143 80006 333 56009 58000=

48087 NIL=

48092 31456 82302 10295 20190 40087 70522 84676 333 56599 58011=

48093 21556 71401 10272 20211 70255 86340 333 56590=

48094 32560 33602 10305 20190 40109 82101 333 56909 58005=

48095 32458 80000 10320 20236 70322 83970 333 56990=

48097 32457 72401 10290 20196 40118 70252 87800 333 56400 58014=

48099 32660 82301 10296 20239 40106 72055 86930 333 56590 58014=

48101 32559 63201 10298 20207 70322 84831 333 56399=

48103 32456 80401 10307 20225 40103 85870 333 56110 58012=

48107 21330 80901 10264 20229 40102 76066 8597/ 333 5622/ 58011=

48108 32594 71404 10300 20223 40110 83876 333 56299 58015=

48109 NIL=

48110 32496 83205 10335 20241 40100 85357 333 56299 58006=

48112 NIL=  





