



*-*-*


<!--
.style2 {
	font-family:"Courier New", Courier, monospace;
	font-size: 14px;
}
-->






SMBM01 VBRR 081200

AAXX 08124

48001 NIL=

48004 32560 30000 10225 20181 83300 333 10266 56500=

48008 32550 40000 10230 20148 40109 82430 333 10270 56560 59009=

48010 32020 00000 10230 20198 40114 333 10270 59004=

48018 32558 40000 10240 20174 40112 70322 82870 333 10290 56550 59010=

48019 32440 20000 10223 20185 40101 80040 333 10268 56040 59002=

48020 31230 20000 10235 20191 70522 82400 333 10285 56900=

48025 32256 33201 10249 20150 40121 83800 333 10270 56800 58004=

48030 32510 20402 10123 20102 82800 333 10186 56100=

48031 32257 72201 10135 20107 83700 333 10165 56400=

48033 32562 10000 10280 20220 40102 81500 333 10320 56900 58004=

48034 32456 50000 10190 20139 85500 333 10238 56500=

48035 21510 52202 10197 20168 40091 70522 84960 333 10245 56590 59004=

48037 32560 20000 10273 20172 40086 82200 333 10315 56400 59010=

48039 32460 30000 10271 20191 83800 333 10312 56500=

48042 32557 10000 10290 20196 40094 81400 333 10325 56900 59005=

48043 32050 00000 10190 20139 333 10243=

48045 32557 21403 10179 20108 82800 333 10223 56500=

48048 32950 00401 10283 20203 40088 333 10325 59008=

48051 32558 20000 10260 20140 70311 82800 333 10250 56900=

48052 32450 32201 10315 20200 83800 333 10352 56900=

48053 32450 70000 10270 20211 40096 84951 333 10310 56559 58003=

48055 32556 62308 10214 20180 40105 86900 333 10266 56400 58006=

48057 32439 61403 10177 20165 84950 333 10240 56990=

48060 21910 90000 10192 20175 40147 76265 333 10253 58034=

48062 32550 30000 10240 20190 40115 70522 82530 333 10280 56490 58007=

48064 32550 30901 10260 20179 40088 82801 333 10285 56409 58008=

48065 32950 10000 10270 20191 80001 333 10324 56009=

48071 31956 13201 10240 20174 40115 70500 80001 333 10265 56009 58010=

48072 32456 13201 10230 20214 70122 81200 333 10290 56900=

48074 32456 80901 10270 20191 40106 8687/ 333 10310 56449 58004=

48075 22456 71401 10200 20200 40125 85860 333 10265 56590 59004=

48077 32556 31301 10274 20172 40089 82801 333 10332 56909 59003=

48078 21550 81401 10229 20206 40113 70265 8557/ 333 10276 56499 58016=

48080 32456 33201 10250 20219 40129 82501 333 10305 56909 58018=

48085 32456 42704 10250 20205 40112 83806 333 10286 56609 58006=

48087 32540 30000 10262 20215 82840 333 10320 56990=

48092 31550 41301 10260 20215 40094 70522 82451 333 10300 56999 58005=

48093 21520 60401 10256 20203 70122 86800 333 10300 56100=

48094 32456 30000 10274 20210 40110 82840 333 10325 56990 59003=

48095 32956 00401 10285 20233 333 10330=

48097 32456 52301 10250 20205 40125 85800 333 10304 56900 58017=

48099 31330 60401 10270 20240 40117 70155 83840 333 10303 56190 58011=

48101 32750 20000 10260 20229 70111 80031 333 10300 56099= 

48103 31430 80401 10275 20233 40110 70255 8677/ 333 10312 5611/ 58006=

48107 21330 80901 10244 20244 40112 70265 8597/ 333 10315 5622/ 58013=

48108 21594 80502 10260 20229 40122 75055 84876 333 10305 56299 58014=

48109 32496 40000 10282 20233 40125 70322 83801 333 10319 56909 58006=

48110 21495 82302 10245 20237 40118 72099 85357 333 10335 56399 58012=

48112 22598 60402 10290 20248 40109 82216 333 10312 56199 58005=  





