



*-*-*


<!--
.style2 {
	font-family:"Courier New", Courier, monospace;
	font-size: 14px;
}
-->






SMBM01 VBRR 081800

NIL=  
SMBM01 VBRR 081800 RRA

AAXX 08184

48008 31410 80000 10270 20256 40030 72996 8597/ 333 56569 58003=

48018 21420 80000 10285 20250 40039 75356 8497/ 333 56999 59001=

48025 32405 43201 10305 20239 40035 84300 333 56600 59005=

48042 32550 21804 10296 20239 40052 81250 333 56440 58012=

48053 22540 61802 10260 20246 40066 83956 333 56599 59003=

48057 32440 52301 10216 20173 83350 333 56590=

48060 32420 40000 10240 20218 40027 84800 333 56600 59019=

48071 21340 80000 10250 20250 40071 76166 8697/ 333 5699/ 58013=

48094 22450 60000 10250 20250 40088 84970 333 56590 58005=

48097 22556 32201 10255 20240 40081 83500 333 56900 58002=

48099 22330 72701 10260 20246 40093 85920 333 56990 58010=

48108 21494 80503 10275 20262 40097 76065 8437/ 333 5699/ 59001=

48110 31593 62302 10280 20250 40108 70299 82306 333 56909 58010=

48112 31496 82201 10275 20262 40095 71792 8697/ 333 5659/ 58010=  





