



*-*-*


<!--
.style2 {
	font-family:"Courier New", Courier, monospace;
	font-size: 14px;
}
-->






SIBM20 VBRR 080300 RRA

AAXX 08034

48092 22456 81302 10275 20269 40036 70255 8637/ 333

5669/ 58018=  
SIBM20 VBRR 080300

AAXX 08034

48001 32440 50401 10285 20230 40032 83209 333 56208

59011=

48004 32460 60401 10285 20248 86900 333 56500=

48008 32558 60000 10302 20266 40028 83972 333 56459

59009=

48010 21440 80000 10265 20265 40044 70366 8577/ 333

56499 58003=

48018 21558 80000 10285 20259 40032 75055 8497/ 333

56559 58001=

48019 32458 52301 10293 20274 40022 83630 333 56560

59003=

48020 21450 80000 10265 20256 72165 85700 333 56400=

48025 21120 80000 10256 20256 40034 75165 8577/ 333

56499 58011=

48035 22560 80000 10257 20229 40028 85970 333 56569

59009=

48037 22558 61803 10306 20254 40016 83801 333 56449

58006=

48042 22559 61803 10307 20267 40028 84850 333 56440

58019=

48045 21004 91405 10195 20195 76364 89/// 333 56999=

48048 22558 82201 10290 20248 40025 8697/ 333 5649/

58001=

48051 21458 81304 10262 20250 75065 86970 333 56440=

48053 32456 81802 10280 20250 40040 8555/ 333 56499

58018=

48060 32450 20000 10268 20211 40051 82100 333 56500

58002=

48062 21356 81805 10260 20260 40014 76166 86920 333

56590 58011=

48071 21356 82302 10275 20275 40020 76266 8692/ 333

5659/ 58015=

48075 21457 80000 10240 20226 40054 75052 8637/ 333

5659/ 58011=

48077 22458 80000 10284 20250 40029 85970 333 56490

58011=

48078 22440 71801 10272 20256 40059 70255 8477/ 333

56499 58019=

48080 21458 80401 10251 20233 40050 79596 85920 333

56490 58017=

48085 21357 82202 10270 20256 40039 75065 86720 333

56590 58020=

48095 22458 82202 10280 20268 85970 333 56990=

48108 21495 81402 10290 20259 40078 75055 8537/ 333

5669/ 58009=

48109 32497 62302 10302 20266 40059 86900 333 56900

58018=

48110 22596 82302 10310 20267 40083 83307 333 56509

58011=

48112 21496 83202 10253 20253 40097 75055 8677/ 333

5679/ 58015=

48030 21/03 90401 10181 20181 76366 89/// 333 56999=

48072 21458 81302 10270 20256 70355 8697/ 333 5699/=

48087 NIL=

48099 21330 82301 10280 20260 40065 75065 8697/ 333

5659/ 58017=

48101 22457 82704 10273 20256 8597/ 333 5659/=

48103 21356 83202 10272 20256 40062 75055 8772/ 333

5677/ 58014=

48057 21256 81403 10205 20195 75055 86950 333 56490=

48094 22457 70000 10275 20265 40046 85970 333 56590

58018=

48097 21557 82302 10280 20259 40060 70255 8677/ 333

5699/ 58020=

48031 21/02 91401 10190 20190 74764 89/// 333 56999=

48033 22562 61801 10300 20253 40010 86900 333 56400

59009=

48034 22356 70401 10235 20210 87300 333 56500=

48039 22460 72201 10295 20253 85960 333 56550=

48043 32556 70503 10235 20226 84830 333 56390=

48052 22460 71301 10295 20253 85930 333 56390=

48055 22356 51802 10252 20219 40046 70165 85970 333

56590 58018=

48064 21458 73601 10278 20250 40014 84831 333 56449

58021=

48065 21456 80402 10270 20270 70262 85870 333 56590=

48074 32356 61804 10270 20256 40060 8677/ 333 56449

58020=

48092 22456 81302 10275 20269 40036 70255 8637/ 333

5669/ 58018=

48093 21556 82301 10272 20256 70366 8637/ 333 56999=

48107 21330 83202 10260 20260 40070 76066 8597/ 333

5655/ 58011=  





