



*-*-*


<!--
.style2 {
	font-family:"Courier New", Courier, monospace;
	font-size: 14px;
}
-->






SIBM20 VBRR 080300

AAXX 08034

48001 22450 30401 10243 20191 40096 82126 333 56289 59001=

48004 32458 52201 10270 20226 85900 333 56500=

48008 32557 61301 10278 20196 40085 83830 333 56450 58002=

48010 22550 60000 10255 20229 40094 84420 333 56560 58007=

48018 21958 03201 10285 20203 40085 70544 333 58002=

48019 22460 22301 10285 20220 40077 80050 333 56060 58003=

48020 22358 40000 10290 20196 84800 333 56500=

48025 31420 20401 10295 20185 40086 70444 82500 333 56900 58001=

48030 32256 62203 10180 20108 70344 84840 333 56560=

48031 21960 00401 10210 20091 70544=

48033 22962 00901 10295 20223 40078 333 58003=

48034 22458 00000 10232 20181=

48035 21530 20000 10249 20167 40082 70522 82800 333 56900 58010=

48037 22957 00401 10282 20203 40076 333 58004=

48039 22850 21401 10295 20207 80002 333 56009=

48042 22557 13601 10318 20215 40080 81200 333 56900 58010=

48043 32057 01803 10265 20191=

48045 31959 01402 10260 20119 70444=

48048 22558 63201 10320 20265 40075 85950 333 56590 58002=

48051 32559 73604 10313 20250 70322 85830 333 56690=

48052 32468 33201 10325 20234 83800 333 56900=

48053 22450 61801 10300 20253 40091 83856 333 56599 58006=

48055 22556 10403 10270 20172 40080 81500 333 56500 58008=

48057 22458 51802 10242 20174 82859 333 56499=

48060 31930 00000 10278 20184 40071 74044 333 58005=

48062 32556 52301 10310 20280 40089 70122 84930 333 56690 59008=

48064 32960 21401 10320 20248 40067 80031 333 56099 58000=

48065 22565 60403 10315 20236 82170 333 56990=

48071 32458 63201 10310 20254 40091 85830 333 56790 59005=

48072 32460 42702 10320 20265 70122 82330 333 56790=

48074 32558 61403 10300 20253 40096 82550 333 56660 59013=

48075 32457 23201 10270 20230 40085 82500 333 56500 58016=

48077 22559 20000 10304 20239 40082 81201 333 56909 58008=

48078 32556 31801 10312 20255 40091 82201 333 56909 59008=

48080 32459 63205 10311 20282 40102 84830 333 56690 59001=

48085 32458 13203 10316 20248 40087 81300 333 56800 59006=

48087 32960 00000 10308 20254=

48092 31456 51301 10310 20261 40066 70522 85200 333 56900 59014=

48093 32658 41401 10326 20258 84800 333 56500=

48094 32459 43202 10316 20270 40088 83940 333 56690 59010=

48095 32458 32203 10320 20265 70222 83800 333 56900=

48097 32557 73201 10320 20236 40102 70222 85700 333 56900 59002=

48099 32450 71301 10310 20254 40090 85930 333 56390 59011=

48101 32559 22302 10307 20254 70211 81101 333 56509=

48103 32450 41401 10322 20248 40085 83830 333 56330 59018=

48107 32350 42701 10314 20254 40088 84900 333 56500 59014=

48108 32596 70501 10315 20248 40097 83366 333 56999 59010=

48109 32497 20401 10328 20258 40100 70222 82900 333 56900 59011=

48110 31596 63202 10320 20265 40091 70522 82306 333 56909 59014=

48112 32597 80401 10322 20281 40101 70322 83876 333 56199 59010=  





