



*-*-*


<!--
.style2 {
	font-family:"Courier New", Courier, monospace;
	font-size: 14px;
}
-->






SIBM20 VBRR 080300

AAXX 08034
48001 NIL=
48004 31558 12201 10200 20130 70144 81100 333 56900=
48008 32557 10401 10220 20143 40105 81400 333 56100 59026=
48010 31030 00000 10175 20147 40159 74044 333 58013=
48018 31558 20401 10195 20150 40140 70344 82800 333 56900 58034=
48019 32960 00402 10203 20130 40142 333 58017=
48020 32956 03602 10200 20150 333=
48025 31930 02201 10191 20118 40147 70544 333 58008=
48030 32956 02202 10090 29048 333=
48031 31960 01801 10190 20047 70500 333=
48033 32962 03601 10230 20163 40132 333 58032=
48034 32958 00000 10182 20108 333=
48035 31940 00000 10187 20116 40148 70500 333 58019=
48037 31940 03601 10232 20097 40134 70544 333 58018=
48039 31940 22202 10245 20155 70511 80002 333 56005=
48042 32950 01802 10278 20158 40129 70500 333 58017=
48043 32056 01802 10230 20124 333=
48045 32959 01402 10195 20033 333=
48048 32950 00401 10254 20105 40137 333 58017=
48051 32958 00403 10236 20140 70200 333=
48052 32958 03202 10250 20150 333=
48053 31950 02202 10270 20172 40126 70500 333 58008=
48055 31948 00000 10203 20119 40138 70500 333 58014=
48057 32958 01801 10222 20087 333=
48060 31930 00000 10205 20137 40148 71011 333 58006=
48062 32958 00402 10220 20160 40137 333 58010=
48064 32960 01401 10240 20155 40127 333 58020=
48065 32968 00000 10268 20160 333=
48071 32958 03601 10255 20215 40140 333 58012=
48072 32959 03603 10265 20191 333=
48074 31950 01403 10250 20167 40155 70500 333 58021=
48075 31957 03201 10220 20140 40161 70511 333 58022=
48077 32959 00000 10260 20203 40124 333 58016=
48078 32956 11401 10252 20150 40147 80001 333 56009 58024=
48080 NIL=
48085 31957 03202 10252 20205 40134 70544 333 58012=
48087 32960 03202 10258 20203 333=
48092 31957 01302 10270 20211 40122 70511 333 58020=
48093 32957 01401 10278 20220 333=
48094 32959 03202 10270 20230 40132 333 58009=
48095 32958 02201 10260 20215 333=
48097 31556 21305 10290 20196 40140 70511 82400 333 56900 58005=
48099 31440 32301 10265 20202 40142 74044 83500 333 56900 58019=
48101 32958 00000 10262 20215 333=
48103 31540 30401 10268 20240 40142 70344 83500 333 56100 58017=
48107 31950 22701 10265 20226 40132 70144 80006 333 56009 58010=
48108 32596 60501 10290 20230 40142 83866 333 56899 58009=
48109 32997 00401 10278 20203 40149 333 58010=
48110 21596 51302 10310 20254 40141 70522 83206 333 56409 58010=
48112 32598 60401 10291 20230 40135 82216 333 56199 58007=  





