



*-*-*


<!--
.style2 {
	font-family:"Courier New", Courier, monospace;
	font-size: 14px;
}
-->






SIBM20 VBRR 080900

AAXX 08094
48001 32557 40401 10290 20115 40106 82230 333 56520 58016=
48004 31558 12201 10319 20163 70500 81100 333 56900=
48008 32558 21401 10335 20098 40098 82200 333 56300 58011=
48010 32060 00000 10300 20172 40098 333 58008=
48018 32560 10402 10340 20098 40100 81100 333 56900 58019=
48019 32960 02702 10325 20184 40103 333 58017=
48020 NIL=
48025 31960 01401 10340 20125 40108 70544 333 58030=
48030 32956 03202 10252 29011 333=
48031 31960 01801 10260 29018 70500 333=
48033 32963 01801 10360 20249 40093 333 58021=
48034 32958 02303 10297 20098 333=
48035 31940 02703 10312 20092 40058 70500 333 58019=
48037 31950 03601 10372 20125 40085 70544 333 58017=
48039 32959 32201 10350 20182 80002 333 56009=
48042 32957 02702 10370 20171 40081 333 58011=
48043 32058 03206 10295 20098 333=
48045 NIL=
48048 32562 20904 10365 20177 40093 82800 333 56900 58017=
48051 32960 11302 10370 20120 80001 333 56009=
48052 32970 03202 10390 20177 333=
48053 31950 01802 10270 20190 40083 70500 333 58023=
48055 31956 00403 10331 20139 40044 70500 333 58019=
48057 32460 12202 10290 20140 81500 333 56500=
48060 32950 02202 10330 20126 40070 333 58031=
48062 32958 03206 10320 20240 40106 333 58009=
48064 32970 01401 10380 20240 40067 333 58009=
48065 32970 00000 10378 20187 333=
48071 32960 03202 10300 20185 40109 333 58009=
48072 32960 02704 10310 20225 333=
48074 32960 03603 10365 20156 40094 333 58026=
48075 31957 01401 10340 20063 40105 70511 333 58049=
48077 32959 00000 10370 20190 40090 333 58022=
48078 32960 11402 10369 20160 40097 80001 333 56009 58020=
48080 32961 02203 10325 20244 40104 333 58014=
48085 32958 03206 10302 20223 40106 333 58013=
48087 NIL=
48092 32959 02204 10360 20177 40077 333 58013=
48093 32958 01401 10364 20214 333=
48094 32962 03202 10360 20210 40101 333 58010=
48095 32960 03602 10360 20214 333=
48096 32959 11503 10360 20156 40100 80001 333 56009 58012=
48097 32557 41303 10360 20193 40106 84500 333 10370 56900 58012=
48099 32557 22702 10366 20227 40095 82800 333 56900 58013=
48101 32960 01401 10323 20215 333=
48103 32557 22201 10357 20214 40101 82500 333 56500 58010=
48107 32950 22302 10328 20234 40100 80006 333 56009 58008=
48108 31596 83208 10240 20240 40110 71799 84966 333 56699 58012=
48109 32597 20401 10308 20225 40119 81501 333 56909 58005=
48110 31596 43204 10340 20240 40103 70522 83305 333 56209 58009=
48112 NIL=  





