



*-*-*


<!--
.style2 {
	font-family:"Courier New", Courier, monospace;
	font-size: 14px;
}
-->






SMBM01 VBRR 080000

AAXX 08004
48001 NIL=
48004 NIL=
48008 32450 70000 10250 20205 40069 84970 333 20235 56560 58008=
48010 22540 30000 10220 20212 40068 81430 333 20215 56560 58002=
48018 22556 33201 10250 20219 40075 70111 80074 333 20225 56059 58000
69902=
48019 22450 30000 10239 20214 40060  80030 333 20236 56060 59004
 60032=
48020 NIL=
48025 31410 42201 10264 20186 40072 82540 333 20242 56560 58003=
48030 31250 52201 10116 20102 70544 85900 333 20101 56500=
48031 21258 83202 10190 20096 888// 333 20145 56999=
48033 22560 23301 10240 20226 40081 82500 333 20220 56600 58004
 60132=
48034 22456 10000 10170 20154 70111 81500 333 20163 56500 60072=
48035 21420 60000 10203 20185 40089 70155 85960 333 20190 56790 58001
69902=
48037 21556 20000 10240 20226 40061 81130 333 20215 56990 58000
 60132=
48039 22456 83201 10255 20219 8456/ 333 20246 56559=
48042 22557 53202 10272 20211 40067 83950 333 20255 56190 58009
 69902=
48043 NIL=
48045 NIL=
48048 22550 70000 10254 20219 40068 85950 333 20248 56590 58005
69902=
48051 32558 60000 10276 20270 83830 333 20263 56690=
48052 52350 50000 10270 20211 58900 333 20256 56900=
48053 22450 81802 10250 20219 40065 85850 333 20239 56590 59021
 60012=
48055 22556 30000 10183 20165 40096 81530 333 20174 86550 59007
 69902=
48057 22956 60000 10186 20175 80050 333 20176 56090=
48060 31920 40000 10215 20180 40085 74044 80070 333 20190 56090
 59011=
48062 32550 70000 10280 20270 40075 70322 85970 333 20250 56990
 59006=
48064 32950 30000 10276 20233 40045 80031 333 20210 56099 58005=
48065 22950 72201 10275 20220 80076 333 20250 56099=
48071 32450 60000 10273 20240 40078 85830 333 20270 56790 58002=
48072 NIL=
48074 32457 50000 10265 20229 40079 82550 333 20243 56660 59004=
48075 32456 20000 10210 20210 40124 82500 333 20180 56500 58017=
48077 21556 60000 10270 20240 40066 70196 85901 333 20240 56909 58006
60082=
48078 NIL=
48080 31409 40000 10252 20233 40092 82830 333 20242 56990 59001=
48085 32456 60902 10260 20246 40072 85809 333 20258 56709 58000=
48087 32950 40000 10260 20246 80041 333 20245 56099=
48092 31550 31301 10260 20246 40063 70511 81406 333 20248 56909
 58004=
48093 32550 30000 10277 20250 82801 333 20269 56509=
48094 32456 30000 10270 20240 40072 82901 333 20228 56609 59008=
48095 NIL=
48097 32557 52301 10265 20243 40085 82501 333 20250 56909 58005=
48099 32440 40000 10265 20229 40074 82830 333 20240 56990 59009=
48101 32956 20000 10257 20246 70211 80005 333 20220 56009=
48103 32440 61401 10266 20256 40075 86830 333 20250 56330 59008=
48107 32340 61301 10250 20233 40083 84906 333 20239 56509 59006=
48108 31593 80000 10240 20226 40094 71022 84366 333 20225 56999
 58004=
48109 32496 20000 10255 20246 40080 70222 82900 333 20193 56900
 59018=
48110 31595 60000 10270 20248 40087 70522 81306 333 20265 56909
 59006=
48112 32596 60401 10286 20259 40084 82246 333 20238 56199 59014=  
SMBM01 VBRR 080000

AAXX 08004
48001 NIL=
48004 NIL=
48008 32450 70000 10250 20205 40069 84970 333 20235 56560 58008=
48010 22540 30000 10220 20212 40068 81430 333 20215 56560 58002=
48018 22556 33201 10250 20219 40075 70111 80074 333 20225 56059 58000
69902=
48019 22450 30000 10239 20214 40060  80030 333 20236 56060 59004
 60032=
48020 NIL=
48025 31410 42201 10264 20186 40072 82540 333 20242 56560 58003=
48030 31250 52201 10116 20102 70544 85900 333 20101 56500=
48031 21258 83202 10190 20096 888// 333 20145 56999=
48033 22560 23301 10240 20226 40081 82500 333 20220 56600 58004
 60132=
48034 22456 10000 10170 20154 70111 81500 333 20163 56500 60072=
48035 21420 60000 10203 20185 40089 70155 85960 333 20190 56790 58001
69902=
48037 21556 20000 10240 20226 40061 81130 333 20215 56990 58000
 60132=
48039 22456 83201 10255 20219 8456/ 333 20246 56559=
48042 22557 53202 10272 20211 40067 83950 333 20255 56190 58009
 69902=
48043 NIL=
48045 NIL=
48048 22550 70000 10254 20219 40068 85950 333 20248 56590 58005
69902=
48051 32558 60000 10276 20270 83830 333 20263 56690=
48052 52350 50000 10270 20211 58900 333 20256 56900=
48053 22450 81802 10250 20219 40065 85850 333 20239 56590 59021
 60012=
48055 22556 30000 10183 20165 40096 81530 333 20174 86550 59007
 69902=
48057 22956 60000 10186 20175 80050 333 20176 56090=
48060 31920 40000 10215 20180 40085 74044 80070 333 20190 56090
 59011=
48062 32550 70000 10280 20270 40075 70322 85970 333 20250 56990
 59006=
48064 32950 30000 10276 20233 40045 80031 333 20210 56099 58005=
48065 22950 72201 10275 20220 80076 333 20250 56099=
48071 32450 60000 10273 20240 40078 85830 333 20270 56790 58002=
48072 NIL=
48074 32457 50000 10265 20229 40079 82550 333 20243 56660 59004=
48075 32456 20000 10210 20210 40124 82500 333 20180 56500 58017=
48077 21556 60000 10270 20240 40066 70196 85901 333 20240 56909 58006
60082=
48078 NIL=
48080 31409 40000 10252 20233 40092 82830 333 20242 56990 59001=
48085 32456 60902 10260 20246 40072 85809 333 20258 56709 58000=
48087 32950 40000 10260 20246 80041 333 20245 56099=
48092 31550 31301 10260 20246 40063 70511 81406 333 20248 56909
 58004=
48093 32550 30000 10277 20250 82801 333 20269 56509=
48094 32456 30000 10270 20240 40072 82901 333 20228 56609 59008=
48095 NIL=
48097 32557 52301 10265 20243 40085 82501 333 20250 56909 58005=
48099 32440 40000 10265 20229 40074 82830 333 20240 56990 59009=
48101 32956 20000 10257 20246 70211 80005 333 20220 56009=
48103 32440 61401 10266 20256 40075 86830 333 20250 56330 59008=
48107 32340 61301 10250 20233 40083 84906 333 20239 56509 59006=
48108 31593 80000 10240 20226 40094 71022 84366 333 20225 56999
 58004=
48109 32496 20000 10255 20246 40080 70222 82900 333 20193 56900
 59018=
48110 31595 60000 10270 20248 40087 70522 81306 333 20265 56909
 59006=
48112 32596 60401 10286 20259 40084 82246 333 20238 56199 59014=  





