



*-*-*


<!--
.style2 {
	font-family:"Courier New", Courier, monospace;
	font-size: 14px;
}
-->






SMBM01 VBRR 080600

AAXX 08064
48001 NIL=
48004 NIL=
48008 32558 12301 10290 20140 40139 81200 333 56500 59021=
48010 31060 01801 10290 20159 40146 70244 333 58017=
48018 32560 13202 10310 20146 40137 81100 333 56900 58021=
48019 32960 00401 10296 20140 40138 333 58022=
48020 32958 03602 10305 20225 333=
48025 31940 03201 10310 20124 40146 70544 333 58011=
48030 32956 00402 10218 20087 333=
48031 31962 01801 10232 20016 70500 333=
48033 32963 00000 10320 20215 40122 333 58011=
48034 32958 01803 10282 20098 333=
48035 31940 03202 10290 20115 40100 70500 333 58019=
48037 31950 03201 10330 20106 40123 70544 333 58017=
48039 31950 22201 10319 20163 70511 80002 333 56005=
48042 31956 01302 10338 20164 40126 70500 333 58023=
48043 32058 03206 10280 20126 333=
48045 32959 01405 10256 20085 333=
48048 32962 00401 10335 20145 40129 333 58017=
48051 32960 00403 10330 20130 333=
48052 32970 03203 10333 20126 333=
48053 32950 02204 10340 20206 40119 70500 333 58018=
48055 31956 00903 10308 20169 40096 70500 333 58027=
48057 32960 01402 10268 20113 333=
48060 32950 00000 10290 20159 40098 333 58003=
48062 32958 02706 10315 20250 40131 333 58005=
48064 32970 01401 10345 20225 40112 333 58020=
48065 32970 01404 10333 20172 333=
48071 32960 03202 10275 20203 40136 333 58005=
48072 32960 02704 10235 20185 333=
48074 32960 00403 10330 20172 40130 333 58016=
48075 31957 02201 10300 20120 40124 70511 333 58034=
48077 32959 03201 10340 20184 40119 333 58019=
48078 32957 12301 10338 20184 40131 80001 333 56009 58019=
48080 32961 02203 10316 20225 40121 333 58018=
48085 31958 03205 10294 20215 40131 70500 333 58014=
48087 32960 00000 10330 20151 333=
48092 32958 01302 10340 20206 40107 333 58016=
48093 32958 01401 10350 20219 333=
48094 32960 03203 10335 20220 40131 333 58018=
48095 NIL=
48097 31557 21302 10345 20161 40127 70511 82500 333 56900 58003=
48099 32557 22303 10336 20225 40128 82500 333 56900 58017=
48101 32960 00000 10328 20201 333=
48103 32557 22201 10332 20234 40128 82500 333 56500 58014=
48107 32350 31802 10330 20244 40122 83900 333 56500 58010=
48108 32596 73205 10340 20240 40132 84366 333 56699 58014=
48109 NIL=
48110 31596 53203 10325 20253 40133 70522 83306 333 56309 58012=
48112 32598 60401 10355 20240 40132 82216 333 56199 58018=  





