



*-*-*


<!--
.style2 {
	font-family:"Courier New", Courier, monospace;
	font-size: 14px;
}
-->






SIBM20 VBRR 090300

AAXX 09034
48001 21440 71301 10183 20176 40142 70255 85720 333 56320 58004=
48004 32560 40403 10260 20179 84800 333 56500=
48008 32556 60402 10250 20167 40114 83970 333 56450 59004=
48010 32557 20000 10250 20205 40106 83831 333 56566 59015=
48018 32558 50401 10270 20172 40098 70522 83870 333 56120 59011=
48019 32456 53602 10263 20160 40103 83760 333 56560 59001=
48020 32357 22203 10270 20226 82800 333 56500=
48025 32430 53201 10266 20211 83840 333 56550 59010=
48030 32256 12207 10188 20096 80040 333 56060=
48031 31260 11402 10210 20120 70500 80002 333 56009=
48033 32562 53601 10290 20196 40081 85800 333 56900 59021=
48034 21456 30000 10215 20143 70255 83500 333 56500=
48035 31520 70000 10246 20167 40094 70422 85960 333 56560 59008=
48037 32550 53601 10281 20184 40092 84830 333 56560 59018=
48039 32458 61401 10320 20236 84850 333 56550=
48042 31556 31805 10333 20234 40089 70511 81250 333 56960 59014=
48043 32058 11805 10270 20154 80030 333 56090=
48045 32560 52304 10240 20068 82840 333 56590=
48048 32558 40901 10320 20200 40099 84800 333 56400 59004=
48051 32558 63201 10286 20220 85830 333 56590=
48052 32468 52202 10330 20212 84820 333 56990=
48053 31550 71805 10310 20267 40098 70522 84956 333 56699 59004=
48055 31556 41803 10268 20133 40095 70511 83830 333 56550 59005=
48057 32457 72202 10252 20150 85350 333 56590=
48060 31430 10000 10255 20204 40113 71011 81100 333 56500 59010=
48062 32558 23203 10295 20250 40113 82200 333 56700 58002=
48064 32960 03601 10330 20258 40087 333 58000=
48065 32970 00000 10340 20240=
48071 32458 13202 10298 20253 40108 81200 333 56900 59005=
48072 32459 43201 10310 20254 83830 333 56690=
48074 31558 31405 10310 20254 40109 83800 333 56400 59002=
48075 32957 02301 10285 20210 40116 333 59001=
48077 32959 02302 10324 20200 40102 333 58005=
48078 32557 31802 10322 20248 40114 82501 333 56409 58002=
48080 32460 32204 10300 20253 40116 83800 333 56600 59002=
48085 32458 52702 10294 20259 40111 85800 333 56600 58007=
48092 31456 11303 10305 20254 40106 70511 81100 333 56900 58010=
48093 32957 62303 10304 20266 86800 333 56500=
48094 32959 03202 10310 20270 40109 333 58001=
48095 32458 60000 10310 20267 83840 333 56990=
48097 32957 02203 10310 20254 40116 333 58004=
48099 31450 42306 10298 20239 40130 70511 84800 333 56400 58014=
48101 32659 20000 10298 20253 82100 333 56700=
48103 32556 10402 10322 20248 40122 81500 333 56100 58019=
48107 31340 42701 10292 20230 40113 70144 84900 333 56600 58005=
48108 22596 73201 10300 20239 40128 83866 333 56699 58006=
48109 32497 50401 10302 20239 40128 85900 333 56900 58005=
48110 21996 21302 10300 20231 40124 70544 80005 333 56009 58003=
48112 32598 60401 10312 20237 40116 82216 333 56199 58005=  
SIBM20 VBRR 090300 RRA

AAXX 09034

48045 32560 52304 10240 20068 82840 333 56590=

48087 32556 60000 10294 20248 84840 333 56990=  
SIBM20 VBRR 090300 RRA

AAXX 09034
48045 32560 52304 10240 20068 82840 333 56590=
48087 32556 60000 10294 20248 84840 333 56990=  





