



*-*-*


<!--
.style2 {
	font-family:"Courier New", Courier, monospace;
	font-size: 14px;
}
-->






SMBM01 VBRR 090600

AAXX 09064

48001 32456 40401 10245 20267 40134 84800 333 56100 58006=

48004 32560 40402 10310 20203 84900 333 56500=

48008 32557 60402 10307 20169 40104 83970 333 56450 59012=

48010 32560 72301 10305 20247 40089 85430 333 56660 59014=

48018 31559 71402 10320 20200 40101 70522 84870 333 56320 58000=

48019 32960 03202 10300 20207 40105 333 59002=

48020 32458 20403 10340 20249 82200 333 56500=

48025 32456 40901 10345 20184 40094 83840 333 56560 59010=

48030 32256 42205 10219 20109 84800 333 56500=

48031 31260 51401 10245 20136 70544 85800 333 56400=

48033 32963 03601 10370 20190 40082 333 58000=

48034 32457 42302 10290 20159 84800 333 56500=

48035 31530 82702 10311 20146 40057 70422 8597/ 333 56679 58000=

48037 32558 23201 10358 20195 40074 82800 333 56600 59014=

48039 32460 80000 10350 20202 84870 333 56550=

48042 31556 51302 10380 20240 40076 70522 82952 333 56569 59009=

48043 32758 61806 10300 20149 84230 333 56690=

48045 32961 51806 10289 20092 85300 333 56500=

48048 32558 62201 10395 20196 40082 85950 333 56490 59008=

48051 32960 13101 10351 20220 80001 333 56009=

48052 32468 32202 10402 20196 83800 333 56900=

48053 31950 02204 10370 20291 40081 70500 333 58005=

48055 31556 40405 10325 20157 40048 70511 84800 333 56500 59011=

48057 32458 62202 10294 20159 86300 333 56400=

48060 32450 23201 10300 20207 40082 82800 333 56600 59004=

48062 NIL=

48064 32970 11401 10405 20269 40062 81300 333 56400 59004=

48065 32960 10401 10400 20214 80001 333 56009=

48071 32960 03203 10320 20248 40111 333 58000=

48072 32560 12708 10330 20258 81200 333 56900=

48074 32960 01403 10370 20227 40105 333 58015=

48075 32457 42302 10330 20170 40079 83810 333 56560 58007=

48077 32959 02302 10390 20213 40087 333 58004=

48078 32558 21802 10380 20221 40096 81101 333 56909 58006=

48080 32961 02205 10343 20240 40098 333 58017=

48085 32458 12707 10326 20248 40110 81100 333 56700 58013=

48087 32560 12302 10376 20221 81100 333 56900=

48092 32457 21303 10365 20231 40096 82100 333 56900 58019=

48093 32558 61401 10359 20249 86800 333 56500=

48094 32561 32302 10372 20260 40102 82800 333 56900 58011=

48095 32560 10000 10370 20246 81200 333 56900=

48097 32557 42402 10360 20264 40100 84800 333 56900 58007=

48099 32456 52302 10360 20249 40104 85300 333 56500 58012=

48101 32660 21402 10338 20257 82200 333 56500=

48103 32556 42202 10357 20249 40112 84500 333 56500 58021=

48107 32350 42301 10348 20237 40101 84900 333 56600 58006=

48108 32596 83202 10340 20257 40117 84367 333 56699 58008=

48109 NIL=

48110 31596 33204 10340 20240 40115 70511 81105 333 56909 58004=

48112 NIL=  
SMBM01 VBRR 090600

AAXX 09064
48001 32456 40401 10245 20267 40134 84800 333 56100 58006=
48004 32560 40402 10310 20203 84900 333 56500=
48008 32557 60402 10307 20169 40104 83970 333 56450 59012=
48010 32560 72301 10305 20247 40089 85430 333 56660 59014=
48018 31559 71402 10320 20200 40101 70522 84870 333 56320 58000=
48019 32960 03202 10300 20207 40105 333 59002=
48020 32458 20403 10340 20249 82200 333 56500=
48025 32456 40901 10345 20184 40094 83840 333 56560 59010=
48030 32256 42205 10219 20109 84800 333 56500=
48031 31260 51401 10245 20136 70544 85800 333 56400=
48033 32963 03601 10370 20190 40082 333 58000=
48034 32457 42302 10290 20159 84800 333 56500=
48035 31530 82702 10311 20146 40057 70422 8597/ 333 56679 58000=
48037 32558 23201 10358 20195 40074 82800 333 56600 59014=
48039 32460 80000 10350 20202 84870 333 56550=
48042 31556 51302 10380 20240 40076 70522 82952 333 56569 59009=
48043 32758 61806 10300 20149 84230 333 56690=
48045 32961 51806 10289 20092 85300 333 56500=
48048 32558 62201 10395 20196 40082 85950 333 56490 59008=
48051 32960 13101 10351 20220 80001 333 56009=
48052 32468 32202 10402 20196 83800 333 56900=
48053 31950 02204 10370 20291 40081 70500 333 58005=
48055 31556 40405 10325 20157 40048 70511 84800 333 56500 59011=
48057 32458 62202 10294 20159 86300 333 56400=
48060 32450 23201 10300 20207 40082 82800 333 56600 59004=
48062 NIL=
48064 32970 11401 10405 20269 40062 81300 333 56400 59004=
48065 32960 10401 10400 20214 80001 333 56009=
48071 32960 03203 10320 20248 40111 333 58000=
48072 32560 12708 10330 20258 81200 333 56900=
48074 32960 01403 10370 20227 40105 333 58015=
48075 32457 42302 10330 20170 40079 83810 333 56560 58007=
48077 32959 02302 10390 20213 40087 333 58004=
48078 32558 21802 10380 20221 40096 81101 333 56909 58006=
48080 32961 02205 10343 20240 40098 333 58017=
48085 32458 12707 10326 20248 40110 81100 333 56700 58013=
48087 32560 12302 10376 20221 81100 333 56900=
48092 32457 21303 10365 20231 40096 82100 333 56900 58019=
48093 32558 61401 10359 20249 86800 333 56500=
48094 32561 32302 10372 20260 40102 82800 333 56900 58011=
48095 32560 10000 10370 20246 81200 333 56900=
48097 32557 42402 10360 20264 40100 84800 333 56900 58007=
48099 32456 52302 10360 20249 40104 85300 333 56500 58012=
48101 32660 21402 10338 20257 82200 333 56500=
48103 32556 42202 10357 20249 40112 84500 333 56500 58021=
48107 32350 42301 10348 20237 40101 84900 333 56600 58006=
48108 32596 83202 10340 20257 40117 84367 333 56699 58008=
48109 NIL=
48110 31596 33204 10340 20240 40115 70511 81105 333 56909 58004=
48112 NIL=  
SMBM01 VBRR 090600

AAXX 09064
48001 32456 40401 10245 20267 40134 84800 333 56100
58006=
48004 32560 40402 10310 20203 84900 333 56500=
48008 32557 60402 10307 20169 40104 83970 333 56450
59012=
48010 32560 72301 10305 20247 40089 85430 333 56660
59014=
48018 31559 71402 10320 20200 40101 70522 84870 333
56320 58000=
48019 32960 03202 10300 20207 40105 333 59002=
48020 32458 20403 10340 20249 82200 333 56500=
48025 32456 40901 10345 20184 40094 83840 333 56560
59010=
48035 31530 82702 10311 20146 40057 70422 8597/ 333
56679 58000=
48037 32558 23201 10358 20195 40074 82800 333 56600
59014=
48042 31556 51302 10380 20240 40076 70522 82952 333
56569 59009=
48045 32961 51806 10289 20092 85300 333 56500=
48048 32558 62201 10395 20196 40082 85950 333 56490
59008=
48051 32960 13101 10351 20220 80001 333 56009=
48053 31950 02204 10370 20291 40081 70500 333 58005=
48060 32450 23201 10300 20207 40082 82800 333 56600
59004=
48062 NIL=
48071 32960 03203 10320 20248 40111 333 58000=
48075 32457 42302 10330 20170 40079 83810 333 56560
58007=
48077 32959 02302 10390 20213 40087 333 58004=
48078 32558 21802 10380 20221 40096 81101 333 56909
58006=
48080 32961 02205 10343 20240 40098 333 58017=
48085 32458 12707 10326 20248 40110 81100 333 56700
58013=
48095 32560 10000 10370 20246 81200 333 56900=
48108 32596 83202 10340 20257 40117 84367 333 56699
58008=
48109 NIL=
48110 31596 33204 10340 20240 40115 70511 81105 333
56909 58004=
48112 NIL=
48030 32256 42205 10219 20109 84800 333 56500=
48072 32560 12708 10330 20258 81200 333 56900=
48087 32560 12302 10376 20221 81100 333 56900=
48099 32456 52302 10360 20249 40104 85300 333 56500
58012=
48101 32660 21402 10338 20257 82200 333 56500=
48103 32556 42202 10357 20249 40112 84500 333 56500
58021=
48057 32458 62202 10294 20159 86300 333 56400=
48094 32561 32302 10372 20260 40102 82800 333 56900
58011=
48097 32557 42402 10360 20264 40100 84800 333 56900
58007=
48031 31260 51401 10245 20136 70544 85800 333 56400=
48033 32963 03601 10370 20190 40082 333 58000=
48034 32457 42302 10290 20159 84800 333 56500=
48039 32460 80000 10350 20202 84870 333 56550=
48043 32758 61806 10300 20149 84230 333 56690=
48052 32468 32202 10402 20196 83800 333 56900=
48055 31556 40405 10325 20157 40048 70511 84800 333
56500 59011=
48064 32970 11401 10405 20269 40062 81300 333 56400
59004=
48065 32960 10401 10400 20214 80001 333 56009=
48074 32960 01403 10370 20227 40105 333 58015=
48092 32457 21303 10365 20231 40096 82100 333 56900
58019=
48093 32558 61401 10359 20249 86800 333 56500=
48107 32350 42301 10348 20237 40101 84900 333 56600
58006=  





