



*-*-*


<!--
.style2 {
	font-family:"Courier New", Courier, monospace;
	font-size: 14px;
}
-->






SIBM20 VBRR 090900

AAXX 09094
48001 32557 62701 10266 20172 40091 84830 333 56450 59025=
48004 32358 72201 10320 20215 87900 333 56500=
48008 32557 71401 10330 20172 40071 83970 333 56450 59015=
48010 32560 41801 10310 20237 40066 81430 333 56660 58000=
48018 32560 51402 10350 20182 40055 83870 333 56320 59010=
48019 32960 10402 10340 20225 40070 80001 333 56007 59004=
48020 32358 53605 10350 20239 84330 333 56550=
48025 32456 43201 10384 20187 40057 83840 333 56550 59012=
48030 32256 52205 10234 20074 84940 333 56560=
48031 31260 52201 10260 20119 70544 85800 333 56400=
48033 32563 13601 10280 20159 40038 81100 333 56900 59029=
48034 21456 80000 10285 20143 72095 8637/ 333 5659/=
48035 31430 33604 10254 20186 40064 71799 8597/ 333 56679 58028=
48037 32558 33601 10391 20198 40048 82330 333 56560 59008=
48039 32960 42201 10390 20198 82250 333 56050=
48042 32557 13201 10400 20176 40050 81100 333 56900 59005=
48043 32759 51807 10305 20146 83230 333 56690=
48045 32560 42308 10300 20039 84300 333 56500=
48048 21558 82203 10400 20214 40051 72995 8697/ 333 5649/ 59005=
48051 32460 23103 10378 20180 82200 333 56900=
48052 32468 32203 10430 20177 83800 333 56900=
48053 31550 63202 10400 20301 40041 70522 83950 333 56690 59004=
48055 21556 62308 10312 20169 40029 70555 86300 333 56500 58011=
48057 32458 52203 10286 20140 85300 333 56500=
48060 32460 42202 10320 20089 40046 84300 333 56600 58001=
48062 32958 03210 10320 20280 40091 333 58012=
48064 32570 10401 10430 20250 40025 81100 333 56400 59002=
48065 32570 11413 10430 20177 81100 333 56900=
48071 32460 13204 10330 20258 40094 81200 333 56900 58014=
48072 32960 02708 10310 20288=
48074 32562 21405 10401 20196 40054 82100 333 56300 59006=
48075 32457 12702 10350 20143 40044 81200 333 56500 58009=
48077 32559 52301 10420 20202 40053 84901 333 56909 58011=
48078 32560 32301 10407 20274 40060 83801 333 56409 58006=
48080 32960 02209 10350 20240 40080 333 58017=
48085 32458 52707 10322 20265 40087 85800 333 56700 58012=
48087 32558 62301 10380 20212 84870 333 56990=
48092 31457 61312 10360 20249 40065 71792 83800 333 56900 58019=
48093 32558 52301 10375 20221 85800 333 56500=
48094 32562 33202 10380 20280 40085 83900 333 56900 58022=
48095 32460 12203 10380 20255 81200 333 56900=
48097 32557 62302 10370 20246 40076 86800 333 56900 58012=
48099 21450 81308 10275 20250 40085 79596 8697/ 333 5633/ 58032=
48101 32960 01402 10340 20257=
48103 21556 22201 10342 20240 40085 71795 82500 333 56500 58036=
48107 32350 42302 10336 20240 40086 84900 333 56100 58012=
48108 21495 82303 10260 20260 40095 79596 84967 333 56699 58025=
48109 32497 30401 10338 20270 40113 83500 333 56900 58023=
48110 31596 53204 10355 20235 40090 70522 83306 333 56909 58017=
48112 NIL=  





