



*-*-*


<!--
.style2 {
	font-family:"Courier New", Courier, monospace;
	font-size: 14px;
}
-->






SIBM20 VBRR 090300

AAXX 09034

48001 31330 80000 10135 20124 40191 70544 8577/ 333

56439 58012=

48004 31560 41301 10155 20144 70144 84800 333 56500=

48008 31557 20000 10178 20155 40195 70144 82400 333

56100 58013=

48010 31040 00000 10170 20154 40194 74044 333 58010=

48018 31557 20000 10170 20154 40181 70144 81840 333

56330 58004=

48019 31456 50000 10150 20150 40181 74244 85800 333

56500 58012=

48020 32330 83602 10180 20165 88700 333 56500=

48025 31005 83601 10186 20175 40189 74544 886// 333

56899 58012=

48035 31220 80000 10152 20150 40179 71044 8597/ 333

56189 58007=

48037 32557 73201 10201 20168 40172 83870 333 56450

58021=

48042 31540 10000 10225 20177 40165 71011 81100 333

56900 58000=

48045 32557 22304 10130 20086 82800 333 56500=

48048 32960 00401 10205 20175 40172 333 59001=

48051 32958 03601 10200 20190 333=

48053 32950 03602 10210 20175 40170 80006 333 56009

59007=

48060 32440 80000 10186 20159 40173 85870 333 56550

59021=

48062 31450 40402 10223 20190 40167 70542 83830 333

56690 58006=

48071 32958 03202 10248 20219 40164 333 58000=

48075 31456 20000 10180 20147 40186 70144 82100 333

56500 59011=

48077 32959 00401 10220 20185 40160 333 58002=

48078 32556 32701 10225 20184 40173 82501 333 56509

58012=

48080 32959 00401 10214 20175 40134 333 58009=

48085 32958 03601 10300 20185 40158 333 58014=

48095 32960 00402 10250 20219 333=

48108 32596 40901 10280 20220 40149 82406 333 56209

58003=

48109 32497 40903 10305 20254 40157 84900 333 56900

58008=

48110 31596 21303 10300 20223 40146 70511 81105 333

56909 58004=

48112 32598 60407 10290 20248 40128 82616 333 56199

59007=

48030 31140 82201 10100 20100 70144 8794/ 333 56569=

48072 31959 01301 10255 20215 70500 333=

48087 32560 30402 10240 20191 82240 333 56990=

48099 31440 20000 10283 20220 40154 70544 82700 333

56900 58001=

48101 32958 03201 10280 20220 333=

48103 31440 20404 10275 20220 40159 70544 82500 333

56100 58006=

48057 32956 12301 10176 20108 80001 333 56009=

48094 32959 03201 10265 20225 40163 333 58011=

48097 31957 00902 10265 20220 40173 70500 333 58007=

48031 21/05 91401 10120 20120 75054 89/// 333 56999=

48033 32962 03601 10200 20168 40169 333 58022=

48034 31456 21801 10124 20102 82500 333 56500=

48039 31450 40000 10214 20175 74244 81402 333 56509=

48043 32056 00000 10160 20144 333=

48052 31956 02702 10214 20175 70511 333=

48055 32956 11803 10147 20098 40186 80001 333 56009

59004=

48064 32956 01801 10198 20185 40168 333 58014=

48065 32956 00401 10210 20175 333=

48074 32958 00403 10210 20160 40184 333 58002=

48092 31957 00401 10280 20220 40139 70522 333 58006=

48093 32958 10401 10285 20230 80001 333 56009=

48107 31950 03201 10272 20226 40139 7//44 333 58010=

48096 32057 00304 10270 20226 40165 333 58008=  





