



*-*-*


<!--
.style2 {
	font-family:"Courier New", Courier, monospace;
	font-size: 14px;
}
-->






SMBM01 VBRR 090607

AAXX 09064

48001 NIL=

48004 32560 10401 10241 20136 81300 333 56900=

48008 32557 33601 10250 20126 40163 82430 333 56890 58003=

48010 32560 11801 10250 20150 40162 81100 333 56900 58015=

48018 32560 60402 10255 20160 40164 83870 333 56120 58010=

48019 32560 20401 10240 20155 40165 80002 333 56006 59013=

48020 32357 33204 10250 20186 81401 333 56509=

48025 32440 53202 10270 20133 40164 82541 333 56559 59005=

48030 32256 42202 10188 20047 80006 333 56009=

48031 31260 40401 10205 29026 70511 80040 333 56040=

48033 32963 03601 10290 20140 40151 333 58008=

48034 32457 11802 10240 20095 81500 333 56500=

48035 31558 40000 10242 20114 40137 70500 83801 333 56909 58000=

48037 32660 33601 10282 20146 40144 80001 333 56005 59004=

48039 31956 31402 10280 20158 70511 80002 333 56005=

48042 31556 42201 10295 20162 40155 70511 82402 333 56909 58014=

48043 32657 32705 10230 20097 81202 333 56909=

48045 32961 61404 10225 20016 80006 333 56005=

48048 32560 20401 10285 20158 40103 82800 333 56900 58007=

48051 32958 33603 10277 20150 80006 333 56009=

48052 32470 33201 10288 20159 83800 333 56900=

48053 31950 32203 10310 20169 40142 70511 80006 333 56009 59002=

48055 32556 41804 10258 20138 40138 83801 333 56509 58010=

48057 32458 52201 10218 20087 82806 333 56509=

48060 32440 30000 10237 20136 40141 82102 333 56508 59032=

48062 32557 60902 10255 20200 40165 80036 333 56099 58006=

48064 32960 12201 10290 20179 40141 80001 333 56009 58006=

48065 32970 12203 10285 20159 80001 333 56009=

48071 32460 13202 10260 20203 40158 81200 333 56900 59001=

48072 32459 22702 10280 20184 82200 333 56900=

48074 32560 11403 10300 20166 40155 81500 333 56900 58006=

48075 31558 61401 10260 20160 40155 70522 83805 333 56309 58016=

48077 31558 50000 10310 20169 40145 70511 81201 333 56909 58011=

48078 32556 40402 10306 20159 40156 81502 333 56909 58028=

48080 32460 50403 10311 20225 40145 83230 333 56490 59006=

48085 32958 33202 10293 20179 40154 80076 333 56099 58006=

48087 32560 60000 10320 20163 82841 333 56999=

48092 31557 30401 10325 20157 40139 70522 81430 333 56990 58009=

48093 32957 10901 10305 20203 80001 333 56009=

48094 32960 03201 10315 20210 40152 333 58008=

48095 32960 00902 10300 20166 333=

48097 32557 30501 10320 20163 40166 83500 333 56900 58008=

48099 32456 42302 10318 20200 40151 84800 333 56500 58010=

48101 32960 03201 10303 20185 333=

48103 32957 00402 10320 20163 40144 333 58005=

48107 32950 00402 10328 20151 40129 333 58010=

48108 32596 81402 10320 20192 40148 82406 333 56209 58006=

48109 32497 00401 10290 20237 40159 333 58015=

48110 31596 31305 10320 20215 40138 70511 82205 333 56209 58004=

48112 NIL=  
SMBM01 VBRR 090600

AAXX 09064

48001 NIL=

48004 32560 10401 10241 20136 81300 333 56900=

48008 32557 33601 10250 20126 40163 82430 333 56890

58003=

48010 32560 11801 10250 20150 40162 81100 333 56900

58015=

48018 32560 60402 10255 20160 40164 83870 333 56120

58010=

48019 32560 20401 10240 20155 40165 80002 333 56006

59013=

48020 32357 33204 10250 20186 81401 333 56509=

48025 32440 53202 10270 20133 40164 82541 333 56559

59005=

48035 31558 40000 10242 20114 40137 70500 83801 333

56909 58000=

48037 32660 33601 10282 20146 40144 80001 333 56005

59004=

48042 31556 42201 10295 20162 40155 70511 82402 333

56909 58014=

48045 32961 61404 10225 20016 80006 333 56005=

48048 32560 20401 10285 20158 40103 82800 333 56900

58007=

48051 32958 33603 10277 20150 80006 333 56009=

48053 31950 32203 10310 20169 40142 70511 80006 333

56009 59002=

48060 32440 30000 10237 20136 40141 82102 333 56508

59032=

48062 32557 60902 10255 20200 40165 80036 333 56099

58006=

48071 32460 13202 10260 20203 40158 81200 333 56900

59001=

48075 31558 61401 10260 20160 40155 70522 83805 333

56309 58016=

48077 31558 50000 10310 20169 40145 70511 81201 333

56909 58011=

48078 32556 40402 10306 20159 40156 81502 333 56909

58028=

48080 32460 50403 10311 20225 40145 83230 333 56490

59006=

48085 32958 33202 10293 20179 40154 80076 333 56099

58006=

48095 32960 00902 10300 20166 333=

48108 32596 81402 10320 20192 40148 82406 333 56209

58006=

48109 32497 00401 10290 20237 40159 333 58015=

48110 31596 31305 10320 20215 40138 70511 82205 333

56209 58004=

48112 NIL=

48030 32256 42202 10188 20047 80006 333 56009=

48072 32459 22702 10280 20184 82200 333 56900=

48087 32560 60000 10320 20163 82841 333 56999=

48099 32456 42302 10318 20200 40151 84800 333 56500

58010=

48101 32960 03201 10303 20185 333=

48103 32957 00402 10320 20163 40144 333 58005=

48057 32458 52201 10218 20087 82806 333 56509=

48094 32960 03201 10315 20210 40152 333 58008=

48097 32557 30501 10320 20163 40166 83500 333 56900

58008=

48031 31260 40401 10205 29026 70511 80040 333 56040=

48033 32963 03601 10290 20140 40151 333 58008=

48034 32457 11802 10240 20095 81500 333 56500=

48039 31956 31402 10280 20158 70511 80002 333 56005=

48043 32657 32705 10230 20097 81202 333 56909=

48052 32470 33201 10288 20159 83800 333 56900=

48055 32556 41804 10258 20138 40138 83801 333 56509

58010=

48064 32960 12201 10290 20179 40141 80001 333 56009

58006=

48065 32970 12203 10285 20159 80001 333 56009=

48074 32560 11403 10300 20166 40155 81500 333 56900

58006=

48092 31557 30401 10325 20157 40139 70522 81430 333

56990 58009=

48093 32957 10901 10305 20203 80001 333 56009=

48107 32950 00402 10328 20151 40129 333 58010=  





