



*-*-*


<!--
.style2 {
	font-family:"Courier New", Courier, monospace;
	font-size: 14px;
}
-->






SMBM01 VBRR 091242

AAXX 09124

48001 NIL=

48004 21110 80000 10160 20160 75095 8697/ 333 10174 56559=

48008 21440 61401 10195 20168 40095 75099 84970 333 10268 56340 59015=

48010 21420 70000 10165 20165 40124 70165 84770 333 10175 56550 58010=

48018 21556 73203 10210 20195 40096 75095 84970 333 10270 56550 59015=

48019 21440 70000 10186 20180 40089 79599 85970 333 10267 56450 59012=

48020 21220 63602 10185 20175 70522 86400 333 10190 56100=

48025 32458 63202 10210 20160 40119 83840 333 10238 56550 59003=

48030 32150 22203 10090 20018 82800 333 10170 56500=

48031 32250 23201 10150 20047 82800 333 10170 56900=

48033 32562 43601 10230 20163 40100 84900 333 10300 56500 59002=

48034 32456 20000 10160 20123 82500 333 10210 56500=

48035 31520 30000 10178 20147 40087 71799 83900 333 10225 56400 59003=

48037 32520 33602 10237 20155 40084 82520 333 10297 56550 59003=

48039 32460 22201 10251 20126 82800 333 10308 56500=

48042 32557 20000 10260 20160 40090 82800 333 10310 56900 59004=

48043 32550 70000 10170 20097 8587/ 333 10242 56599=

48045 32557 31805 10140 20107 83800 333 10199 56500=

48048 32950 01801 10272 20113 40079 333 10315 59009=

48051 32558 30000 10210 20160 83800 333 10250 56900=

48052 32450 32203 10262 20102 83800 333 10322 56900=

48053 32950 02202 10240 20095 40094 333 10300 59002=

48055 22456 62308 10203 20130 40093 86300 333 10237 56500 59012=

48057 32456 11401 10152 20073 81500 333 10194 56900=

48060 21910 90000 10170 20154 40150 75065 89/// 333 10195 56999 58004=

48062 31550 40000 10232 20200 40137 70522 82530 333 10275 56990 58022=

48064 32550 13601 10250 20219 40082 81500 333 10293 56900 59006=

48065 32450 73205 10250 20105 84870 333 10305 56990=

48071 31456 23204 10235 20114 40127 70500 82800 333 10265 56900 58022=

48072 32456 23204 10230 20181 82300 333 10280 56600=

48074 32956 00000 10240 20136 40109 333 10296 58003=

48075 32456 70000 10200 20170 40136 85850 333 10245 56590 58012=

48077 32556 03202 10250 20068 40104 333 10302 58016=

48078 32550 41401 10256 20217 40110 81531 333 10303 56999 58003=

48080 32956 03201 10230 20198 40133 333 10280 58004=

48085 32956 03205 10240 20136 40121 333 10273 58009=

48087 32930 10000 10240 20209 80040 333 10306 56090=

48092 31456 72301 10270 20163 40103 70522 84570 333 10300 56990 58009=

48093 32940 32301 10257 20203 80041 333 10282 56059=

48094 32956 00000 10240 20170 40127 333 10288 58017=

48095 32456 20902 10280 20184 82200 333 10305 56900=

48097 32456 72602 10240 20162 40138 82850 333 10295 56990 58014=

48099 21220 82301 10224 20224 40126 75165 8697/ 333 10270 5659/ 58009=

48101 32650 40000 10248 20186 70122 81131 333 10284 56499=

48103 21420 80401 10219 20219 40129 76066 8677/ 333 10250 5619/ 58019=

48107 21330 82301 10230 20230 40121 76065 8597/ 333 10265 5611/ 58009=

48108 32595 71401 10270 20233 40124 84376 333 10320 56499 58001=

48109 32996 00401 10272 20191 40129 333 10300 58004=

48110 21595 83202 10290 20248 40114 70255 82307 333 10315 56209 59004=

48112 32598 60402 10285 20233 40114 82216 333 10310 56199 58005=  





