



*-*-*


<!--
.style2 {
	font-family:"Courier New", Courier, monospace;
	font-size: 14px;
}
-->






SIBM20 VBRR 090300

AAXX 09034

48001 21430 80000 10235 20226 40074 75055 8477/ 333

56339 59006=

48004 31110 83201 10250 20250 75052 8597/ 333 56559=

48008 21450 80000 10265 20240 40053 75022 8497/ 333

56459 59006=

48010 22556 71801 10290 20259 40040 86801 333 56606

59006=

48018 22558 72701 10290 20248 40063 70122 83872 333

56559 58010=

48019 22458 73201 10275 20256 40055 85760 333 56560

59001=

48020 32460 33602 10320 20235 83800 333 56500=

48025 32430 33601 10335 20240 40036 83800 333 56900

59008=

48035 32560 72204 10279 20220 40050 85960 333 56190

58001=

48037 32560 62201 10310 20237 40044 82839 333 56379

59007=

48042 32558 31805 10320 20236 40051 81252 333 56499

59005=

48045 32560 61805 10249 20167 86600 333 56500=

48048 32560 21803 10325 20236 40044 82800 333 56900

59003=

48051 21458 21301 10253 20240 75355 86920 333 56490=

48053 22456 61805 10280 20233 40078 83556 333 56599

58014=

48060 31440 40000 10283 20203 40058 83830 333 56560

58002=

48062 21340 81804 10252 20252 40086 79696 869// 333

564// 58013=

48071 21356 80000 10250 20250 40091 76366 8692/ 333

5659/ 58001=

48075 22457 62201 10260 20230 40091 85730 333 56590

58002=

48077 32559 72302 10294 20259 40073 85931 333 56499

59001=

48078 22550 71801 10266 20251 40097 8457/ 333 56499

58006=

48080 21458 80401 10260 20246 40102 75065 85770 333

56590 59007=

48085 22458 80902 10294 20274 40084 85970 333 56990

59007=

48095 22458 80000 10285 20268 84970 333 56990=

48108 22596 63601 10295 20244 40101 83376 333 56879

59005=

48109 32457 61801 10306 20267 40093 84970 333 56990

59002=

48110 32596 63203 10315 20259 40100 82336 333 56999

58007=

48112 32597 80401 10310 20254 40108 83876 333 56199

58010=

48030 32250 82201 10199 20168 87940 333 56560=

48072 21459 82301 10280 20268 75065 86970 333 56590=

48087 22556 62301 10300 20253 80041 333 56999=

48099 22450 73202 10288 20259 40093 85930 333 56790

59008=

48101 22558 80000 10288 20248 8477/ 333 5699/=

48103 22350 73202 10287 20259 40091 86730 333 56770

59013=

48057 32458 82202 10216 20173 86350 333 56690=

48094 22459 72201 10270 20260 40088 85970 333 56590

59004=

48097 22557 63301 10290 20248 40100 84830 333 56990

58003=

48031 32260 20201 10243 20174 82800 333 56900=

48033 32562 61801 10310 20237 40057 85930 333 56550

58001=

48034 32456 81802 10221 20205 8692/ 333 5659/=

48039 32460 32201 10308 20237 82801 333 56409=

48043 32556 61807 10255 20203 82230 333 56590=

48052 32458 32202 10240 20225 82201 333 56909=

48055 32556 63201 10365 20207 40057 85830 333 56660

59001=

48064 32460 63201 10320 20265 40041 84831 333 56449

58006=

48065 22557 50402 10327 20258 84530 333 56990=

48074 22358 82303 10267 20256 40100 8577/ 333 56499

58016=

48092 22457 71301 10282 20254 40076 84871 333 56999

59003=

48093 22557 61401 10288 20248 84370 333 56390=

48107 22350 62301 10278 20250 40095 84970 333 56550

59003=  





