



*-*-*


<!--
.style2 {
	font-family:"Courier New", Courier, monospace;
	font-size: 14px;
}
-->






SIBM20 VBRR 090900

AAXX 09094

48001 32450 61401 10310 20203 40027 83852 333 56777 58001=

48004 32560 11301 10350 20219 81100 333 56900=

48008 32557 21402 10322 20200 40049 81430 333 56430 58009=

48010 32560 21801 10350 20237 40042 82400 333 56600 58003=

48018 32560 31402 10335 20212 40060 81142 333 56459 58008=

48019 32960 00402 10320 20248 40046 333 58018=

48020 32358 20402 10380 20240 82200 333 56500=

48025 31440 33202 10383 20203 40033 70444 82840 333 56590 59001=

48030 32256 32202 10250 20167 83800 333 56500=

48031 31260 31401 10270 20154 70544 83800 333 56400=

48033 32963 02301 10360 20249 40033 333 58005=

48034 32457 52302 10287 20179 85800 333 56500=

48035 31550 70000 10287 20179 40034 70522 85960 333 56590 58036=

48037 32560 13602 10390 20198 40025 81100 333 56600 59005=

48039 32960 30000 10351 20219 80002 333 56009=

48042 32557 12701 10365 20241 40033 81200 333 56900 58004=

48043 32656 43203 10270 20211 84800 333 56500=

48045 31557 31403 10306 20146 70444 83800 333 56500=

48048 32960 03601 10417 20226 40032 333 58008=

48051 32559 50902 10370 20250 84930 333 56790=

48052 32970 00402 10420 20202=

48053 32456 61802 10390 20267 40022 84950 333 56590 59004=

48055 32556 40403 10326 20187 40006 84800 333 56400 59033=

48057 32458 42302 10270 20172 84300 333 56600=

48060 31440 33202 10338 20164 40015 70544 81130 333 56560 58018=

48062 32558 22707 10340 20290 40060 82200 333 56900 58003=

48064 32970 00401 10415 20240 40070 333 59001=

48065 32970 10401 10412 20210 80001 333 56009=

48071 32960 03204 10348 20266 40063 333 58000=

48072 32460 10405 10350 20280 81200 333 56900=

48074 32461 31402 10380 20255 40037 83800 333 56400 58001=

48075 32457 51801 10340 20230 40019 83810 333 56590 59008=

48077 32559 20000 10380 20221 40028 81201 333 56909 58002=

48078 32558 41802 10394 20294 40037 83801 333 56409 59007=

48080 32961 02205 10360 20264 40057 333 58011=

48085 32458 12705 10340 20257 40056 81800 333 56900 58000=

48087 32560 42301 10390 20233 83840 333 56990=

48092 32458 22305 10390 20243 40020 82200 333 56900 59001=

48093 32558 32301 10384 20240 83800 333 56500=

48094 32461 23203 10380 20280 40051 82900 333 56900 59007=

48095 32560 42201 10398 20267 82840 333 56990=

48097 32557 22402 10380 20255 40050 82800 333 56900 59006=

48099 32458 41802 10378 20221 40042 84900 333 56500 58002=

48101 32560 31404 10332 20258 83300 333 56500=

48103 32457 22201 10360 20249 40050 82800 333 56500 58003=

48107 32350 42302 10350 20237 40048 84900 333 56700 58001=

48108 32596 63203 10350 20266 40060 83306 333 56309 59002=

48109 32497 30401 10350 20266 40075 83900 333 56900 58004=

48110 32496 82303 10330 20258 40073 84307 333 56909 58008=

48112 NIL=  
SIBM20 VBRR 090900

AAXX 09094

48001 32450 61401 10310 20203 40027 83852 333 56777

58001=

48004 32560 11301 10350 20219 81100 333 56900=

48008 32557 21402 10322 20200 40049 81430 333 56430

58009=

48010 32560 21801 10350 20237 40042 82400 333 56600

58003=

48018 32560 31402 10335 20212 40060 81142 333 56459

58008=

48019 32960 00402 10320 20248 40046 333 58018=

48020 32358 20402 10380 20240 82200 333 56500=

48025 31440 33202 10383 20203 40033 70444 82840 333

56590 59001=

48035 31550 70000 10287 20179 40034 70522 85960 333

56590 58036=

48037 32560 13602 10390 20198 40025 81100 333 56600

59005=

48042 32557 12701 10365 20241 40033 81200 333 56900

58004=

48045 31557 31403 10306 20146 70444 83800 333 56500=

48048 32960 03601 10417 20226 40032 333 58008=

48051 32559 50902 10370 20250 84930 333 56790=

48053 32456 61802 10390 20267 40022 84950 333 56590

59004=

48060 31440 33202 10338 20164 40015 70544 81130 333

56560 58018=

48062 NIL=

48071 32960 03204 10348 20266 40063 333 58000=

48075 32457 51801 10340 20230 40019 83810 333 56590

59008=

48077 32559 20000 10380 20221 40028 81201 333 56909

58002=

48078 32558 41802 10394 20294 40037 83801 333 56409

59007=

48080 32961 02205 10360 20264 40057 333 58011=

48085 32458 12705 10340 20257 40056 81800 333 56900

58000=

48095 32560 42201 10398 20267 82840 333 56990=

48108 32596 63203 10350 20266 40060 83306 333 56309

59002=

48109 32497 30401 10350 20266 40075 83900 333 56900

58004=

48110 32496 82303 10330 20258 40073 84307 333 56909

58008=

48112 NIL=

48030 32256 32202 10250 20167 83800 333 56500=

48072 32460 10405 10350 20280 81200 333 56900=

48087 32560 42301 10390 20233 83840 333 56990=

48099 32458 41802 10378 20221 40042 84900 333 56500

58002=

48101 32560 31404 10332 20258 83300 333 56500=

48103 32457 22201 10360 20249 40050 82800 333 56500

58003=

48057 32458 42302 10270 20172 84300 333 56600=

48094 32461 23203 10380 20280 40051 82900 333 56900

59007=

48097 32557 22402 10380 20255 40050 82800 333 56900

59006=

48031 31260 31401 10270 20154 70544 83800 333 56400=

48033 32963 02301 10360 20249 40033 333 58005=

48034 32457 52302 10287 20179 85800 333 56500=

48039 32960 30000 10351 20219 80002 333 56009=

48043 32656 43203 10270 20211 84800 333 56500=

48052 32970 00402 10420 20202 333=

48055 32556 40403 10326 20187 40006 84800 333 56400

59033=

48064 32970 00401 10415 20240 40070 333 59001=

48065 32970 10401 10412 20210 80001 333 56009=

48074 32461 31402 10380 20255 40037 83800 333 56400

58001=

48092 32458 22305 10390 20243 40020 82200 333 56900

59001=

48093 32558 32301 10384 20240 83800 333 56500=

48107 32350 42302 10350 20237 40048 84900 333 56700

58001=  





