



*-*-*


<!--
.style2 {
	font-family:"Courier New", Courier, monospace;
	font-size: 14px;
}
-->






SIBM20 VBRR 090900

AAXX 09094

48001 NIL=

48004 31558 30401 10324 20163 70511 83800 333 56500=

48008 32558 21401 10333 20106 40121 82200 333 56300

58023=

48010 32060 02301 10340 20145 40108 333 58011=

48018 32960 01401 10340 20165 40130 333 58028=

48019 32960 00402 10323 20184 40119 333 58017=

48020 NIL=

48025 31956 00402 10345 20145 40116 70544 333 58008=

48035 31940 00000 10324 20089 40073 70400 333 58014=

48037 31956 03601 10373 20148 40084 70544 333 59001=

48042 32957 03202 10370 20156 40096 333 58015=

48045 NIL=

48048 32960 00401 10380 20159 40106 333 58013=

48051 32960 01403 10380 20150 70200 80000 333 56000=

48053 31950 01802 10380 20187 40098 70500 333 58015=

48060 32940 02702 10332 20151 40088 333 58018=

48062 32958 02702 10320 20240 40122 333 58016=

48071 32960 03203 10304 20253 40129 333 58020=

48075 31957 03201 10355 20106 40086 70500 333 59019=

48077 32959 03201 10390 20177 40095 333 58005=

48078 32958 11401 10376 20180 40106 80001 333 56009

58008=

48080 32960 02208 10342 20225 40110 333 58006=

48085 32958 03203 10310 20237 40117 333 58011=

48095 32960 02201 10370 20207 333=

48108 32596 43206 10350 20238 40116 82306 333 56709

58005=

48109 NIL=

48110 31596 41303 10370 20246 40114 70522 82306 333

56209 58011=

48112 32597 82702 10350 20240 40113 83876 333 58015=

48030 32956 02203 10272 29010 333=

48072 32960 02704 10330 20258 70122 333 56000=

48087 NIL=

48099 32560 22302 10375 20187 40106 82800 333 56500

58011=

48101 32960 01801 10343 20206 333=

48103 32957 02201 10368 20207 40108 333 58007=

48057 32960 01502 10296 20098 333=

48094 32960 03201 10365 20205 40112 333 58011=

48097 32957 12303 10370 20125 40120 80001 333 56009

58014=

48031 31960 01801 10280 20043 70522 333=

48033 32963 03601 10370 20190 40113 333 58020=

48034 31958 01804 10306 20124 70500 333=

48039 32959 33201 10369 20213 80002 333 56009=

48043 32058 03205 10300 20149 333=

48052 32970 02202 10400 20176 333=

48055 31956 02702 10340 20135 40063 70500 333 58019=

48064 32970 01401 10386 20233 40089 333 58022=

48065 32970 00000 10395 20196 333=

48074 31961 03203 10375 20159 40116 70500 333 58022=

48092 32958 02302 10370 20199 40095 333 58018=

48093 32958 02301 10364 20214 333=

48107 32950 02702 10342 20225 40104 333 58004=  
SIBM20 VBRR 090900

AAXX 09094
48001 NIL=
48004 31558 30401 10324 20163 70511 83800 333 56500=
48008 32558 21401 10333 20106 40121 82200 333 56300 58023=
48010 32060 02301 10340 20145 40108 333 58011=
48018 32960 01401 10340 20165 40130 333 58028=
48019 32960 00402 10323 20184 40119 333 58017=
48020 NIL=
48025 31956 00402 10345 20145 40116 70544 333 58008=
48030 32956 02203 10272 29010 333=
48031 31960 01801 10280 20043 70522 333=
48033 32963 03601 10370 20190 40113 333 58020=
48034 31958 01804 10306 20124 70500 333=
48035 31940 00000 10324 20089 40073 70400 333 58014=
48037 31956 03601 10373 20148 40084 70544 333 59001=
48039 32959 33201 10369 20213 80002 333 56009=
48042 32957 03202 10370 20156 40096 333 58015=
48043 32058 03205 10300 20149 333=
48045 NIL=
48048 32960 00401 10380 20159 40106 333 58013=
48051 NIL=
48052 32970 02202 10400 20176 333=
48053 31950 01802 10380 20187 40098 70500 333 58015=
48055 31956 02702 10340 20135 40063 70500 333 58019=
48057 32960 01502 10296 20098 333=
48060 32940 02702 10332 20151 40088 333 58018=
48062 32958 02702 10320 20240 40122 333 58016=
48064 32970 01401 10386 20233 40089 333 58022=
48065 32970 00000 10395 20196 333=
48071 32960 03203 10304 20253 40129 333 58020=
48072 32960 02704 10330 20258 70122 333 56000=
48074 31961 03203 10375 20159 40116 70500 333 58022=
48075 31957 03201 10355 20106 40086 70500 333 59019=
48077 32959 03201 10390 20177 40095 333 58005=
48078 32958 11401 10376 20180 40106 80001 333 56009 58008=
48080 32960 02208 10342 20225 40110 333 58006=
48085 32958 03203 10310 20237 40117 333 58011=
48087 NIL=
48092 32958 02302 10370 20199 40095 333 58018=
48093 32958 02301 10364 20214 333=
48094 32960 03201 10365 20205 40112 333 58011=
48095 32960 02201 10370 20207 333=
48097 32957 12303 10370 20125 40120 80001 333 56009 58014=
48099 32560 22302 10375 20187 40106 82800 333 56500 58011=
48101 32960 01801 10343 20206 333=
48103 32957 02201 10368 20207 40108 333 58007=
48107 32950 02702 10342 20225 40104 333 58004=
48108 32596 43206 10350 20238 40116 82306 333 56709 58005=
48109 NIL=
48110 31596 41303 10370 20246 40114 70522 82306 333 56209 58011=
48112 32597 82702 10350 20240 40113 83876 333 58015=  





