



*-*-*


<!--
.style2 {
	font-family:"Courier New", Courier, monospace;
	font-size: 14px;
}
-->






SMBM01 VBRR 091800

NIL=  
SMBM01 VBRR 091800 RRA

AAXX 09184

48008 32510 20000 10250 20205 40053 81430 333 56450 59004=

48010 32561 40000 10255 20229 40040 82430 333 56550 59005=

48018 32920 00000 10255 20219 40075 333 59008=

48025 31905 00000 10305 20223 40052 70444 333 59008=

48042 32550 10000 10302 20239 40040 81100 333 56900 59005=

48053 32940 00000 10300 20239 40045 333 58004=

48057 32439 32201 10222 20173 82850 333 56690=

48060 32420 20000 10222 20173 40064 81130 333 56590 59014=

48062 32550 52706 10295 20270 40080 82930 333 56690 58006=

48071 32920 02703 10295 20266 40065 333 58000=

48078 32550 51405 10308 20231 40065 83531 333 56599 59001=

48080 32950 00000 10283 20250 40083 333 58002=

48094 32950 00000 10286 20260 40077 333 58006=

48097 32556 22302 10290 20254 40077 82500 333 56900 59001=

48099 32330 60000 10290 20248 40066 83830 333 56990 59007=

48103 32410 42201 10300 20239 40065 84800 333 56500 58003=

48108 32596 63201 10270 20240 40098 83306 333 56909 58003=

48109 NIL=

48110 31595 61303 10265 20251 40091 70299 81356 333 56999 58001=

48112 21597 80402 10270 20256 40080 70165 83876 333 56199 59006=  





