



*-*-*


<!--
.style2 {
	font-family:"Courier New", Courier, monospace;
	font-size: 14px;
}
-->






SIBM20 VBRR 090300

AAXX 09034

48001 31210 80000 10140 20124 40196 74344 886// 333

56599 59002=

48004 31560 42201 10201 20150 84800 333 56500=

48008 32558 10401 10210 20175 40179 81100 333 56400

58003=

48010 32058 00000 10210 20175 40177 333 58002=

48018 31960 01401 10205 20185 40174 70144 333 58002=

48019 32956 03602 10238 20174 40169 333 59001=

48020 31457 23604 10230 20206 70144 82800 333 56800=

48025 31008 70000 10218 20205 40176 74244 87600 333

56600 59008=

48035 32560 30000 10202 20168 40156 83800 333 56900

59010=

48037 32558 33201 10247 20205 40144 81130 333 56450

59010=

48042 32557 30000 10253 20219 40150 81252 333 56999

59005=

48045 32557 32203 10172 20154 81131 333 56569=

48048 32560 40401 10265 20203 40159 84800 333 56800

59005=

48051 32960 23603 10256 20230 80006 333 56009=

48053 32556 33602 10260 20203 40153 81506 333 56509

59008=

48060 32440 10000 10233 20181 40169 81100 333 56300

58001=

48062 32456 50402 10270 20240 40137 83832 333 56199

59008=

48071 NIL=

48075 32457 20000 10240 20209 40163 82100 333 56500

59013=

48077 32559 30401 10280 20220 40137 82201 333 56909

59011=

48078 32557 20401 10270 20226 40148 81501 333 56909

59008=

48080 32460 32201 10275 20240 40133 82830 333 56990

59010=

48085 32458 72701 10292 20230 40132 83839 333 56999

59007=

48095 32958 20403 10280 20233 80002 333 56009=

48108 22596 50000 10292 20256 40134 82806 333 56909

59005=

48109 22496 80000 10275 20250 40131 8597/ 333 5699/

58026=

48110 21596 71801 10295 20256 40130 70522 81136 333

56999 59007=

48112 21597 80403 10275 20262 40125 70152 84876 333

56199 59007=

48030 31/09 92202 10110 20110 74344 89/// 333 56999=

48072 32460 23202 10300 20239 82300 333 56600=

48087 32560 80403 10288 20230 83841 333 56899=

48099 21450 33202 10305 20239 40131 70511 82801 333

56909 58012=

48101 32959 20401 10295 20239 80005 333 56009=

48103 22456 30403 10308 20254 40134 81530 333 56110

59005=

48057 32957 31402 10230 20163 80031 333 56099=

48094 32459 20404 10310 20230 40139 81501 333 56909

59001=

48097 21557 30502 10285 20240 40150 70262 81406 333

56909 58002=

48031 32260 61401 10190 20159 86800 333 56400=

48033 32562 23601 10240 20191 40154 82500 333 56400

59006=

48034 32456 20401 10202 20130 82500 333 56500=

48039 31450 43201 10242 20209 74044 82102 333 56505=

48043 32058 30000 10215 20205 80032 333 56099=

48052 32458 23601 10278 20220 70211 82200 333 56900=

48055 32556 20000 10223 20185 40158 81130 333 56550

58000=

48064 32956 22301 10250 20219 40149 70300 80030 333

56090 59002=

48065 32956 10403 10268 20226 70122 80030 333 56090=

48074 32559 33206 10250 20205 40162 81560 333 56990

58006=

48092 31558 30000 10290 20248 40119 81431 333 56999

59010=

48093 32658 30401 10302 20253 81101 333 56309=

48107 22950 21301 10320 20248 40117 80006 333 56009

59008=

48096 32957 13602 10290 20243 40145 80001 333 56009

58002=  





