



*-*-*


<!--
.style2 {
	font-family:"Courier New", Courier, monospace;
	font-size: 14px;
}
-->






SIBM20 VBRR 090900

AAXX 09094

48001 32450 42701 10314 20254 40034 82230 333 56840

58013=

48004 32560 40401 10340 20270 84900 333 56500=

48008 32557 42301 10336 20257 40041 83970 333 56450

58007=

48010 32560 50000 10290 20259 40049 83831 333 56555

58017=

48018 32556 73202 10306 20253 40045 84870 333 56450

59002=

48019 32458 82302 10322 20265 40042 84670 333 56490

58003=

48020 21357 80403 10270 20256 72196 86930 333 56490=

48025 21220 80403 10291 20259 40056 79596 8592/ 333

56889 58021=

48035 32560 72201 10279 20220 40035 85960 333 56560

58020=

48037 32560 52701 10348 20240 40030 82339 333 56449

59044=

48042 32559 52202 10345 20231 40021 84902 333 56409

59004=

48045 21330 70404 10241 20226 74164 87300 333 56100=

48048 21560 72701 10320 20265 40041 72055 85950 333

56490 58018=

48051 32558 71802 10317 20280 85930 333 56490=

48053 32456 71802 10350 20237 40037 84956 333 56499

58003=

48060 21340 80000 10252 20233 40052 75165 8597/ 333

5659/ 58030=

48062 32458 42305 10320 20290 40042 83902 333 56909

59008=

48071 32460 73203 10310 20254 40035 85970 333 56990

59012=

48075 21558 61401 10282 20233 40041 70152 85340 333

56590 59009=

48077 32559 82302 10310 20254 40034 85970 333 56490

59014=

48078 31558 71801 10310 20261 40064 70399 84933 333

56499 58002=

48080 NIL=

48085 21458 81402 10272 20256 40045 75095 86970 333

56490 59014=

48095 21456 80000 10305 20282 75195 85970 333 56990=

48108 21495 82301 10255 20248 40080 75065 8537/ 333

5669/ 59013=

48109 NIL=

48110 21495 83202 10280 20250 40096 70255 84357 333

56699 58001=

48112 21496 81402 10255 20255 40092 75055 8697/ 333

5649/ 58004=

48030 21150 80401 10197 20197 75255 8694/ 333 56189=

48072 32460 42701 10320 20267 83830 333 56590=

48087 22558 72301 10280 20268 70365 84971 333 56499=

48099 21456 62302 10302 20253 40054 70155 84930 333

56590 59022=

48101 32559 61402 10302 20266 83371 333 56599=

48103 32456 62201 10310 20267 40057 85770 333 56550

59018=

48057 21458 81402 10230 20214 70155 86970 333 56490=

48094 21458 82201 10270 20270 40053 72166 8597/ 333

56999 59018=

48097 21557 80401 10270 20270 40065 76065 8697/ 333

5699/ 59020=

48031 31/05 92201 10230 20214 74794 89/// 333 56999=

48033 32563 50000 10340 20288 40033 85900 333 56400

58011=

48034 21248 82302 10230 20228 75165 8692/ 333 5659/=

48039 32460 70000 10325 20248 83802 333 56404=

48043 22556 81803 10230 20230 8587/ 333 56599=

48052 32468 50000 10348 20240 85900 333 56900=

48055 32356 70402 10270 20226 40032 85906 333 56309

58018=

48064 32960 23201 10335 20288 40029 80031 333 56099

58002=

48065 32558 32201 10340 20257 82801 333 56909=

48074 32461 61803 10330 20258 40051 83361 333 56549

58000=

48092 21456 81802 10260 20253 40038 79596 8597/ 333

5649/ 59016=

48093 21557 52301 10302 20253 70265 84801 333 56309=

48107 21330 82302 10258 20246 40071 76066 8597/ 333

5655/ 59011=

48096 21430 80203 10250 20250 40070 76165 8597/ 333

5699/ 59002=  





