



*-*-*


<!--
.style2 {
	font-family:"Courier New", Courier, monospace;
	font-size: 14px;
}
-->






SIBM20 VBRR 100300

AAXX 10034
48001 21440 80000 10175 20165 40158 71522 8672/ 333 56849 58016=
48004 32562 10402 10255 20179 81100 333 56900=
48008 32557 33601 10250 20150 40121 81440 333 56960 58006=
48010 32540 60000 10240 20209 40120 82461 333 56566 58014=
48018 22558 30401 10275 20184 40107 83800 333 56900 58009=
48019 32960 00403 10257 20167 40116 333 58012=
48020 32958 03604 10260 20215=
48025 32430 11401 10282 20158 40112 81500 333 56900 58006=
48030 32256 12201 10186 20096 81200 333 56500=
48031 31259 20401 10220 20111 70544 82200 333 56900=
48033 32963 03601 10320 20200 40088 333 58007=
48034 22456 30402 10227 20198 83800 333 56500=
48035 21530 60000 10207 20175 40125 70496 84960 333 56560 58031=
48037 32957 03601 10281 20184 40094 333 58002=
48039 32960 01301 10300 20223=
48042 31556 11806 10324 20215 40108 70511 81100 333 56900 58019=
48043 32058 33206 10250 20167 80030 333 56050=
48045 32562 21402 10231 20097 82800 333 56500=
48048 22958 00401 10321 20215 40107 333 58008=
48051 32558 53602 10296 20250 85800 333 56800=
48052 32470 22202 10330 20212 82200 333 56900=
48053 32540 61805 10300 20253 40115 83856 333 56599 58017=
48055 21556 12302 10233 20181 40114 70511 81500 333 56500 58019=
48057 22458 12201 10236 20155 81500 333 56600=
48060 21430 60000 10227 20198 40125 74144 84830 333 56560 58011=
48062 32556 80902 10290 20270 40124 86970 333 56990 58011=
48064 32960 02301 10330 20258 40095 333 58007=
48065 32960 10000 10328 20212 80001 333 56000=
48071 32458 43201 10290 20248 40130 84800 333 56900 58022=
48072 32459 41301 10300 20253 83830 333 56690=
48074 31558 21403 10301 20239 40134 70500 82400 333 56300 58025=
48075 32557 10000 10290 20200 40107 81100 333 56500 59009=
48077 32959 02301 10294 20215 40109 333 58007=
48078 32557 21801 10313 20242 40123 81501 333 56909 58009=
48080 32459 50402 10300 20253 40136 84870 333 56690 58020=
48085 32458 32703 10303 20253 40125 83800 333 56700 58014=
48087 32960 02301 10308 20237=
48092 31456 31803 10300 20239 40110 70522 83100 333 56400 58004=
48093 32958 01401 10320 20248=
48094 32958 03203 10300 20250 40126 333 58017=
48095 32558 60000 10305 20253 83840 333 56990=
48096 32458 12603 10310 20237 40136 81500 333 56900 58017=
48097 32557 23201 10310 20254 40123 82500 333 56900 58007=
48099 21450 42301 10302 20252 40123 70511 84300 333 56500 58003=
48101 32659 10000 10300 20239 81100 333 56500=
48103 22456 73201 10312 20254 40130 87800 333 56700 58008=
48107 31350 40901 10290 20230 40116 70144 84900 333 56200 58003=
48108 22596 73201 10285 20249 40131 84866 333 56699 58003=
48109 32997 00401 10310 20254 40137 333 58009=
48110 31596 70000 10315 20266 40130 70522 82206 333 56909 58006=
48112 32598 60401 10315 20242 40126 82216 333 56199 58010=  





