



*-*-*


<!--
.style2 {
	font-family:"Courier New", Courier, monospace;
	font-size: 14px;
}
-->






SIBM20 VBRR 100900

AAXX 10094

48001 NIL=

48004 32340 80000 10282 20268 8497/ 333 56559=

48008 21457 82902 10266 20240 40046 75095 8497/ 333

56459 58022=

48010 32557 70000 10280 20268 40039 85870 333 56440

58006=

48018 21556 82301 10250 20246 40046 76366 8497/ 333

56999 58025=

48019 21458 80000 10270 20256 40042 75155 8577/ 333

56459 58014=

48020 32456 83602 10370 20267 88700 333 56500=

48025 32330 81401 10296 20266 40038 8577/ 333 56559

58007=

48035 21256 80000 10231 20214 40039 76266 8692/ 333

56999 58023=

48037 32560 71801 10351 20237 40018 84336 333 56544

58009=

48042 21250 80000 10265 20265 40028 79222 8597/ 333

56449 58011=

48045 21030 81404 10234 20214 74764 887// 333 56599=

48048 32558 72201 10370 20246 85950 333 56490 58013=

48051 22558 73103 10301 20250 85930 333 56490=

48053 32456 61802 10340 20288 40028 84950 333 56490

59003=

48060 31340 71801 10285 20218 40010 71722 85930 333

56590 58035=

48062 22457 72309 10310 20280 40034 85970 333 56590

59006=

48071 32460 72303 10300 20266 40035 85970 333 56590

59001=

48075 32457 52201 10290 20230 40038 83860 333 56350

59017=

48077 NIL=

48078 32558 41801 10316 20267 40040 83801 333 56409

59004=

48080 31458 80401 10281 20250 40045 70255 85870 333

56590 58003=

48085 32458 63203 10320 20281 40040 84806 333 56509

59003=

48095 32458 70000 10320 20281 70322 83970 333 56990=

48108 21595 73201 10300 20239 40062 75055 84377 333

56899 59001=

48109 NIL=

48110 21596 81804 10320 20265 40065 70255 84367 333

56599 59008=

48112 22597 82203 10320 20265 40069 83876 333 56599

59005=

48030 21120 80401 10190 20175 75066 8794/ 333 56199=

48072 22430 61806 10295 20266 84970 333 56590=

48087 32560 40000 10330 20258 82841 333 56999=

48099 NIL=

48101 32559 72701 10315 20248 70322 84370 333 56590=

48103 21450 81401 10285 20250 40044 70255 86770 333

56550 59003=

48057 32458 72203 10238 20191 84950 333 56590=

48094 21458 72202 10295 20255 40042 76066 8597/ 333

56599 58002=

48097 32557 72305 10295 20244 40049 86330 333 56590

59015=

48031 21/05 92201 10205 20203 76064 89/// 333 56999=

48033 32562 60000 10300 20253 40028 86900 333 56400

58001=

48034 21356 81801 10225 20209 75065 8692/ 333 56599=

48039 21459 82201 10249 20249 76366 887// 333 56599=

48043 32556 83203 10250 20219 8487/ 333 56599=

48052 32465 72701 10375 20255 85920 333 56990=

48055 21456 80406 10251 20219 40031 71799 8697/ 333

56599 58020=

48064 32565 43601 10330 20291 40021 82831 333 56449

58009=

48065 32558 52205 10340 20270 83870 333 56490=

48074 32460 52302 10325 20265 40028 83351 333 56449

59024=

48092 32458 52303 10320 20265 40021 84830 333 56990

59006=

48093 NIL=

48107 32350 62701 10312 20267 40065 84970 333 56660

58002=  





