



*-*-*


<!--
.style2 {
	font-family:"Courier New", Courier, monospace;
	font-size: 14px;
}
-->






SMBM01 VBRR 101800

NIL=  
SMBM01 VBRR 101800

AAXX 10184

48008 31410 80000 10260 20246 40044 76166 8497/ 333 56569 58007=

48010 22401 80000 10250 20242 40052 8577/ 333 5655/ 58012=

48018 32520 70000 10280 20233 40052 8487/ 333 5699/ 58013=

48025 21305 70000 10255 20255 40062 72196 84970 333 56660 58025=

48042 32550 51804 10310 20237 40035 82850 333 56440 59012=

48053 32450 51801 10270 20240 40066 83956 333 56599 58016=

48057 32440 52301 10212 20195 84350 333 56590=

48060 32420 50000 10243 20209 40040 83130 333 56560 59001=

48062 32450 71805 10290 20270 40061 86920 333 56490 59010=

48071 22420 72302 10260 20260 40055 85970 333 56990 59005=

48078 NIL=

48080 22450 70000 10265 20229 40084 84870 333 56590 58002=

48094 21450 70000 10250 20240 40074 70196 85970 333 56590 59012=

48097 21556 60401 10255 20248 40095 70265 86500 333 56900 58001=

48099 22320 80000 10260 20246 40085 8694/ 333 5699/ 59006=

48103 32410 62202 10270 20240 40074 84730 333 56550 59008=

48108 21494 81402 10280 20259 40095 79595 8437/ 333 5699/ 58000=

48109 21495 70000 10276 20268 40072 75099 85970 333 56990 59009=

48110 32594 50000 10285 20254 40094 83206 333 56909 59004=

48112 21496 82201 10250 20250 40085 75055 8677/ 333 5659/ 59001=  





