



*-*-*


<!--
.style2 {
	font-family:"Courier New", Courier, monospace;
	font-size: 14px;
}
-->






SMBM01 VBRR 100000

AAXX 10004

48001 NIL=

48004 NIL=

48008 32556 20000 10215 20185 40072 81430 333 20203 56450 59002=

48010 32540 30000 10240 20209 40053 81430 333 20225 56550 59003=

48018 32556 40000 10230 20198 40047 82870 333 20215 56560 59031=

48019 32450 20000 10220 20205 40063 80010 333 20217 56060 59012=

48020 NIL=

48025 31410 62201 10262 20203 40055 85840 333 20258 56690 59016=

48030 NIL=

48031 NIL=

48033 32560 40000 10270 20240 40053 84800 333 20260 56600 59017=

48034 32456 40000 10160 20144 84500 333 20152 56100=

48035 31905 00000 10186 20175 40083 74144 333 20170 59005=

48037 32530 63201 10275 20233 40036 84110 333 20263 56660 59015=

48039 32456 60000 10273 20240 83402 333 20270 56505=

48042 32556 30000 10280 20233 40049 83800 333 20268 56500 59008=

48043 32630 40000 10195 20185 82230 333 20160 56990=

48045 NIL=

48048 32950 00401 10273 20211 40048 333 20267 59012=

48051 NIL=

48052 32456 22201 10300 20223 82200 333 20295 56900=

48053 32950 01802 10280 20250 40072 333 20278 58020=

48055 31556 30000 10186 20176 40080 70511 83500 333 20177 56600

 59015=

48057 32457 41401 10200 20185 81551 333 20190 56499=

48060 31430 20000 10200 20168 40098 74044 82100 333 20180 56500

 59005=

48062 32556 50000 10280 20270 40075 84930 333 20250 56990 58009=

48064 32950 00000 10294 20230 40048 333 20244 58002=

48065 32950 10000 10289 20230 80003 333 56009=

48071 21450 63201 10280 20268 40076 76066 84970 333 20275 56790 58000

 60022=

48072 NIL=

48074 32557 41401 10285 20250 40081 82550 333 20270 56430 58013=

48075 32956 00000 10225 20210 40091 333 20180 59010=

48077 32956 10000 10280 20233 40055 80001 333 20260 56009 59005=

48078 32556 20000 10288 20254 40078 81501 333 20262 56409 58017=

48080 31909 00000 10252 20219 40093 71000 333 20230 58004=

48085 32956 03201 10268 20240 40073 333 20265 58005=

48087 32950 00000 10267 20240 333 20247=

48092 31950 00000 10260 20253 40061 333 20250 58012=

48093 32950 03201 10273 20256 333 20267=

48094 32456 20000 10275 20250 40074 82500 333 20236 56900 58003=

48095 NIL=

48096 32957 12406 10270 20256 40083 80001 333 20255 56009 58003=

48097 32557 22402 10270 20256 40074 82500 333 20255 56900 59000=

48099 32440 50000 10278 20250 40073 84930 333 20250 56990 58001=

48101 32956 00000 10262 20262 333 20227=

48103 32440 62201 10281 20250 40082 86800 333 20260 56500 58008=

48107 32340 22701 10250 20233 40089 82900 333 20242 56700 58007=

48108 31593 70000 10240 20233 40089 71022 84366 333 20229 56999

 58003=

48109 NIL=

48110 31595 70000 10265 20251 40085 70522 82306 333 20260 56909

 58000=

48112 22597 80401 10270 20256 40084 83876 333 20210 56199 59004

 60382=  





