



*-*-*


<!--
.style2 {
	font-family:"Courier New", Courier, monospace;
	font-size: 14px;
}
-->






SIBM20 VBRR 100300

AAXX 10034

48001 31440 70401 10170 20135 40163 74222 83770 333

56120 59018=

48004 32456 50401 10208 20143 85300 333 56500=

48008 31557 31401 10220 20156 40139 70344 82230 333

56330 59017=

48010 32440 30000 10205 20168 40147 81530 333 56660

59024=

48018 31956 01401 10195 20159 40151 71044 333 59010=

48019 32960 03201 10200 20150 40148 333 59006=

48020 31330 33602 10210 20160 70500 82430 333 56590=

48025 91910 02701 10207 20143 40143 70544 333 59002=

48035 31950 00000 10181 20108 40155 70500 333 59008=

48037 31940 03601 10244 20136 40127 70544 333 59015=

48042 31956 01801 10280 20158 40126 70500 333 59019=

48045 32959 01402 10240 20034 333=

48048 32958 00401 10255 20148 40133 333 59015=

48051 32958 01301 10247 20150 333=

48053 31940 01802 10290 20159 40140 70500 333 58001=

48060 32940 00000 10203 20130 40173 333 59006=

48062 31950 00401 10230 20200 40145 71044 333 59002=

48071 31958 00000 10250 20233 40140 71044 333 59005=

48075 31957 02701 10220 20160 40171 70500 333 59002=

48077 32958 00000 10260 20179 40126 333 59017=

48078 32950 11401 10263 20196 40146 80001 333 56009

59003=

48080 31959 00401 10233 20198 40144 70244 333 59004=

48085 32958 00401 10262 20215 40140 333 59010=

48095 32958 00000 10280 20220 333=

48108 32596 43202 10290 20230 40148 82406 333 56909

59002=

48109 32497 50401 10266 20226 40155 83530 333 56990

58004=

48110 31596 21803 10300 20223 40141 70511 81305 333

56909 59009=

48112 32598 60401 10295 20230 40138 82216 333 56199

59010=

48030 32956 02202 10138 29037 333=

48072 31958 03201 10270 20226 70522 333=

48087 32960 00000 10270 20191 333=

48099 31450 20401 10292 20215 40141 70511 82500 333

56900 59014=

48101 32958 02701 10271 20226 333=

48103 32556 11401 10292 20230 40146 81500 333 56300

59009=

48057 32957 01401 10240 20114 333=

48094 32959 03202 10280 20150 40141 333 59019=

48097 31956 01403 10290 20206 40154 70500 333 58005=

48031 31960 00401 10232 29018 70500 333=

48033 32962 00000 10250 20167 40118 333 59024=

48034 31956 00000 10178 20108 71000 333=

48039 31950 20902 10265 20179 70511 80002 333 56005=

48043 NIL=

48052 32958 23201 10270 20154 333=

48055 31940 00000 10201 20109 40159 70500 333 59002=

48064 32960 01401 10250 20186 40115 333 59022=

48065 32968 00000 10280 20198 333=

48074 31950 02202 10272 20172 40146 70500 333 59010=

48092 31950 01303 10285 20218 40129 70500 333 59006=

48093 32956 00401 10258 20229 333=

48107 31940 02301 10256 20229 40130 333 59008=  
SIBM20 VBRR 100300 RRA

AAXX 10034

48043 32058 00000 10245 20150 333=  





