



*-*-*


<!--
.style2 {
	font-family:"Courier New", Courier, monospace;
	font-size: 14px;
}
-->






SIBM20 VBRR 100300

AAXX 10034

48001 32440 60000 10250 20203 40085 84850 333 56660 58018=

48004 31458 41301 10272 20154 70511 82800 333 56900=

48008 32557 31301 10270 20191 40078 82430 333 56430 59021=

48010 32540 80000 10265 20229 40079 8447/ 333 56599 59009=

48018 32958 01401 10280 20203 40065 333 59035=

48019 32960 03602 10290 20215 40072 333 59020=

48020 32350 80402 10300 20223 88700 333 56500=

48025 31440 13201 10320 20215 40071 70444 81500 333 56900 59013=

48030 31256 32201 10178 20165 70144 82840 333 56560=

48031 31259 20401 10244 20174 82800 333 56500=

48033 32562 60000 10310 20225 40057 86900 333 56400 59003=

48034 32456 32303 10222 20173 83800 333 56500=

48035 31530 33202 10253 20150 40075 70544 83800 333 56900 59020=

48037 32558 33601 10313 20203 40069 83100 333 56600 59002=

48039 32459 62201 10329 20244 84860 333 56550=

48042 32557 31803 10335 20237 40064 83800 333 56500 58013=

48043 32656 31803 10260 20215 83200 333 56500=

48045 31557 40402 10255 20138 70444 82306 333 56509=

48048 32960 02201 10293 20248 40064 333 59012=

48051 32559 43102 10312 20250 83830 333 56590=

48052 32970 02203 10345 20219=

48053 32956 01803 10320 20248 40069 333 58001=

48055 32556 11402 10276 20197 40065 81100 333 56500 59048=

48057 32458 42201 10234 20181 84300 333 56600=

48060 31440 20401 10270 20191 40068 71011 82100 333 56600 59012=

48062 32557 32703 10315 20280 40087 70322 84970 333 56690 58003=

48064 32960 00901 10345 20257 40060 333 58000=

48065 32960 00000 10350 20237=

48071 21458 43201 10280 20280 40086 72162 84900 333 56700 59008=

48072 32460 20402 10320 20265 70322 82300 333 56700=

48074 32559 21802 10310 20267 40094 82100 333 56300 58000=

48075 32957 00000 10290 20230 40087 333 58004=

48077 32959 00000 10320 20248 40075 333 58000=

48078 32556 41802 10311 20255 40086 83801 333 56409 58001=

48080 32460 53202 10321 20281 40096 84870 333 56690 59006=

48085 32458 43203 10320 20265 40081 82800 333 56800 58000=

48087 32960 00000 10304 20244=

48092 31456 12703 10320 20248 40066 70522 81100 333 56900 59006=

48093 32658 31401 10321 20248 83800 333 56500=

48094 32459 33202 10325 20270 40080 82940 333 56690 59002=

48095 32558 42203 10325 20265 70222 83840 333 56990=

48097 32557 22302 10320 20256 40096 82800 333 56900 58002=

48099 32456 22302 10325 20248 40086 82200 333 56500 59001=

48101 32559 53202 10315 20265 70322 84330 333 56690=

48103 32456 10401 10328 20258 40088 82800 333 56500 59004=

48107 32350 21301 10308 20254 40088 82900 333 56700 59001=

48108 32596 61302 10311 20260 40098 83306 333 56309 58003=

48109 32497 40000 10330 20258 40100 84900 333 56900 58000=

48110 32596 73204 10310 20267 40098 83306 333 56909 58004=

48112 22597 80401 10315 20275 40103 83876 333 56199 58005=  
SIBM20 VBRR 100300

AAXX 10034

48001 32440 60000 10250 20203 40085 84850 333 56660

58018=

48004 31458 41301 10272 20154 70511 82800 333 56900=

48008 32557 31301 10270 20191 40078 82430 333 56430

59021=

48010 32540 80000 10265 20229 40079 8447/ 333 56599

59009=

48018 32958 01401 10280 20203 40065 333 59035=

48019 32960 03602 10290 20215 40072 333 59020=

48020 32350 80402 10300 20223 88700 333 56500=

48025 31440 13201 10320 20215 40071 70444 81500 333

56900 59013=

48035 31530 33202 10253 20150 40075 70544 83800 333

56900 59020=

48037 32558 33601 10313 20203 40069 83100 333 56600

59002=

48042 32557 31803 10335 20237 40064 83800 333 56500

58013=

48045 31557 40402 10255 20138 70444 82306 333 56509=

48048 32960 02201 10293 20248 40064 333 59012=

48051 32559 43102 10312 20250 83830 333 56590=

48053 32956 01803 10320 20248 40069 333 58001=

48060 31440 20401 10270 20191 40068 71011 82100 333

56600 59012=

48062 32557 32703 10315 20280 40087 70322 84970 333

56690 58003=

48071 21458 43201 10280 20280 40086 72162 84900 333

56700 59008=

48075 32957 00000 10290 20230 40087 333 58004=

48077 32959 00000 10320 20248 40075 333 58000=

48078 32556 41802 10311 20255 40086 83801 333 56409

58001=

48080 32460 53202 10321 20281 40096 84870 333 56690

59006=

48085 32458 43203 10320 20265 40081 82800 333 56800

58000=

48095 32558 42203 10325 20265 70222 83840 333 56990=

48108 32596 61302 10311 20260 40098 83306 333 56309

58003=

48109 32497 40000 10330 20258 40100 84900 333 56900

58000=

48110 32596 73204 10310 20267 40098 83306 333 56909

58004=

48112 22597 80401 10315 20275 40103 83876 333 56199

58005=

48030 31256 32201 10178 20165 70144 82840 333 56560=

48072 32460 20402 10320 20265 70322 82300 333 56700=

48087 32960 00000 10304 20244 333=

48099 32456 22302 10325 20248 40086 82200 333 56500

59001=

48101 32559 53202 10315 20265 70322 84330 333 56690=

48103 32456 10401 10328 20258 40088 82800 333 56500

59004=

48057 32458 42201 10234 20181 84300 333 56600=

48094 32459 33202 10325 20270 40080 82940 333 56690 59002=

48097 32557 22302 10320 20256 40096 82800 333 56900

58002=

48031 31259 20401 10244 20174 82800 333 56500=

48033 32562 60000 10310 20225 40057 86900 333 56400

59003=

48034 32456 32303 10222 20173 83800 333 56500=

48039 32459 62201 10329 20244 84860 333 56550=

48043 32656 31803 10260 20215 83200 333 56500=

48052 32970 02203 10345 20219=

48055 32556 11402 10276 20197 40065 81100 333 56500

59048=

48064 32960 00901 10345 20257 40060 333 58000=

48065 32960 00000 10350 20237=

48074 32559 21802 10310 20267 40094 82100 333 56300

58000=

48092 31456 12703 10320 20248 40066 70522 81100 333

56900 59006=

48093 32658 31401 10321 20248 83800 333 56500=

48107 32350 21301 10308 20254 40088 82900 333 56700

59001=  





