



*-*-*


<!--
.style2 {
	font-family:"Courier New", Courier, monospace;
	font-size: 14px;
}
-->






SMBM01 VBRR 101200

AAXX 10124

48001 32420 10000 10215 20215 40114 81400 333 10260

56900 59028 60002=

48004 32356 40000 10234 20214 70121 84300 333 10266

56500 60002=

48008 32456 70000 10240 20191 40109 84970 333 10286

56110 59014 60002=

48010 32530 40000 10250 20219 40102 82401 333 10290

56505 59019 60002=

48018 32550 50000 10256 20203 40106 70322 82871 333

10317 56459 59014 60002=

48019 32540 40401 10252 20186 40096 80031 333 10312

56056 59020 60002=

48020 32340 60000 10250 20205 86800 333 10305 56500

60002=

48025 32456 60000 10262 20215 40105 83840 333 10288

56550 59020 60002=

48035 31510 60000 10232 20198 40087 70522 84960 333

10264 56290 59011 60002=

48037 32430 63201 10275 20211 40083 70111 83870 333

10305 56500 58014 60002=

48042 32556 80000 10280 20233 40087 8497/ 333 10297

5696/ 59011 60002=

48045 31450 62302 10179 20165 70144 85840 333 10204

56550 60002=

48048 32550 40000 10265 20229 40093 84800 333 10295

56800 59010 60002=

48051 32558 63601 10276 20230 70122 84830 333 10306

56790 60002=

48053 32550 52301 10270 20211 40107 83510 333 10305

56690 58002 60002=

48060 21310 80000 10212 20195 40124 79596 8597/ 333

10297 5699/ 58005 60222=

48062 32450 82701 10290 20270 40089 86970 333 10328

56990 59011 60002=

48071 32450 73201 10292 20248 40087 84870 333 10318

56990 59015 60002=

48075 31456 60000 10250 20205 40117 70199 84840 333

10290 56590 58007 60002=

48077 32556 30000 10300 20223 40085 82801 333 10312

56909 59007 60002=

48078 32557 51403 10288 20239 40103 82331 333 10335

56999 58002 60002=

48080 32456 40000 10312 20255 40086 82830 333 10345

56490 59010 60002=

48085 NIL=

48095 32450 80000 10260 20246 70322 85970 333 10313

56990 60002=

48108 22495 63201 10295 20256 40083 83306 333 10332

56409 59015 69902=

48109 32496 70000 10287 20259 40098 70222 85970 333

10325 56990 59001 60002=

48110 21595 81802 10280 20268 40090 70255 82307 333

10310 56909 59010 60022=

48112 21597 80405 10270 20240 40083 70152 84876 333

10296 56199 59015 60022=

48030 32256 82201 10166 20097 8594/ 333 10191 56569

60002=

48072 32456 82702 10290 20259 70322 86970 333 10340

56990 60002=

48087 32450 70000 10248 20219 83371 333 10334 56999

60002=

48099 22220 83602 10256 20246 40091 8693/ 10334 5699/

58001 60082=

48101 32550 80000 10265 20246 8477/ 333 10317 5699/

60002=

48103 32340 70403 10270 20240 40093 70322 87700 333

10333 56100 59004 60002=

48057 22440 51401 10200 20185 83940 333 10250 56590

60032=

48094 32456 70000 10310 20250 40095 70322 85940 333

10340 56190 58001 60002=

48097 21556 41302 10250 20233 40110 70265 84500 333

10310 56900 59006 60052=

48031 32258 72701 10170 20154 87800 333 10230 56400

60002=

48033 32559 53601 10270 20240 40094 70122 84930 333

10320 56550 59017 60002=

48034 21458 71801 10220 20185 70355 87300 333 10288

56500 69902=

48039 32459 73201 10270 20240 84860 333 10300 56550

60002=

48043 32510 70000 10230 20198 84830 333 10260 56990

60002=

48052 32450 60000 10280 20220 70122 85920 333 10320

56990 60002=

48055 22456 70000 10208 20203 40124 70296 84939 333

10280 56559 58023 60342=

48064 32550 50000 10274 20226 40091 70122 82831 333

10316 56559 58004 60002=

48065 32440 50000 10280 20220 70111 83870 333 10317

56990 60002=

48074 32557 20000 10290 20248 40090 81540 333 10329

56990 59007 60002=

48092 22456 80000 10250 20233 40073 8597/ 333 10325

5699/ 59007=

48093 22530 81402 10270 20240 70322 85871 333 10325

56399 69902=

48107 21330 60901 10280 20250 40092 84970 333 10300

56220 59016 69902=

48096 NIL=  





