



*-*-*


<!--
.style2 {
	font-family:"Courier New", Courier, monospace;
	font-size: 14px;
}
-->






SMBM01 VBRR 100600

AAXX 10064

48001 32450 33601 10223 20198 40145 83200 333 56200

59022=

48004 32562 50401 10250 20186 70322 83302 333 56505=

48008 32557 43201 10268 20172 40138 82430 333 56780

59016=

48010 32558 60000 10265 20179 40139 85801 333 56505

59010=

48018 32561 51401 10290 20179 40133 82465 333 56999

59018=

48019 32560 40403 10282 20184 40125 80006 333 56005

59020=

48020 32358 43602 10260 20215 82200 333 56500=

48025 32440 63201 10263 20203 40142 83840 333 56566

59018=

48035 31560 80000 10255 20203 40096 70522 8596/ 333

56239 59017=

48037 32458 73201 10273 20191 40138 70222 83870 333

56550 59000=

48042 32557 73201 10280 20220 40113 84950 333 56550

59019=

48045 31350 72303 10195 20168 74144 84870 333 56560=

48048 32560 60401 10290 20215 40133 85950 333 56890

59006=

48051 32559 73602 10284 20230 70222 85830 333 56790=

48053 32456 73604 10280 20203 40122 84556 333 56599

59001=

48060 NIL=

48062 32458 80902 10300 20270 40118 70222 86930 333

56690 59011=

48071 32458 73203 10300 20239 40114 84970 333 56990

59015=

48075 32457 62201 10280 20220 40094 84860 333 56590

59031=

48077 32559 20000 10310 20225 40115 81201 333 56909

59005=

48078 32558 33202 10317 20248 40116 82231 333 56999

59011=

48080 32461 53203 10334 20234 40109 82236 333 56499

59010=

48085 32458 32704 10324 20265 40108 82830 333 56390

59003=

48095 32458 80000 10310 20254 70322 84840 333 56990=

48108 32596 73202 10330 20258 40105 84856 333 56679

59004=

48109 NIL=

48110 31596 83203 10310 20257 40109 70522 83307 333

56209 59002=

48112 32598 62202 10294 20259 40098 70122 82216 333

56599 59022=

48030 32256 52201 10187 20118 84840 333 56560=

48072 32460 60401 10320 20265 70222 8483/ 333 5669/=

48087 32560 50402 10315 20248 70322 81241 333 56999=

48099 32456 71304 10330 20258 40101 85930 333 56390

59014=

48101 32558 70901 10314 20267 70122 84371 333 56999=

48103 32457 62202 10328 20258 40108 70322 86800 333

56500 59002=

48057 32458 63202 10246 20186 85950 333 56590=

48094 32459 50402 10330 20230 40114 70222 83940 333

56990 59007=

48097 32557 71802 10305 20254 40119 84850 333 56990

59012=

48031 32260 32201 10220 20111 70122 83800 333 56400=

48033 32563 63601 10300 20207 40124 70233 86900 333

56400 59012=

48034 21457 52302 10265 20175 70255 84830 333 56550=

48039 32460 73201 10279 20220 84800 333 56500=

48043 32556 80000 10235 20209 8587/ 333 56999=

48052 32458 73602 10305 20215 85930 333 56990=

48055 21556 60402 10265 20221 40102 75054 85930 333

56550 59013=

48064 32558 72301 10292 20230 40111 84831 333 56559

59018=

48065 32456 82202 10298 20207 85870 333 56990=

48074 32459 70402 10300 20239 40128 83860 333 56990

59009=

48092 32457 60902 10320 20265 40093 83830 333 56990

59002=

48093 32557 61401 10318 20265 70322 84801 333 56409=

48107 21350 60901 10278 20250 40108 70165 84970 333

56220 58003=

48096 NIL=  
SMBM01 VBRR 100600

AAXX 10064

48001 32450 33601 10223 20198 40145 83200 333 56200

59022=

48004 32562 50401 10250 20186 70322 83302 333 56505=

48008 32557 43201 10268 20172 40138 82430 333 56780

59016=

48010 32558 60000 10265 20179 40139 85801 333 56505

59010=

48018 32561 51401 10290 20179 40133 82465 333 56999

59018=

48019 32560 40403 10282 20184 40125 80006 333 56005

59020=

48020 32358 43602 10260 20215 82200 333 56500=

48025 32440 63201 10263 20203 40142 83840 333 56566

59018=

48035 31560 80000 10255 20203 40096 70522 8596/ 333

56239 59017=

48037 32458 73201 10273 20191 40138 70222 83870 333

56550 59000=

48042 32557 73201 10280 20220 40113 84950 333 56550

59019=

48045 31350 72303 10195 20168 74144 84870 333 56560=

48048 32560 60401 10290 20215 40133 85950 333 56890

59006=

48051 32559 73602 10284 20230 70222 85830 333 56790=

48053 32456 73604 10280 20203 40122 84556 333 56599

59001=

48060 NIL=

48062 32458 80902 10300 20270 40118 70222 86930 333

56690 59011=

48071 32458 73203 10300 20239 40114 84970 333 56990

59015=

48075 32457 62201 10280 20220 40094 84860 333 56590

59031=

48077 32559 20000 10310 20225 40115 81201 333 56909

59005=

48078 32558 33202 10317 20248 40116 82231 333 56999

59011=

48080 32461 53203 10334 20234 40109 82236 333 56499

59010=

48085 32458 32704 10324 20265 40108 82830 333 56390

59003=

48095 32458 80000 10310 20254 70322 84840 333 56990=

48108 32596 73202 10330 20258 40105 84856 333 56679

59004=

48109 NIL=

48110 31596 83203 10310 20257 40109 70522 83307 333

56209 59002=

48112 32598 62202 10294 20259 40098 70122 82216 333

56599 59022=

48030 32256 52201 10187 20118 84840 333 56560=

48072 32460 60401 10320 20265 70222 8483/ 333 5669/=

48087 32560 50402 10315 20248 70322 81241 333 56999=

48099 32456 71304 10330 20258 40101 85930 333 56390

59014=

48101 32558 70901 10314 20267 70122 84371 333 56999=

48103 32457 62202 10328 20258 40108 70322 86800 333

56500 59002=

48057 32458 63202 10246 20186 85950 333 56590=

48094 32459 50402 10330 20230 40114 70222 83940 333

56990 59007=

48097 32557 71802 10305 20254 40119 84850 333 56990

59012=

48031 32260 32201 10220 20111 70122 83800 333 56400=

48033 32563 63601 10300 20207 40124 70233 86900 333

56400 59012=

48034 21457 52302 10265 20175 70255 84830 333 56550=

48039 32460 73201 10279 20220 84800 333 56500=

48043 32556 80000 10235 20209 8587/ 333 56999=

48052 32458 73602 10305 20215 85930 333 56990=

48055 21556 60402 10265 20221 40102 75054 85930 333

56550 59013=

48064 32558 72301 10292 20230 40111 84831 333 56559

59018=

48065 32456 82202 10298 20207 85870 333 56990=

48074 32459 70402 10300 20239 40128 83860 333 56990

59009=

48092 32457 60902 10320 20265 40093 83830 333 56990

59002=

48093 32557 61401 10318 20265 70322 84801 333 56409=

48107 21350 60901 10278 20250 40108 70165 84970 333

56220 58003=

48096 NIL=  





