



*-*-*


<!--
.style2 {
	font-family:"Courier New", Courier, monospace;
	font-size: 14px;
}
-->






SMBM01 VBRR 101200

AAXX 10124

48001 32457 60000 10300 20266 40058 83906 333 10320

56602 58018=

48004 21110 80000 10251 20251 75065 8697/ 333 10333

56559 60322=

48008 21450 80000 10257 20246 40077 79596 8597/ 333

10344 56459 58035 60062=

48010 22440 80000 10273 20256 40067 8577/ 333 10297

56119 58031 60022=

48018 21556 71401 10295 20248 40062 70395 84970 333

10333 56330 58002 69902=

48019 32450 70000 10285 20250 40067 86770 333 10330

56450 58031 60002=

48020 22350 50000 10295 20253 85830 333 10345 56500

60042=

48025 22456 60000 10294 20259 40069 83841 333 10301

56599 58016 60012=

48035 NIL=

48037 22558 63201 10296 20266 40056 84870 333 10358

56449 58027 60412=

48042 32558 73201 10312 20254 40068 84950 333 10330

56880 58040 69902=

48045 21110 81402 10221 20205 74094 8894/ 333 10255

56229 60012=

48048 21550 80401 10272 20256 40059 72055 8697/ 333

10320 56499 58027 60052=

48051 22558 50402 10303 20270 70222 84930 333 10342

56490 60012=

48053 21450 70000 10270 20270 40070 71795 84970 333

10325 56390 58033 60012=

48060 21330 70000 10243 20191 40087 70322 84832 333

10303 56566 58006 60012=

48062 32456 81804 10305 20280 40053 70322 84932 333

10335 56399 58006=

48071 32456 42302 10315 20265 40053 84900 333 10320

56990 58005=

48075 22456 61401 10260 20229 40079 70322 85370 333

10300 56590 58023 60002=

48077 32556 82304 10310 20254 40044 85931 333 10325

56499 58003=

48078 21440 82304 10292 20254 40079 79595 8592/ 333

10328 56599 58023 69902=

48080 31456 62201 10300 20253 40061 71799 84970 333

10332 56390 58009=

48085 21458 61401 10266 20260 40064 79596 86976 333

10310 56299 58016 60132=

48095 32456 70000 10290 20259 84940 333 10310 56990

60002=

48108 32495 82305 10270 20240 40095 84377 333 10300

56699 58014=

48109 32496 82302 10264 20246 40077 70322 8697/ 333

10290 5699/ 58011 60002=

48110 21493 81802 10250 20241 40100 75155 86377 333

10265 56499 58013 60222=

48112 21496 81801 10255 20255 40104 70152 8677/ 333

10260 5649/ 59005 60252=

48030 21256 60401 10200 20185 72055 84940 333 10219

56180 60052=

48072 32456 41302 10295 20253 70122 83830 333 10320

56590 60002=

48087 21450 80000 10260 20246 75055 8497/ 333 10324

5649/ 60022=

48099 31330 71304 10280 20250 40086 71799 86930 333

10312 56490 58025=

48101 32550 81401 10285 20250 70322 8597/ 333 10305

5639/=

48103 NIL=

48057 21456 81301 10210 20195 70355 86950 333 10250

56990 60022=

48094 21456 80000 10268 20260 40061 76065 86970 333

10315 56390 58005 60182=

48097 32557 71303 10285 20271 40086 70222 85801 333

10315 56409 58011=

48031 21/03 91801 10200 20200 74744 89/// 333 10220

56999 60042=

48033 22562 50000 10300 20253 40077 85906 333 10320

56509 58041 60402=

48034 22456 60401 10233 20225 86300 333 10268 56500

60162=

48039 32460 70000 10305 20253 83852 333 10319 56444

69902=

48043 NIL=

48052 22450 60000 10320 20281 85920 333 10350 56990

60022=

48055 21356 70000 10208 20203 40090 79596 84970 333

10292 56440 58039 60282=

48064 32450 70000 10318 20265 40044 84831 333 10350

56339 58030=

48065 32450 60000 10330 20258 83571 333 10370 56999=

48074 21250 81401 10280 20280 40070 71796 8692/ 333

10342 56499 58018 60022=

48092 21457 71302 10280 20250 40055 70222 84930 333

10320 56390 58016=

48093 32540 52301 10272 20256 70122 84840 333 10317

56390=

48107 NIL=

48096 32457 71208 10280 20268 40080 85940 333 10315

56990 58009=  





