



*-*-*


<!--
.style2 {
	font-family:"Courier New", Courier, monospace;
	font-size: 14px;
}
-->






SIBM20 VBRR 100300

AAXX 10034

48001 21320 82701 10248 20245 40118 76166 8672/ 333

56329 58044=

48004 22458 52201 10276 20268 85900 333 56500=

48008 32456 80000 10288 20274 40105 8497/ 333 56459

58032=

48010 22440 60000 10275 20268 40105 84770 333 56440

58031=

48018 22560 42201 10285 20250 40103 82832 333 56544

58019=

48019 32560 62302 10299 20248 40098 84660 333 56560

58029=

48020 21250 80000 10250 20233 76196 8592/ 333 56999=

48025 21110 83201 10246 20246 40117 75165 8577/ 333

56899 58039=

48035 21560 63202 10267 20226 40092 70144 84960 333

56560 58009=

48037 22558 73601 10260 20260 40097 85870 333 56440

58028=

48042 21456 80000 10275 20262 40103 70355 8597/ 333

56449 58037=

48045 21509 80403 10212 20195 74364 887// 333 56199=

48048 22550 52701 10288 20259 40094 84950 333 56490

58026=

48051 22559 40401 10286 20260 82930 333 56390=

48053 22456 71801 10270 20256 40105 84556 333 56499

58029=

48060 21340 60000 10250 20205 40135 70152 84830 333

56560 58050=

48062 22458 80903 10296 20270 40083 84970 333 56290

58013=

48071 22458 71301 10287 20259 40088 84970 333 56490

58018=

48075 22457 40000 10250 20212 40104 83501 333 56309

58012=

48077 32559 72301 10290 20248 40086 85931 333 56499

58018=

48078 22556 51801 10282 20250 40108 84501 333 56409

58023=

48080 22460 53202 10280 20250 40085 84830 333 56490

58018=

48085 22458 41304 10293 20259 40083 82806 333 56309

58012=

48095 22458 70402 10290 20274 84940 333 56990=

48108 22495 72302 10267 20251 40120 84376 333 56599

58010=

48109 22496 82301 10262 20260 40097 8697/ 333 5699/

58004=

48110 21493 80000 10255 20247 40125 70365 8632/ 333

5699/ 58016=

48112 21496 82702 10250 20250 40130 75055 8677/ 333

5669/ 58013=

48030 21/03 90401 10182 20182 70255 89/// 333 56999=

48072 22560 11302 10300 20253 70122 81200 333 56900=

48087 22556 62301 10288 20259 8437/ 333 5649/=

48099 22450 80000 10270 20256 40105 86930 333 56990

58013=

48101 32558 61402 10293 20259 83331 333 56499=

48103 32456 62202 10290 20248 40105 86700 333 56500

58013=

48057 22458 81401 10220 20205 86950 333 56390=

48094 22459 50000 10280 20270 40094 83970 333 56590

58018=

48097 22557 71401 10295 20270 40110 85330 333 56990

58018=

48031 21/05 92201 10190 20190 76064 89/// 333 56999=

48033 21561 70000 10270 20256 40092 70155 86970 333

56490 58002=

48034 21248 60000 10205 20205 75065 8692/ 333 5659/=

48039 21459 80401 10270 20256 70355 887// 333 56599=

48043 22540 80000 10210 20210 8687/ 333 56999=

48052 22468 50000 10295 20253 85900 333 56900=

48055 22356 72303 10244 20220 40110 85901 333 56309

58026=

48064 32458 43201 10299 20253 40092 82801 333 56409

58042=

48065 32456 50401 10298 20253 82870 333 56590=

48074 32456 61403 10280 20250 40107 84860 333 56440

58021=

48092 22457 71304 10295 20263 40081 84736 333 5639/

58015=

48093 22557 60401 10298 20253 84370 333 56390=

48107 22350 41301 10287 20248 40106 84900 333 56400

58010=

48096 NIL=  





