



*-*-*


<!--
.style2 {
	font-family:"Courier New", Courier, monospace;
	font-size: 14px;
}
-->






SMBM01 VBRR 110600

AAXX 11064

48001 32556 53201 10220 20136 40142 85800 333 56100 59030=

48004 32460 60401 10240 20136 86900 333 56500=

48008 32557 41401 10240 20155 40143 82430 333 56350 59023=

48010 31560 61801 10240 20155 40144 70344 80036 333 56055 59018=

48018 32560 70402 10250 20167 40145 84870 333 56120 59018=

48019 32560 60401 10240 20174 40140 80006 333 56005 59023=

48020 32357 73604 10260 20179 84730 333 56550=

48025 32440 63201 10247 20126 40175 84840 333 56650 58002=

48030 32256 62202 10180 20086 82506 333 56109=

48031 31256 80401 10175 29022 70522 86808 333 56409=

48033 32563 43601 10280 20184 40119 83501 333 56909 59028=

48034 32456 51802 10235 20084 85500 333 56500=

48035 31557 61401 10241 20066 40115 70500 84802 333 56909 59021=

48037 32560 53601 10283 20146 40154 82131 333 56659 59003=

48039 31456 62203 10264 20138 70522 84860 333 56550=

48042 31550 60000 10295 20162 40134 70522 82452 333 56599 59021=

48043 32657 41802 10230 20079 82230 333 56990=

48045 32561 61405 10200 20033 82506 333 56905=

48048 32560 60401 10295 20124 40142 85950 333 56490 59030=

48051 32558 73603 10281 20160 84831 333 56599=

48052 32470 40402 10300 20124 84800 333 56900=

48053 31550 63604 10290 20140 40127 70522 83550 333 56690 59019=

48055 31556 50903 10240 20136 40117 70511 83506 333 56509 59011=

48057 32458 42202 10226 20097 81506 333 56609=

48060 32440 50000 10233 20097 40126 82832 333 56566 59017=

48062 32457 70902 10275 20200 40153 84954 333 56599 59016=

48064 32570 61401 10265 20160 40122 81136 333 56440 59019=

48065 32570 80000 10298 20124 83870 333 56990=

48071 32458 53204 10275 20184 40145 85800 333 56900 59019=

48072 32459 53202 10280 20184 84830 333 56690=

48074 32558 23601 10290 20179 40142 81103 333 56904 59028=

48075 31558 52201 10260 20100 40125 70522 83830 333 56590 59031=

48077 31558 40000 10310 20124 40119 70522 84800 333 56900 59031=

48078 32556 41802 10308 20189 40141 81531 333 56559 59015=

48080 32461 42204 10292 20230 40123 82230 333 56590 59024=

48085 32458 63206 10278 20211 40133 83876 333 56599 59024=

48087 32558 60401 10306 20146 83841 333 56999=

48092 31557 61302 10315 20154 40108 70522 82570 333 56990 59033=

48093 32557 62301 10300 20185 84870 333 56590=

48094 32459 53202 10300 20215 40133 83841 333 56999 59023=

48095 32458 42201 10315 20189 80042 333 56099=

48097 32557 51401 10305 20148 40131 82831 333 56999 59025=

48099 32456 62301 10318 20184 40125 84802 333 56509 59021=

48101 32760 33202 10296 20185 80031 333 56099=

48103 32457 20401 10323 20184 40125 82800 333 56100 59022=

48107 32350 20401 10328 20174 40116 82900 333 56300 59014=

48108 32596 62302 10325 20214 40125 82407 333 56909 59020=

48109 NIL=

48110 31596 33204 10320 20236 40144 70511 81105 333 56209 59002=

48112 32597 70401 10320 20215 40126 83876 333 56199 59020=  
SMBM01 VBRR 110600

AAXX 11064

48001 32556 53201 10220 20136 40142 85800 333 56100

59030=

48004 32460 60401 10240 20136 86900 333 56500=

48008 32557 41401 10240 20155 40143 82430 333 56350

59023=

48010 31560 61801 10240 20155 40144 70344 80036 333

56055 59018=

48018 32560 70402 10250 20167 40145 84870 333 56120

59018=

48019 32560 60401 10240 20174 40140 80006 333 56005

59023=

48020 32357 73604 10260 20179 84730 333 56550=

48025 32440 63201 10247 20126 40175 84840 333 56650

58002=

48035 31557 61401 10241 20066 40115 70500 84802 333

56909 59021=

48037 32560 53601 10283 20146 40154 82131 333 56659

59003=

48042 31550 60000 10295 20162 40134 70522 82452 333

56599 59021=

48045 32561 61405 10200 20033 82506 333 56905=

48048 32560 60401 10295 20124 40142 85950 333 56490

59030=

48051 32558 73603 10281 20160 84831 333 56599=

48053 31550 63604 10290 20140 40127 70522 83550 333

56690 59019=

48060 32440 50000 10233 20097 40126 82832 333 56566

59017=

48062 32457 70902 10275 20200 40153 84954 333 56599

59016=

48071 32458 53204 10275 20184 40145 85800 333 56900

59019=

48075 31558 52201 10260 20100 40125 70522 83830 333

56590 59031=

48077 31558 40000 10310 20124 40119 70522 84800 333

56900 59031=

48078 32556 41802 10308 20189 40141 81531 333 56559

59015=

48080 32461 42204 10292 20230 40123 82230 333 56590

59024=

48085 32458 63206 10278 20211 40133 83876 333 56599

59024=

48095 32458 42201 10315 20189 80042 333 56099=

48108 32596 62302 10325 20214 40125 82407 333 56909

59020=

48109 NIL=

48110 31596 33204 10320 20236 40144 70511 81105 333

56209 59002=

48112 32597 70401 10320 20215 40126 83876 333 56199

59020=

48030 32256 62202 10180 20086 82506 333 56109=

48072 32459 53202 10280 20184 84830 333 56690=

48087 32558 60401 10306 20146 83841 333 56999=

48099 32456 62301 10318 20184 40125 84802 333 56509

59021=

48101 32760 33202 10296 20185 80031 333 56099=

48103 32457 20401 10323 20184 40125 82800 333 56100

59022=

48057 32458 42202 10226 20097 81506 333 56609=

48094 32459 53202 10300 20215 40133 83841 333 56999

59023=

48097 32557 51401 10305 20148 40131 82831 333 56999

59025=

48031 31256 80401 10175 29022 70522 86808 333 56409=

48033 32563 43601 10280 20184 40119 83501 333 56909

59028=

48034 32456 51802 10235 20084 85500 333 56500=

48039 31456 62203 10264 20138 70522 84860 333 56550=

48043 32657 41802 10230 20079 82230 333 56990=

48052 32470 40402 10300 20124 84800 333 56900=

48055 31556 50903 10240 20136 40117 70511 83506 333

56509 59011=

48064 32570 61401 10265 20160 40122 81136 333 56440

59019=

48065 32570 80000 10298 20124 83870 333 56990=

48074 32558 23601 10290 20179 40142 81103 333 56904

59028=

48092 31557 61302 10315 20154 40108 70522 82570 333

56990 59033=

48093 32557 62301 10300 20185 84870 333 56590=

48107 32350 20401 10328 20174 40116 82900 333 56300

59014=  





