



*-*-*


<!--
.style2 {
	font-family:"Courier New", Courier, monospace;
	font-size: 14px;
}
-->






SIBM20 VBRR 110300

AAXX 11034

48001 31907 90000 10116 20115 40198 74744 89/// 333 56999 58037=

48004 31460 10000 10125 20113 70144 81500 333 56900=

48008 32557 20401 10159 20123 40194 81430 333 56340 58023=

48010 31040 03601 10145 20124 40196 74044 333 58020=

48018 21558 63201 10145 20132 40190 70344 83876 333 56550 58031=

48019 32960 10401 10166 20123 40183 80001 333 56006 58029=

48020 31920 90000 10140 20124 74744 89/// 333 56///=

48025 31008 42201 10160 20123 40196 74244 84600 333 56500 58030=

48030 32956 02204 10034 20004 333=

48031 32962 02201 10125 20081 333=

48033 32962 03601 10200 20150 40149 333 59018=

48034 31948 00000 10123 20059 71000 333 =

48035 31/09 90000 10109 20109 40189 74744 89/// 333 56999 58022=

48037 32957 00401 10175 20147 40176 333 58026=

48039 31940 21401 10186 20139 74044 80002 333 56009=

48042 31940 01301 10193 20159 40165 71000 333 58002=

48043 32057 00502 10125 20086 333=

48045 32960 01402 10116 20030 333=

48048 32960 00401 10180 20147 40179 333 58014=

48051 32958 03102 10171 20140 70200 333=

48052 32958 03203 10200 20109 333=

48053 32950 03603 10170 20135 40169 333 59003=

48055 31448 40000 10128 20104 40194 71022 84800 333 56500 58019=

48057 32450 02201 10140 20082 333=

48060 22430 80000 10132 20113 40217 8597/ 333 5656/ 58008=

48062 31950 00402 10182 20150 40166 71044 333 58005=

48064 32960 01401 10165 20123 40161 333 58003=

48065 32960 00000 10185 20118 333=

48071 32958 00501 10200 20168 40160 70500 333 58000=

48072 32959 03601 10210 20160 70522 333=

48074 32959 00903 10160 20106 40175 333 58002=

48075 31958 01401 10140 20120 40186 70144 333 58008=

48077 32459 00402 10190 20159 40154 333 58002=

48078 32956 13204 10166 20112 40166 80001 333 56009 59003=

48080 31959 00902 10170 20154 40154 70244 333 59003=

48085 31957 01303 10206 20168 40150 70544 333 59003=

48087 32960 00402 10173 20117 333=

48092 31950 00402 10225 20149 40131 70522 333 58011=

48093 32956 00401 10198 20150 333=

48094 32959 00000 10205 20170 40154 333 59004=

48095 32958 00902 10190 20139 333=

48097 31457 51401 10220 20124 40153 70522 82850 333 56990 59006=

48099 32450 00403 10236 20191 40143 82830 333 56110 59004=

48101 32658 30000 10214 20142 81130 333 56490=

48103 32350 33201 10235 20209 40147 83700 333 56700 59003=

48107 21330 60902 10220 20185 40131 70155 84970 333 56330 59014=

48108 21596 73203 10260 20229 40135 70244 83366 333 56699 59017=

48109 32496 50401 10275 20184 40145 81900 333 56900 59008=

48110 31596 80000 10265 20227 40131 70522 82257 333 56999 59006=

48112 32598 60401 10272 20228 40145 82216 333 56199 59005=  





