



*-*-*


<!--
.style2 {
	font-family:"Courier New", Courier, monospace;
	font-size: 14px;
}
-->






SMBM01 VBRR 111800

NIL=  
SMBM01 VBRR 111800 RRA

AAXX 11184

48008 32510 60000 10270 20240 40042 83970 333 56330 59001=

48010 21401 80000 10245 20245 40043 79596 887// 333 56599 59009=

48018 22510 31801 10265 20246 40064 82860 333 56990 58012=

48025 22405 50401 10275 20256 40067 82870 333 56450 58005=

48042 32550 61804 10315 20259 40050 84850 333 56440 58015=

48053 32440 51804 10290 20248 40061 83550 333 56590 59000=

48057 21440 72201 10215 20173 70253 85350 333 56590=

48060 22320 70000 10240 20226 40052 70122 85770 333 56690 58012=

48062 22450 71802 10290 20270 40066 85970 333 56590 58005=

48071 21420 72303 10263 20263 40058 70192 85970 333 56990 58003=

48078 21440 61401 10263 20251 40084 75055 84973 333 56499 58002=

48080 32450 60000 10270 20240 40076 84870 333 56490 59008=

48094 22450 70000 10250 20250 40082 85970 333 56990 58008=

48097 21556 41401 10255 20248 40092 70296 84500 333 56900 59003=

48099 22330 40000 10260 20246 40083 84800 333 56900 59002=

48103 32310 70402 10280 20250 40080 85730 333 56110 58007=

48108 21496 70501 10260 20253 40097 71399 84976 333 56999 58002=

48110 21495 80000 10255 20247 40097 70299 84307 333 56909 58003=

48112 32597 82202 10270 20256 40081 83876 333 56599 59004=  





