



*-*-*


<!--
.style2 {
	font-family:"Courier New", Courier, monospace;
	font-size: 14px;
}
-->






SMBM01 VBRR 110000 RRA

AAXX 11004

48010 21430 80000 10250 20250 40054 70255 8577/ 333

20240 5644/ 58015 60052=

48018 21556 80000 10250 20248 40057 75055 8597/ 333

20248 5655/ 58021 69902=

48019 22450 60000 10256 20250 40048 84660 333 20250

56450 58011=

48020 21450 80000 10260 20246 75065 88700 333 20240

56400 60062=

48025 21110 83201 10250 20250 40056 75165 8577/ 333

20246 5649/ 58010 60272=

48035 21258 80000 10227 20214 40056 70255 8597/ 333

20220 5656/ 58012 69902=

48037 22556 80000 10264 20246 40042 8487/ 333 20253

5666/ 58008 60012=

48042 21557 80000 10265 20251 40047 70355 8597/ 333

20250 5644/ 58011 69902=

48048 21550 70000 10262 20246 40045 72165 85950 333

20257 56490 58008 60322=

48051 22558 70000 10260 20250 85930 333 20248 56490

60232=

48053 22450 81801 10250 20250 40054 8555/ 333 20244

5655/ 58007 60022=

48060 32430 80000 10240 20226 40034 8587/ 333 20228

5659/ 59003=

48062 21450 80902 10260 20260 40040 72066 86970 333

20240 56290 58006 60302=

48071 32456 40000 10263 20260 40040 83930 333 20252

56990 58000=

48075 21456 50000 10220 20175 40083 70265 83830 333

56590 58008 60052=

48077 32556 80000 10270 20256 40043 85931 333 20250

56499 58002=

48078 21556 50000 10250 20233 40063 70155 83531 333

20238 56499 58003 60022=

48080 21456 50401 10251 20233 40059 70165 84830 333

20240 56590 58006 60032=

48085 32456 81403 10266 20256 40052 86970 333 20265

56590 58002=

48108 22494 80501 10240 20226 40075 84377 333 20220

56899 58000=

48109 21496 82302 10274 20270 40063 76366 8697/ 333

20195 5699/ 59001 60842=

48110 21595 50000 10250 20241 40077 70522 83356 333

20245 56599 59002=

48112 21496 82207 10255 20255 40080 72152 8677/ 333

20205 5659/ 58000 60072=

48030 21110 82201 10174 20174 74255 888// 333 20168

565// 60012=

48087 22550 62301 10273 20273 83371 333 20260 56499

60092=

48099 22340 70901 10260 20246 40063 84840 333 20248

56990 58001=

48101 21556 70000 10265 20265 70265 85731 333 20218

56599 60382=

48103 21450 40401 10252 20252 40059 70155 83830 333

20248 56110 59001 69902=

48057 21456 80000 10192 20192 75155 86950 333 20185

56990 60022=

48094 22456 60000 10270 20260 40048 84870 333 20218

56590 59017=

48097 22557 33201 10260 20253 40060 82801 333 20250

56909 59008 69902=

48031 22/56 83201 10184 20184 888// 333 20172 569//=

48033 22560 81301 10254 20250 40057 86970 333 20250

56990 58011 60042=

48034 21148 81801 10202 20202 70255 8692/ 333 20220

5659/ 60012=

48039 21456 80000 10254 20254 70355 8677/ 333 20244

5655/ 69902=

48043 21520 80000 10210 20210 75055 8672/ 333 20179

5699/ 60032=

48052 32450 50000 10272 20256 85900 333 20266 56900=

48055 21156 80000 10208 20205 40062 75066 8597/ 333

20204 5651/ 58006 60182=

48064 22450 73201 10262 20260 40023 84831 333 20233

56449 58003 60222=

48065 22450 60401 10257 20246 8357/ 333 20227 5699/

60092=

48074 32356 70000 10250 20233 40067 83760 333 20240

56440 58002=

48092 31903 00000 10260 20253 40035 74344 333 20250

59004=

48093 32650 40000 10269 20246 82840 333 20262 56590=

48107 21330 60000 10242 20242 40071 70266 84970 333

20235 56550 59004 60102=  





