



*-*-*


<!--
.style2 {
	font-family:"Courier New", Courier, monospace;
	font-size: 14px;
}
-->






SMBM01 VBRR 110600

AAXX 11064

48001 32556 30401 10320 20215 40066 83700 333 56200 58029=

48004 31458 50401 10325 20244 70512 85900 333 56500=

48008 32557 62301 10352 20143 40072 82531 333 56566 58009=

48010 32558 60000 10325 20236 40074 84470 333 56590 58007=

48018 32560 61402 10355 20214 40074 82871 333 56329 58006=

48019 32960 20402 10355 20249 40069 80006 333 56007 58003=

48020 32357 53602 10370 20258 85800 333 56500=

48025 31440 53201 10364 20235 40080 70444 84840 333 56540 59005=

48030 32256 62202 10240 20174 84940 333 56560=

48031 31260 21801 10250 20165 70544 82800 333 56900=

48033 32563 70000 10315 20265 40075 86930 333 56990 58027=

48034 21456 80000 10232 20214 70255 8692/ 333 5659/=

48035 31530 72704 10287 20196 40057 70500 85960 333 56560 58004=

48037 32458 73201 10300 20239 40071 83870 333 56660 58016=

48039 32460 32201 10369 20258 82150 333 56550=

48042 32557 32702 10380 20240 40061 81250 333 56990 58003=

48043 32757 21806 10300 20207 82200 333 56500=

48045 31559 51403 10288 20179 70444 85300 333 56500=

48048 32560 50401 10375 20240 40070 84850 333 56590 58014=

48051 32559 40402 10377 20260 70222 84300 333 56500=

48052 32468 20402 10395 20230 82200 333 56900=

48053 32456 52702 10370 20258 40063 83956 333 56599 58001=

48055 32656 30404 10338 20184 40031 83800 333 56500 59001=

48057 32458 51402 10286 20159 85300 333 56500=

48060 31450 32301 10345 20183 40048 70522 82130 333 56590 58024=

48062 32558 62305 10362 20244 40091 70122 82930 333 56690 59003=

48064 32570 11401 10406 20278 40050 81100 333 56900 58000=

48065 32570 10000 10392 20233 81100 333 56900=

48071 32460 43203 10335 20270 40093 84800 333 56700 59001=

48072 32460 12705 10350 20280 70122 81200 333 56900=

48074 32560 23201 10370 20246 40076 82100 333 56400 58004=

48075 32457 41301 10330 20201 40070 83830 333 56590 58004=

48077 32559 20000 10340 20249 40068 81201 333 56909 58006=

48078 32559 31801 10375 20242 40071 82801 333 56409 59002=

48080 32461 42212 10370 20258 40076 83830 333 56590 58012=

48085 32458 22705 10342 20270 40089 82800 333 56800 58006=

48087 32560 40403 10376 20240 84800 333 56400=

48092 32458 32604 10375 20205 40059 83200 333 56900 58008=

48093 32558 43201 10368 20246 84800 333 56500=

48094 32460 53202 10360 20270 40083 85900 333 56900 58004=

48095 32560 30401 10380 20255 70311 83800 333 56900=

48096 32559 31806 10360 20235 40094 70222 83800 333 56900 58023=

48097 32557 30402 10365 20248 40091 83800 333 56900 58004=

48099 32557 32302 10368 20246 40081 83900 333 56500 58012=

48101 32560 23202 10350 20240 70111 82200 333 56600=

48103 32457 32201 10369 20246 40085 83800 333 56500 58010=

48107 32350 62301 10342 20257 40087 84970 333 56770 58015=

48108 32596 73204 10350 20240 40092 84366 333 56699 58012=

48109 NIL=

48110 31596 53203 10350 20255 40096 70522 83306 333 56909 58010=

48112 NIL=  





