



*-*-*


<!--
.style2 {
	font-family:"Courier New", Courier, monospace;
	font-size: 14px;
}
-->






SMBM01 VBRR 110000 RRA

AAXX 11004

48004 31903 90000 10150 20150 74744 89/// 333 20107

56999 60002=

48008 32556 50401 10180 20131 83970 333 20155 56110

59011 60002=

48010 32540 70000 10180 20180 40172 83820 333 20175

56550 59015 60002=

48018 32550 60000 10200 20185 40118 70322 83870 333

20190 56450 59031 60002=

48019 32440 70401 10200 20185 40118 83260 333 20192

56560 59010 60002=

48020 32340 80000 10210 20195 88800 333 20185 56500

60002=

48025 31110 52701 10220 20205 40123 74044 84840 333

20214 56590 59012 60002=

48035 21120 80000 10201 20200 40106 76266 8692/ 333

20194 56999 59024 60092=

48037 21420 80000 10238 20226 40107 75022 8587/ 333

20236 56559 59028 69902=

48042 21456 80000 10245 20239 40110 70255 8487/ 333

20232 56999 59005 69902=

48048 32550 60000 10237 20209 40114 84950 333 20230

56490 59006 60002=

48053 32450 70000 10230 20214 40111 85550 333 20228

56690 59004 60002=

48060 22430 70000 10200 20185 40146 84970 333 20178

56440 58007 60052=

48080 32456 40000 10240 20226 40107 82830 333 20225

56490 59001 60002=

48109 31496 30000 10250 20233 40100 71022 83800 333

10198 56900 59013 60002=

48030 32140 82201 10148 20111 888// 333 20125 56599

60002=

48103 32330 30405 10249 20233 40107 83700 333 20235

56100 58004 60002=

48057 NIL=

48094 32456 30000 10250 20240 40109 82501 333 20185

56909 58009 60002=

48031 31/05 92201 10155 20144 74744 89/// 333 20125

56999 60002=

48033 22558 70901 10230 20198 40109 70355 86970 333

20210 56550 59012 69902=

48034 21456 80000 10180 20170 75055 8692/ 333 20175

5659/ 69902=

48039 21450 80000 10239 20226 70355 887// 333 20220

56999 69902=

48043 21510 80000 10200 20185 75055 8677/ 333 20160

56999 60012=

48052 32450 60000 10246 20219 74022 85920 333 20240

56990 60002=

48055 22248 81302 10185 20185 20129 8692/ 333 20172

5639/ 59018 60342=

48064 32450 80000 10240 20226 40107 70322 84870 333

20200 56440 59001 60002=

48065 21450 80302 10245 20219 75022 86970 333 20215

56990 69902=

48074 32457 70000 10240 20226 40106 84570 333 20233

56990 59007 60002=

48107 21330 60000 10242 20242 40105 74144 84906 333

20237 56209 59001 60002=  





