



*-*-*


<!--
.style2 {
	font-family:"Courier New", Courier, monospace;
	font-size: 14px;
}
-->






SIBM20 VBRR 110300

AAXX 11034

48001 22440 60000 10210 20195 40153 83850 333 56550

58089=

48004 21230 83201 10230 20230 75055 8697/ 333 56559=

48008 32556 42301 10250 20219 40132 82230 333 56550

58035=

48010 22420 83601 10235 20235 40140 887// 333 56599

58044=

48018 22558 73601 10265 20229 40132 83872 333 56556

58029=

48019 32460 63602 10270 20211 40122 84660 333 56560

58033=

48020 21358 72303 10245 20230 70165 85740 333 56550=

48025 22220 80000 10234 20234 40131 70255 8577/ 333

56799 58037=

48035 22558 80000 10198 20150 40146 8597/ 333 56129

58051=

48037 21457 83201 10245 20245 40122 75165 8582/ 333

56459 58031=

48042 21350 81301 10255 20240 40122 75022 8597/ 333

56399 58032=

48045 31240 80902 10190 20175 74044 887// 333 56299=

48048 21558 80000 10247 20233 40118 72165 8697/ 333

56499 58035=

48051 NIL=

48053 22456 81801 10270 20240 40117 8597/ 333 56499

58022=

48060 22430 80000 10240 20218 40175 8587/ 333 56699

58093=

48062 NIL=

48071 NIL=

48075 NIL=

48077 NIL=

48078 NIL=

48080 NIL=

48085 NIL=

48095 NIL=

48108 NIL=

48109 NIL=

48110 NIL=

48112 NIL=

48030 22130 80402 10170 20154 8694/ 333 56189=

48072 NIL=

48087 NIL=

48099 NIL=

48101 NIL=

48103 NIL=

48057 22457 61407 10190 20175 84850 333 56590=

48094 NIL=

48097 NIL=

48031 21/03 91801 10190 20190 74754 89/// 333 56999=

48033 22461 70000 10250 20250 40117 85970 333 56590

58030=

48034 22456 61302 10204 20168 86300 333 56500=

48039 21460 71401 10243 20228 70255 84960 333 56440=

48043 21540 81806 10180 20180 76166 8672/ 333 56999=

48052 32456 73601 10280 20250 85930 333 56990=

48055 21148 80402 10184 20182 40164 75355 8692/ 333

56399 58082=

48064 32458 80401 10285 20250 40103 84870 333 56440

58028=

48065 32556 60402 10282 20250 85530 333 56990=

48074 32357 81402 10260 20246 40127 8577/ 333 56499

58008=

48092 NIL=

48093 NIL=

48107 NIL=

48096 NIL=  





