



*-*-*


<!--
.style2 {
	font-family:"Courier New", Courier, monospace;
	font-size: 14px;
}
-->






SIBM20 VBRR 120340

AAXX 12034

48001 31907 90000 10130 20125 40166 70544 333 59004=

48004 31458 30401 10140 20124 71044 83800 333 56500=

48008 31556 30000 10178 20129 40156 71044 82430 333 56560 59003=

48010 31050 00000 10150 20134 40158 70244 333 59003=

48018 32558 41401 10165 20144 40145 83810 333 56320 59008=

48019 32960 30401 10170 20135 40148 80023 333 56056 59011=

48020 31150 23602 10150 20134 70144 82600 333 56900=

48025 31220 40000 10151 20134 40152 74044 83840 333 56590 59004=

48030 32956 12201 10070 29058 80001 333 56009=

48031 31259 23601 10165 20028 70500 80050 333 56090=

48033 32962 33601 10190 20159 40139 80006 333 56009 58013=

48034 31456 20000 10124 20074 71011 82500 333 56900=

48035 31550 20000 10152 20111 40151 70544 81501 333 56909 59015=

48037 32556 53601 10190 20159 40146 81171 333 56554 58004= 

48039 31450 72201 10211 20143 74044 84802 333 56505=

48042 31556 40000 10215 20125 40138 70511 82406 333 56909 58012=

48043 32056 40000 10150 20111 80032 333 56099=

48045 32960 61402 10145 20047 80031 333 56059=

48048 32560 50401 10235 20136 40141 84850 333 56490 59009=

48051 32958 30403 10201 20130 70111 80031 333 56069=

48052 32458 30401 10222 20136 83800 333 56900=

48053 31440 73202 10190 20118 40139 70522 84556 333 56599 59005=

48055 31550 52301 10158 20123 40157 71011 83506 333 56509 59017=

48057 32958 61402 10180 20108 80006 333 56009=

48060 31430 60000 10180 20129 40160 70222 84870 333 56590 59019=

48062 31450 40402 10186 20140 40148 71022 82500 333 56190 58004=

48064 32960 21401 10200 20109 40125 80006 333 56009 59012=

48065 32960 10000 10212 20120 80001 333 56009=

48071 32458 33201 10248 20174 40136 82301 333 56909 58000=

48072 31459 23202 10240 20174 70522 82300 333 56600=

48074 32458 50902 10220 20156 40150 81450 333 56455 58006=

48075 31457 52201 10175 20150 40154 70522 85500 333 56900 59015=

48077 31558 60000 10227 20143 40126 70522 84801 333 56909 59009= 

48078 32556 41801 10227 20163 40145 82531 333 56559 58001=

48080 32459 70401 10211 20175 40151 85630 333 56490 59002=

48085 32458 63604 10241 20174 40144 82870 333 56690 58003=

48087 32960 40401 10228 20181 82840 333 56990=

48092 31556 71301 10225 20202 40125 70522 83470 333 56990 58002=

48093 32556 72301 10227 20198 85841 333 56599=

48094 32458 63202 10250 20190 40146 84970 333 56690 58003=

48095 32458 60000 10230 20181 70222 83840 333 56990=

48097 31557 71301 10245 20207 40160 70522 85830 333 56990 58017=

48099 31450 71302 10243 20209 40141 70511 83830 333 56330 59004=

48101 32558 63201 10238 20134 70122 82771 333 56999=

48103 32550 60401 10257 20215 40137 84830 333 56110 59006=

48107 31340 50402 10237 20191 40128 70144 83806 333 56309 59006=

48108 31596 51402 10250 20186 40143 70244 82406 333 56909 59002=

48109 32497 60401 10278 20203 40149 70122 86100 333 56900 58000=

48110 31595 21302 10270 20226 40138 70544 81105 333 56909 59009=

48112 32598 60402 10260 20215 40137 82216 333 56199 59005=  
SIBM20 VBRR 120300

AAXX 12034

48001 31907 90000 10130 20125 40166 70544 333 59004=

48004 31458 30401 10140 20124 71044 83800 333 56500=

48008 31556 30000 10178 20129 40156 71044 82430 333

56560 59003=

48010 31050 00000 10150 20134 40158 70244 333 59003=

48018 32558 41401 10165 20144 40145 83810 333 56320

59008=

48019 32960 30401 10170 20135 40148 80023 333 56056

59011=

48020 31150 23602 10150 20134 70144 82600 333 56900=

48025 31220 40000 10151 20134 40152 74044 83840 333

56590 59004=

48035 31550 20000 10152 20111 40151 70544 81501 333

56909 59015=

48037 32556 53601 10190 20159 40146 81171 333 56554

58004=

48042 31556 40000 10215 20125 40138 70511 82406 333

56909 58012=

48045 32960 61402 10145 20047 80031 333 56059=

48048 32560 50401 10235 20136 40141 84850 333 56490

59009=

48051 32958 30403 10201 20130 70111 80031 333 56069=

48053 31440 73202 10190 20118 40139 70522 84556 333

56599 59005=

48060 31430 60000 10180 20129 40160 70222 84870 333

56590 59019=

48062 31450 40402 10186 20140 40148 71022 82500 333

56190 58004=

48071 32458 33201 10248 20174 40136 82301 333 56909

58000=

48075 31457 52201 10175 20150 40154 70522 85500 333

56900 59015=

48077 31558 60000 10227 20143 40126 70522 84801 333

56909 59009=

48078 32556 41801 10227 20163 40145 82531 333 56559

58001=

48080 32459 70401 10211 20175 40151 85630 333 56490

59002=

48085 32458 63604 10241 20174 40144 82870 333 56690

58003=

48095 32458 60000 10230 20181 70222 83840 333 56990=

48108 31596 51402 10250 20186 40143 70244 82406 333

56909 59002=

48109 32497 60401 10278 20203 40149 70122 86100 333

56900 58000=

48110 31595 21302 10270 20226 40138 70544 81105 333

56909 59009=

48112 32598 60402 10260 20215 40137 82216 333 56199

59005=

48030 32956 12201 10070 29058 80001 333 56009=

48072 31459 23202 10240 20174 70522 82300 333 56600=

48087 32960 40401 10228 20181 82840 333 56990=

48099 31450 71302 10243 20209 40141 70511 83830 333

56330 59004=

48101 32558 63201 10238 20134 70122 82771 333 56999=

48103 32550 60401 10257 20215 40137 84830 333 56110

59006=

48057 32958 61402 10180 20108 80006 333 56009=

48094 32458 63202 10250 20190 40146 84970 333 56690

58003=

48097 31557 71301 10245 20207 40160 70522 85830 333

56990 58017=

48031 31259 23601 10165 20028 70500 80050 333 56090=

48033 32962 33601 10190 20159 40139 80006 333 56009

58013=

48034 31456 20000 10124 20074 71011 82500 333 56900=

48039 31450 72201 10211 20143 74044 84802 333 56505=

48043 32056 40000 10150 20111 80032 333 56099=

48052 32458 30401 10222 20136 83800 333 56900=

48055 31550 52301 10158 20123 40157 71011 83506 333

56509 59017=

48064 32960 21401 10200 20109 40125 80006 333 56009

59012=

48065 32960 10000 10212 20120 80001 333 56009=

48074 32458 50902 10220 20156 40150 81450 333 56455

58006=

48092 31556 71301 10225 20202 40125 70522 83470 333

56990 58002=

48093 32556 72301 10227 20198 85841 333 56599=

48107 31340 50402 10237 20191 40128 70144 83806 333

56309 59006=  





