



*-*-*


<!--
.style2 {
	font-family:"Courier New", Courier, monospace;
	font-size: 14px;
}
-->






SIBM20 VBRR 120900

AAXX  12094

48001 32458 30901 10252 20150 40084 83800 333 56600

59016=

48004 31456 12201 10267 20172 70511 81500 333 56900=

48008 32558 51401 10288 20115 40094 82431 333 56566

59029=

48010 32560 20000 10290 20196 40097 81101 333 56906

59023=

48018 32560 21402 10290 20140 40100 82800 333 56900

59008=

48019 32960 00401 10288 20179 40089 333 58007=

48020 NIL=

48025 32458 10401 10297 20098 40099 81100 333 56900

59016=

48035 31557 22703 10271 29015 40057 70500 81501 333

56909 59019=

48037 32962 02602 10321 20140 40080 333 59073=

48042 32957 12202 10325 20140 40073 80002 333 56009

59030=

48045 32962 01403 10224 20035 333=

48048 32562 20401 10320 20140 40086 82800 333 56900

59002=

48051 32960 03103 10310 20100 70100 333=

48053 32956 01801 10320 20163 40086 333 59012=

48060 32450 52202 10280 20126 40065 81136 333 56599

59020=

48062 32556 23206 10280 20220 40104 70122 82500 333

56900 59016=

48071 32460 13203 10270 20172 40108 81200 333 56900

59015=

48075 31457 62502 10275 20120 40084 70522 84501 333

56509 59016=

48077 31558 60000 10320 20118 40085 70522 84801 333

56909 59011=

48078 32557 52301 10132 20106 40094 83831 333 56559

59006=

48080 32460 42205 10290 20248 40100 82870 333 56490

58002=

48085 32458 43207 10292 20140 40101 82836 333 56999

59011=

48095 32458 70000 10320 20110 83940 333 56990=

48108 32596 63207 10330 20212 40095 83806 333 59008=

48109 32497 50401 10307 20203 40117 70222 85970 333

56900 59006=

48110 31596 33202 10345 20245 40097 70511 82305 333

56909 59002=

48112 NIL=

48030 32957 02202 10200 20033 333=

48072 NIL=

48087 32560 50401 10330 20151 82841 333 56999=

48099 31456 72306 10315 20215 40092 71799 83830 333

56550 59019=

48101 32559 72702 10300 20149 70322 83730 333 56990=

48103 32557 42201 10329 20191 40090 83830 333 56590

59005=

48057 32458 41502 10238 20066 81536 333 56559=

48094 32460 43203 10295 20185 40104 70322 83940 333

56990 59005=

48097 32557 72302 10320 20118 40104 84550 333 56990

59009=

48031 31962 02201 10210 20051 70500 333=

48033 32963 02701 10320 20116 40083 333 59009=

48034 32457 11802 10254 20046 81500 333 56500=

48039 32459 20000 10230 20118 81101 333 56505=

48043 32758 10702 10245 20068 81200 333 56900=

48052 32970 00401 10345 20158 333=

48055 NIL=

48064 32970 31401 10323 20215 40063 80031 333 56049

59026=

48065 32970 20000 10327 20140 80006 333 56009=

48074 32559 23205 10325 20140 40094 81101 333 56404

59004=

48092 31558 83203 10320 20140 40074 70522 8347/ 333

5699/ 59007=

48093 32550 83201 10308 20189 86870 333 56990=

48107 32950 22303 10330 20151 40091 80006 333 56009

59006=  
SIBM20 VBRR 120921

AAXX 12094

48001 32456 30901 10253 20150 40084 83800 333 56600 59016=

48004 31456 12201 10267 20172 70511 81500 333 56900=

48008 32558 51401 10288 20115 40094 82431 333 56566 59029=

48010 32560 20000 10290 20197 40097 81101 333 56906 59023=

48018 32560 21402 10290 20140 40100 82800 333 56900 59008=

48019 32960 00401 10288 20179 40089 333 58007=

48020 NIL=

48025 32458 10401 10297 20098 40099 81100 333 56900 59016=

48030 32957 02202 10200 20033 333=

48031 31962 02201 10210 20051 70500 333=

48033 32963 02701 10320 20116 40083 333 59009=

48034 32457 11802 10254 20046 81500 333 56500=

48035 31557 22703 10271 29015 40057 70500 81501 333 56909 59019=

48037 32962 03602 10321 20140 40080 333 59073=

48039 32459 20000 10320 20116 81101 333 56505=

48042 32957 12202 10325 20140 40073 80002 333 56009 59030=

48043 32758 10702 10245 20068 81200 333 56900=

48045 32962 01403 10224 20035 333=

48048 32562 20401 10320 20140 40086 82800 333 56900 59002=

48051 32960 03103 10310 20120 333=

48052 32970 00401 10345 20158 333=

48053 32956 01801 10320 20163 40086 333 59012=

48055 NIL=

48057 32458 41502 10238 20066 81536 333 56559=

48060 32450 52202 10280 20126 40065 81136 333 56599 59020=

48062 32556 23206 10280 20220 40104 82500 333 56900 59016=

48064 32970 31401 10323 20215 40063 80031 333 56049 59026=

48065 32970 20000 10327 20140 80006 333 56009=

48071 32460 13203 10270 20172 40108 81200 333 56900 59015=

48072 32460 12704 10280 20184 81200 333 56900=

48074 32559 23205 10325 20140 40094 81101 333 56404 59004=

48075 31457 62502 10275 20120 40084 70522 84501 333 56509 59016=

48077 31558 60000 10320 20118 40085 70522 84801 333 56909 59011=

48078 32557 52301 10332 20106 40094 83831 333 56559 59006=

48080 32460 42205 10290 20248 40100 83870 333 56490 58002=

48085 32458 43207 10292 20140 40101 82836 333 56999 59011=

48087 32560 50401 10330 20151 82841 333 56999=

48092 31558 83203 10320 20140 40074 70522 8347/ 333 5699/ 59007=

48093 32550 83201 10308 20189 86870 333 56990=

48094 32460 43203 10295 20185 40104 83940 333 56990 59005=

48095 32458 70000 10320 20110 83940 333 56990=

48097 32557 72302 10320 20118 40104 84550 333 56990 59009=

48099 31456 72302 10315 20215 40092 71799 83830 333 56550 59019=

48101 32559 72702 10300 20149 83730 333 56990=

48103 32557 42201 10329 20191 40090 83830 333 56590 59005=

48107 32950 22303 10330 20151 40091 80006 333 56009 59006=

48108 32596 63207 10330 20212 40095 83806 333 56809 59008=

48109 32497 50401 10307 20203 40117 85970 333 56990 59006=

48110 31596 33202 10345 20245 40097 70511 82305 333 56909 59002=

48112 NIL=  





