



*-*-*


<!--
.style2 {
	font-family:"Courier New", Courier, monospace;
	font-size: 14px;
}
-->






SMBM01 VBRR 120600

AAXX 12064

48001 21430 81401 10240 20226 40077 76166 887// 333

56599 59018=

48004 31110 80401 10252 20252 75052 8697/ 333 56559=

48008 31457 83202 10272 20256 40063 75055 8497/ 333

56569 59013=

48010 32456 80000 10260 20258 40051 8577/ 333 56669

59021=

48018 32558 80401 10285 20250 40065 8487/ 333 56569

59021=

48019 32458 83201 10298 20248 40049 8577/ 333 56599

59037=

48020 32460 60403 10320 20265 84830 333 56440=

48025 32456 60401 10320 20236 40048 83870 333 56540

59021=

48035 32560 72204 10296 20223 40040 85960 333 56690

59026=

48037 32560 61401 10349 20237 40041 84330 333 56660

59020=

48042 32559 51806 10360 20249 40042 83252 333 56449

59015=

48045 31557 71803 10246 20205 70344 87800 333 56500=

48048 32560 62203 10350 20235 40048 84850 333 56490

59017=

48051 21559 72702 10300 20270 72055 85930 333 56390=

48053 32456 61805 10330 20244 40059 84950 333 56590

59004=

48060 32350 70000 10290 20230 40056 84830 333 56690

58013=

48062 32457 81804 10290 20270 40065 86972 333 56490

59009=

48071 21358 82302 10263 20263 40073 76266 8692/ 333

5659/ 58002=

48075 32457 51401 10290 20215 40070 83350 333 56590

59008=

48077 32559 62304 10330 20244 40061 84901 333 56409

59014=

48078 32558 41801 10324 20253 40084 83801 333 56409

59007=

48080 32460 71307 10312 20255 40062 85870 333 56490

59001=

48085 32458 52203 10320 20281 40076 83336 333 56499

59001=

48095 32460 41401 10335 20275 70322 82940 333 56990=

48108 32596 62301 10330 20244 40095 84306 333 56609

58010=

48109 32497 62301 10300 20253 40093 86900 333 56900

58000=

48110 32596 40402 10345 20268 40093 83306 333 56509

58013=

48112 32598 62201 10335 20258 40096 70122 82216 333

56599 58010=

48030 31256 82202 10230 20181 70544 8394/ 333 56569=

48072 21462 82705 10270 20258 75065 86370 333 56590=

48087 32560 52304 10330 20258 83341 333 56499=

48099 32456 63202 10325 20248 40084 84930 333 56790

59001=

48101 32559 61402 10317 20265 70322 84971 333 56599=

48103 32456 51401 10335 20257 40083 85900 333 56300

59003=

48057 32458 62203 10250 20186 84351 333 56599=

48094 32459 42201 10300 20270 40074 84900 333 56900

59007=

48097 32557 72302 10330 20258 40094 86301 333 56909

59003=

48031 32260 42201 10255 20203 82840 333 56990=

48033 32563 61801 10340 20225 40052 86900 333 56400

59018=

48034 32456 72302 10252 20205 87300 333 56500=

48039 32460 51401 10336 20225 83150 333 56550=

48043 32556 81807 10285 20196 8587/ 333 56599=

48052 32468 41303 10358 20235 84800 333 56900=

48055 32556 72304 10288 20215 40051 86930 333 56550

58003=

48064 32470 50401 10370 20258 40030 84801 333 56409

59011=

48065 32558 52206 10355 20235 83870 333 56490=

48074 32460 51405 10320 20248 40078 83861 333 56599

59010=

48092 31458 61301 10315 20266 40066 71722 85901 333

56309 58008=

48093 21558 72301 10319 20265 75055 85970 333 56590=

48107 32350 23201 10346 20240 40084 82900 333 56500

59001=  
SMBM01 VBRR 120600

AAXX 12064

48001 21430 81401 10240 20226 40077 76166 887// 333 56599 59018=

48004 31110 80401 10252 20252 75052 8697/ 333 56559=

48008 31457 83202 10272 20256 40063 75055 8497/ 333 56569 59013=

48010 32456 80000 10260 20258 40051 8577/ 333 56669 59021=

48018 32558 80401 10285 20250 40065 8487/ 333 56569 59021=

48019 32458 83201 10298 20248 40049 8577/ 333 56599 59037=

48020 32460 60403 10320 20265 84830 333 56440=

48025 32456 60401 10320 20236 40048 83870 333 56540 59021=

48030 31256 82202 10230 20181 70544 8394/ 333 56569=

48031 32260 42201 10255 20203 82840 333 56990=

48033 32563 61801 10340 20225 40052 86900 333 56400 59018=

48034 32456 72302 10252 20205 87300 333 56500=

48035 32560 72204 10296 20223 40040 85960 333 56690 59026=

48037 32560 61401 10349 20237 40041 84330 333 56660 59020=

48039 32460 51401 10336 20225 83150 333 56550=

48042 32559 51806 10360 20249 40042 83252 333 56449 59015=

48043 32556 81807 10285 20196 8587/ 333 56599=

48045 31557 71803 10246 20205 70344 87800 333 56500=

48048 32560 62203 10350 20235 40048 84850 333 56490 59017=

48051 21559 72702 10300 20270 72055 85930 333 56390=

48052 32468 41303 10358 20235 84800 333 56900=

48053 32456 61805 10330 20244 40059 84950 333 56590 59004=

48055 32556 72304 10288 20215 40051 86930 333 56550 58003=

48057 32458 62203 10250 20186 84351 333 56599=

48060 32350 70000 10290 20230 40056 84830 333 56690 58013=

48062 32457 81804 10290 20270 40065 86972 333 56490 59009=

48064 32470 50401 10370 20258 40030 84801 333 56409 59011=

48065 32558 52206 10355 20235 83870 333 56490=

48071 21358 82302 10263 20263 40073 76266 8692/ 333 5659/ 58002=

48072 21462 82705 10270 20258 75065 86370 333 56590=

48074 32460 51405 10320 20248 40078 83861 333 56599 59010=

48075 32457 51401 10290 20215 40070 83350 333 56590 59008=

48077 32559 62304 10330 20244 40061 84901 333 56409 59014=

48078 32558 41801 10324 20253 40084 83801 333 56409 59007=

48080 32460 71307 10312 20255 40062 85870 333 56490 59001=

48085 32458 52203 10320 20281 40076 83336 333 56499 59001=

48087 32560 52304 10330 20258 83341 333 56499=

48092 31458 61301 10315 20266 40066 71722 85901 333 56309 58008=

48093 21558 72301 10319 20265 75055 85970 333 56590=

48094 32459 42201 10300 20270 40074 84900 333 56900 59007=

48095 32460 41401 10335 20275 70322 82940 333 56990=

48096 32458 61406 10320 20248 40086 85930 333 56990 59010=

48097 32557 72302 10330 20258 40094 86301 333 56909 59003=

48099 32456 63202 10325 20248 40084 84930 333 56790 59001=

48101 32559 61402 10317 20265 70322 84971 333 56599=

48103 32456 51401 10335 20257 40083 85900 333 56300 59003=

48107 32350 23201 10346 20240 40084 82900 333 56500 59001=

48108 32596 62301 10330 20244 40095 84306 333 56609 58010=

48109 32497 62301 10300 20253 40093 86900 333 56900 58000=

48110 32596 40402 10345 20268 40093 83306 333 56509 58013=

48112 32598 62201 10335 20258 40096 70122 82216 333 56599 58010=  





