



*-*-*


<!--
.style2 {
	font-family:"Courier New", Courier, monospace;
	font-size: 14px;
}
-->






SMBM01 VBRR 121200

AAXX 12124

48001 32440 80401 10270 20226 40059 8496/ 333 10290 56119 58002

 60002=

48004 22560 40402 10283 20203 83901 333 10291 56505 60022=

48008 31556 70402 10270 20211 40059 71750 84970 333 10370 56450

58014 69902=

48010 32556 61801 10345 20240 40020 83931 333 10363 56566 59022

 60002=

48018 22556 70000 10300 20253 40019 84870 333 10373 56560 59004

 60782=

48019 32450 83203 10310 20225 40028 85760 333 10370 56560 59015

 60002=

48020 32258 60000 10355 20249 86830 333 10400 56550 60002=

48025 31440 63201 10376 20221 40017 70444 84840 333 10403 56550 59028

 60002=

48030 32256 72204 10200 20130 86940 333 10260 56560 60002=

48031 21258 70401 10217 20156 70544 85870 333 10278 56490 60002=

48033 32562 63301 10270 20248 40025 84806 333 10400 56609 59026

 60002=

48034 32456 62301 10285 20190 86800 333 10315 56500 60002=

48035 31556 50000 10273 20191 40026 70522 83901 333 10352 56909 59015

 60002=

48037 32556 70000 10382 20255 40088 85870 333 10405 56550 59033

 60002=

48039 32460 70000 10345 20225 84902 333 10405 56505 60002=

48042 32558 61302 10370 20246 40012 84952 333 10423 56499 59023

 60002=

48043 32620 61803 10285 20230 84232 333 10320 56999 60002=

48045 21450 71803 10250 20150 72165 87800 333 10314 56500 60032=

48048 32550 32201 10390 20213 40010 83800 333 10430 56900 59009

 60002=

48051 22558 50401 10292 20260 70122 84830 333 10378 56690 60152=

48052 32450 42205 10398 20196 84800 333 10440 56900 60002=

48053 32450 72701 10400 20269 40009 84950 333 10405 56690 59012

 60002=

48055 21556 73604 10248 20219 40048 72096 85970 333 10330 56550 59006

60032=

48057 21456 71401 10230 20181 70195 85950 333 10292 56590 69902=

48060 21430 60000 10278 20220 40039 70255 84930 333 10337 56590 59011

69902=

48062 32556 52704 10330 20280 40058 83830 333 10345 56690 59003

 60002=

48064 32550 32703 10388 20267 49997 81501 333 10435 56409 59024

 60002=

48065 32956 42203 10400 20230 80071 333 10435 56099 60002=

48071 32456 13204 10325 20258 40068 81200 333 10355 56900 58000

 60002=

48072 32458 42705 10320 20265 82830 333 10370 56790 60002=

48074 32958 00401 10375 20240 40026 333 10406 59027 60002=

48075 32456 50000 10300 20190 40041 83830 333 10345 56590 59019

 60002=

48077 32556 72306 10364 20214 40024 85931 333 10398 56999 59009

 60002=

48078 32556 31801 10377 20224 40034 82201 333 10412 56909 59014

 60002=

48080 32457 42203 10312 20255 40076 82870 333 10380 56690 58012

 60002=

48085 32456 42704 10316 20282 40062 84900 333 10345 56700 59001

 60002=

48087 32950 02301 10344 20225 333 10402 60002=

48092 31956 12302 10365 20221 40022 70522 80001 333 10400 56009 59006

 60002=

48093 32950 11402 10337 20257 80001 333 10392 56009 60002=

48094 32956 03203 10330 20260 40058 333 10400 59001 60002=

48095 32956 00000 10350 20266 333 10395 60002=

48097 32557 32302 10350 20240 40068 83500 333 10402 56900 59003

 60002=

48099 32456 40000 10342 20240 40047 83301 333 10392 56909 59007

 60002=

48101 32556 12302 10322 20265 81200 333 10360 56500 60002=

48103 32540 32201 10332 20244 40053 83500 333 10382 56500 59004

 60002=

48107 32340 42701 10328 20244 40075 84900 333 10366 56700 58004

 60002=

48108 31596 73204 10315 20266 40070 70399 84976 333 10368 56779 59011

 60002=

48109 32496 40000 10330 20275 40078 84900 333 10365 56900 58001

 60002=

48110 32596 83202 10325 20270 40077 84357 333 10370 56999 58003

 60002=

48112 31496 82703 10300 20239 40082 71799 8697/ 333 10362 5669/ 58003

 60002=  
SMBM01 VBRR 121200

NIL=  





