



*-*-*


<!--
.style2 {
	font-family:"Courier New", Courier, monospace;
	font-size: 14px;
}
-->






SMBM01 VBRR 121800

NIL=  
SMBM01 VBRR 121800 RRA

AAXX 12184

48008 32510 32301 10250 20186 40067 82430 333 56450 58010=

48010 32501 30000 10272 20226 40058 81430 333 56660 59002=

48018 22510 30000 10260 20229 40064 82810 333 56560 59010=

48025 31405 40000 10325 20215 40059 70444 83840 333 56590 59019=

48042 32550 71803 10306 20237 40049 85950 333 56490 59009=

48053 32540 40000 10330 20244 40068 82550 333 56690 58009=

48057 22439 41401 10218 20185 83350 333 56990=

48060 21410 80000 10243 20226 40073 70396 85970 333 56590 59002=

48062 32550 62302 10300 20280 40085 83830 333 56990 58002=

48071 32920 00000 10295 20266 40070 333 58000=

48078 32550 61802 10316 20236 40078 81501 333 56909 59002=

48080 21940 02202 10275 20240 40088 70165 333 59005=

48094 32950 00000 10280 20270 40091 333 59002=

48097 32956 02402 10300 20239 40080 333 58006=

48099 32930 02301 10300 20253 40084 333 59001=

48103 32510 32201 10301 20239 83500 333 56500 59006=

48108 32595 61401 10290 20259 40103 83306 333 56909 59001=

48109 NIL=

48110 31595 40000 10285 20262 40105 70299 81306 333 56909 58007=

48112 31597 82702 10282 20250 40090 70192 83876 333 56699 58002=  





