



*-*-*


<!--
.style2 {
	font-family:"Courier New", Courier, monospace;
	font-size: 14px;
}
-->






SMBM01 VBRR 121200

AAXX 12124

48001 32420 20000 10223 20223 40122 81450 333 10261

56990 58018=

48004 32560 20000 10234 20198 82800 333 10282 56900=

48008 32956 00000 10240 20191 40125 333 10290 58007=

48010 32530 20000 10252 20219 40117 82400 333 10295

56900 59015=

48018 31540 30000 10245 20191 40124 70544 82410 333

10288 56430 58007=

48019 32940 00000 10245 20191 40124 333 10302 58014=

48020 32950 00000 10250 20219 333 10290=

48025 32456 32701 10260 20203 40125 82840 333 10287

56590 58005=

48035 32910 00901 10201 20168 40119 333 10259 59018=

48037 32920 30000 10262 20203 40115 80001 333 10286

56009 58010=

48042 32556 20000 10260 20215 40114 82800 333 10298

56900 58008=

48045 22330 80404 10160 20160 74044 887// 333 10189

56199 60012=

48048 32550 20401 10256 20203 40121 82800 333 10300

56900 58007=

48051 32558 20000 10286 20260 82200 333 10322 56900=

48053 32450 50000 10250 20219 40120 83550 333 10280

56790 59009=

48060 22420 50000 10215 20190 40113 85800 333 10246

56800 58019 60062=

48062 32450 53201 10290 20270 40108 84830 333 10315

56990 58007=

48071 32450 43202 10282 20233 40108 83530 333 10305

56990 58004=

48075 21456 30000 10230 20198 40138 70155 83800 333

10270 56500 58031=

48077 32556 70401 10270 20226 40105 85930 333 10300

56990 58016=

48078 32550 53203 10283 20248 40110 83839 333 10315

56799 58014=

48080 21456 52201 10270 20240 40110 75065 83770 333

10336 56490 58013=

48085 32456 60902 10294 20259 40108 83976 333 10325

56399 58008=

48095 32950 10000 10290 20259 80002 333 10328 56009=

48108 32595 81402 10305 20267 40096 84806 333 10355

56309 58006=

48109 32496 40000 10300 20266 40102 84800 333 10340

56900 59003=

48110 32595 80000 10295 20256 40100 82307 333 10330

56909 58001=

48112 32597 82202 10280 20250 40101 84876 333 10305

56599 58008=

48030 32140 80401 10162 20162 888// 333 10190 56199=

48072 32456 80000 10285 20259 86970 333 10320 56690=

48087 32550 30000 10274 20240 82801 333 10350 56909=

48099 32330 40000 10308 20254 40100 84900 333 10365

56900 58000=

48101 32550 50000 10293 20274 83305 333 10355 56909=

48103 32340 22201 10302 20253 40094 82800 333 10354

56500 59003=

48057 22450 60000 10180 20165 83850 333 10200 56990

69902=

48094 32456 50000 10295 20250 40108 84940 333 10355

56190 58012=

48097 32656 62801 10300 20246 40110 86800 333 10340

56900 58006=

48031 32260 42201 10160 20144 84800 333 10215 56400=

48033 32959 03601 10250 20219 40115 333 10320 59006=

48034 32456 20000 10220 20168 82500 333 10253 56500=

48039 32459 33201 10264 20229 82801 333 10307 56505=

48043 32510 50000 10200 20185 85800 333 10240 56500=

48052 32450 40000 10280 20242 84800 333 10295 56900=

48055 22456 30000 10215 20200 40122 82930 333 10240

56660 58018 60022=

48064 32450 22701 10260 20229 40096 80031 333 10315

56099 58003=

48065 32440 70000 10262 20229 85870 333 10285 56990=

48074 32556 20000 10270 20226 40127 81501 333 10306

56909 58032=

48092 32457 63203 10300 20260 40089 83836 333 10350

56999 58011=

48093 32530 60402 10284 20250 82841 333 10342 56399=

48107 32330 40000 10294 20259 40096 82909 333 10350

56309 58003=

48096 32457 53204 10290 20230 40107 83931 333 10348

56999 58005=  





