



*-*-*


<!--
.style2 {
	font-family:"Courier New", Courier, monospace;
	font-size: 14px;
}
-->






SIBM20 VBRR 120300

AAXX 12034

48001 32440 10000 10175 20165 40176 81100 333 56500

58002=

48004 31563 10401 10200 20168 70144 81100 333 56900=

48008 32556 20000 10190 20175 40177 82200 333 56100

58031=

48010 32558 40000 10210 20175 40175 84800 333 56500

58024=

48018 22558 60401 10205 20192 40179 83872 333 56119

58021=

48019 32960 00000 10210 20175 40167 333 58029=

48020 32450 73602 10210 20195 70144 87200 333 56500=

48025 21100 62701 10226 20214 40172 74244 85840 333

56690 58024=

48035 31460 83202 10171 20154 40170 70144 8597/ 333

56189 58023=

48037 22456 43602 10220 20205 40158 81670 333 56880

58023=

48042 32456 83601 10235 20220 40154 8597/ 333 56999

58018=

48045 22009 90403 10160 20160 74344 89/// 333 56999=

48048 32558 80401 10235 20209 40167 8697/ 333 5649/

58035=

48051 32560 23602 10254 20230 82500 333 56800=

48053 21450 63601 10220 20220 40162 75155 8557/ 333

56899 58024=

48060 21430 80000 10198 20177 40148 75022 8577/ 333

56499 58000=

48062 32456 80000 10250 20230 40138 86970 333 56990

58011=

48071 32458 73203 10288 20211 40136 85970 333 56490

58008=

48075 22457 60000 10240 20209 40159 84830 333 56590

58005=

48077 22559 70401 10260 20229 40139 85930 333 56990

58014=

48078 22556 42702 10272 20233 40142 82531 333 56799

58017=

48080 32459 61302 10270 20240 40134 84870 333 56490

58010=

48085 32958 23202 10289 20250 40131 80031 333 56099

58005=

48095 32960 30401 10280 20250 80002 333 56009=

48108 32596 60902 10300 20253 40129 84806 333 56209

58005=

48109 32497 40000 10310 20267 40135 83801 333 56909

58009=

48110 21596 60000 10300 20266 40128 70544 81106 333

56209 58003=

48112 22597 80406 10270 20240 40122 83876 333 56199

58005=

48030 21257 12201 10108 20091 74144 81200 333 56500=

48072 22460 60402 10290 20259 84830 333 56690=

48087 22960 20000 10280 20255 80001 333 56009=

48099 22550 33201 10300 20253 40129 82801 333 56909

58010=

48101 32458 60401 10288 20259 84631 333 56199=

48103 22456 30402 10303 20239 40133 81232 333 56119

58009=

48057 21/01 91401 10178 20165 74744 89/// 333 56999=

48094 32559 30000 10295 20250 40137 82501 333 56909

58008=

48097 31557 30502 10280 20250 40139 70511 81406 333

56909 59006=

48031 22258 31401 10180 20129 83800 333 56400=

48033 22562 23601 10230 20198 40165 82500 333 56900

58024=

48034 22456 23602 10170 20149 82500 333 56500=

48039 21450 80401 10230 20214 74044 879// 333 56699=

48043 32540 80502 10170 20170 8687/ 333 56999=

48052 22456 73601 10245 20218 85930 333 56890=

48055 21150 80000 10172 20169 40180 75055 8692/ 333

56599 58035=

48064 32456 82701 10245 20209 40147 84870 333 56660

58035=

48065 32456 80402 10243 20226 85870 333 56880=

48074 32458 70402 10250 20219 40162 82550 333 56450

58026=

48092 32557 20404 10295 20251 40124 81401 333 56909

58012=

48093 32658 20401 10297 20253 81101 333 56309=

48107 31950 23201 10300 20253 40116 7//44 80006 333

56009 58001=

48096 32958 13304 10280 20250 40142 80001 333 56009

58005=  





