



*-*-*


<!--
.style2 {
	font-family:"Courier New", Courier, monospace;
	font-size: 14px;
}
-->






SMBM01 VBRR 130000 RRA

AAXX 13004

48053 32450 81802 10260 20246 40063 8557/ 333 20256

5649/ 59014=

48060 21420 80000 10200 20200 40085 71044 8583/ 333

20194 5659/ 58028=

48062 22456 71302 10276 20270 40058 85970 333 20250

56490 58005 60042=

48071 32456 70000 10270 20256 40060 84970 333 20255

56490 59001=

48075 21456 80000 10230 20214 40086 75255 8697/ 333

5639/ 59017 69902=

48077 22456 80000 10260 20246 40060 85931 333 20245

56599 59007=

48078 21550 71801 10253 20247 40079 70165 84571 333

20242 56499 59000 60102=

48080 32456 70402 10261 20246 40069 84970 333 20247

56390 58000=

48085 21356 81402 10254 20254 40070 75065 86970 333

20250 56490 59003 60542=

48108 21495 80000 10250 20242 40094 75055 8537/ 333

20238 5699/ 58003 60012=

48109 22496 82301 10272 20256 40081 85930 333 20207

56990 58004 60072=

48110 21494 80000 10250 20250 40102 75165 85377 333

20250 56599 58007 60072=

48112 21496 82203 10245 20245 40102 70152 8477/ 333

20193 5659/ 58005 60022=

48087 21450 80000 10250 20250 75065 8597/ 333 20243

5649/ 60522=

48099 21330 82302 10248 20248 40081 72165 8597/ 333

20236 5659/ 58007 60332=

48101 21450 80000 10261 20261 76165 8692/ 333 20222

5659/ 60252=

48103 21340 82202 10242 20240 40090 76066 8672/ 333

20238 5655/ 58010 60412=

48057 22456 80000 10202 20202 86950 333 20195 56990

69902=

48094 21456 82203 10260 20255 40078 76066 8592/ 333

20202 5659/ 58004 60052=

48097 21456 81301 10255 20255 40096 76166 8637/ 333

20245 5699/ 58014 60182=

48052 32450 40000 10270 20256 84800 333 20264 56900=

48055 22456 80000 10212 20209 40079 8597/ 333 20208

5649/ 58002 60022=

48064 32450 43601 10275 20268 40048 82731 333 20226

56449 59006=

48065 32450 60401 10270 20256 83571 333 20242 56499=

48074 32356 61601 10260 20246 40085 8672/ 333 20250

5649/ 59004=

48092 21450 81801 10260 20260 40063 75165 8592/ 333

20250 5699/ 58000 60112=

48093 21440 82301 10258 20255 75166 8697/ 333 20252

5699/ 60412=

48107 21330 80401 10242 20242 40097 76166 8597/ 333

20235 5655/ 58009 60072=  





