



*-*-*


<!--
.style2 {
	font-family:"Courier New", Courier, monospace;
	font-size: 14px;
}
-->






SMBM01 VBRR 130000 RRA

AAXX 13004

48051 31930 03601 10160 20150 71000 333 20154=

48062 31440 33601 10190 20180 40115 71011 83800 333

20160 56800 58007=

48071 31930 00000 10195 20175 40113 74244 333 20185

58006=

48075 31950 00000 10130 20113 40166 71044 333 20125

58011 60002=

48077 32956 10000 10190 20175 40107 80001 333 20172

56009 58005=

48080 31907 00000 10163 20144 40112 74044 333 20150

59006=

48085 31930 11401 10170 20168 40109 74244 80006 333

20168 56009 58005=

48108 31/91 90000 10200 20185 40113 74144 333 20182

59002 60002=

48110 31595 31302 10245 20229 40111 70511 82505 333

20240 56909 58002=

48112 32598 60403 10260 20246 40106 70122 82216 333

20210 56199 58006 60002=

48099 31330 20401 10200 20185 40108 74144 82700 333

20180 56900 58007=

48103 31420 10402 10188 20188 40116 74644 81100 333

20183 56100 58007=

48094 32440 10000 10195 20185 40117 71000 81500 333

20188 56900 58013=

48097 31520 41301 10190 20182 40120 74011 84500 333

20182 56900 58004=

48092 31510 10000 10170 20170 40096 74044 81400 333

20160 56900 58004 60002=

48093 32940 10401 10192 20175 80001 333 20188 56009=

48107 31930 00902 10180 20165 40114 74144 333 20175

58005 60002=

48096 31310 50204 10200 20200 40120 74211 85700 333

20190 56300 58007=  





