



*-*-*


<!--
.style2 {
	font-family:"Courier New", Courier, monospace;
	font-size: 14px;
}
-->






SIBM20 VBRR 130300

AAXX 13034

48001 21330 80000 10153 20150 40187 75055 8672/ 333

56339 58044=

48004 32356 63201 10194 20159 86900 333 56500=

48008 31556 40000 10175 20155 40168 71044 82430 333

56660 58017=

48010 31420 60000 10170 20154 40169 74444 86700 333

56600 58012=

48018 32957 01801 10180 20165 40155 333 58015=

48019 32958 00000 10168 20154 40153 333 58013=

48020 32340 80402 10190 20175 88700 333 56400=

48025 31008 73201 10192 20175 40161 74244 87600 333

56600 58016=

48035 31940 00000 10121 20102 40179 71044 333 58035=

48037 32956 03201 10200 20185 40148 333 58017=

48042 31940 00000 10230 20181 40143 71044 333 58008=

48045 32558 13204 10163 20059 81100 333 56900=

48048 31958 03201 10207 20175 40147 71044 333 58007=

48051 32958 03602 10200 20190 333=

48053 31930 03601 10220 20185 40137 70500 333 59004=

48060 32440 13201 10160 20123 40179 81100 333 56500

58010=

48062 32956 00401 10220 20190 40137 333 58002=

48071 31456 13601 10250 20219 40140 70144 81200 333

56800 58005=

48075 31957 00000 10190 20159 40161 70144 333 58003=

48077 32959 00000 10224 20185 40137 333 58015=

48078 32956 13202 10217 20173 40147 80001 333 56009

58006=

48080 31959 00402 10201 20168 40130 70244 333 59002=

48085 31958 01801 10242 20226 40134 70144 333 58002=

48095 32958 00401 10230 20214 333=

48108 31596 40901 10270 20226 40135 70344 81406 333

56209 58006=

48109 32497 20000 10268 20211 40142 70222 81501 333

56909 58005=

48110 31596 41802 10295 20250 40132 70522 83206 333

56209 58007=

48112 32598 60405 10280 20268 40123 82216 333 56199

58001=

48030 32256 32201 10130 20067 81240 333 56560=

48072 31959 03201 10250 20219 70500 333=

48087 32950 00000 10236 20209 333=

48099 31430 23602 10255 20203 40138 74044 82500 333

56900 58006=

48101 32958 00000 10262 20229 333=

48103 31456 10404 10244 20191 40139 70244 81100 333

56100 58005=

48057 32956 01402 10193 20159 333=

48094 32959 03201 10235 20205 40140 333 58008=

48097 31557 21302 10235 20212 40151 70544 82500 333

56900 58003=

48031 32957 00401 10160 20085 333=

48033 32962 03601 10200 20168 40137 333 58020=

48034 31956 00000 10130 20086 71000 333=

48039 31950 32201 10222 20185 74044 80002 333 56009=

48043 32056 00000 10150 20134 333=

48052 31956 03602 10230 20181 70511 333=

48055 31456 10000 10148 20132 40168 72844 81500 333

56500 58004=

48064 32956 01401 10200 20185 40134 333 58014=

48065 31956 02201 10202 20193 70522 333=

48074 32958 00402 10220 20173 40161 333 58015=

48092 31950 00402 10250 20205 40120 70500 333 58004=

48093 32958 10401 10242 20191 70222 80001 333 56009=

48107 31950 00901 10362 20229 40123 7//44 333 59001=

48096 31957 10403 10250 20205 40145 70544 80001 333

56009 58004=  





