



*-*-*


<!--
.style2 {
	font-family:"Courier New", Courier, monospace;
	font-size: 14px;
}
-->






SIBM20 VBRR 130300

AAXX 13034

48001 31905 90000 10130 20125 40152 74544 333 59014=

48004 31456 11301 10158 20123 71044 81100 333 56900=

48008 31557 40401 10167 20135 40126 82430 333 56110 59030=

48010 31040 01801 10160 20123 40131 74244 333 59027=

48018 32558 31401 10165 20144 40126 83800 333 56900 59016=

48019 32560 33602 10167 20123 40121 80030 333 56060 59027=

48020 31950 00000 10150 20134 70144 333=

48025 31220 62201 10165 20106 40134 74044 83840 333 56550 59018=

48030 32956 02202 10106 29040 333=

48031 32256 03601 10140 29037 333=

48033 32962 03601 10220 20156 40108 333 59031=

48034 31456 11801 10128 20076 71011 81500 333 56500=

48035 31540 10402 10154 20111 40127 71000 81500 333 56900 59024=

48037 32656 23601 10189 20118 40118 80030 333 56050 59028=

48039 31950 21401 10212 20120 70511 80002 333 56009=

48042 32956 01301 10222 20156 40122 70500 333 59016=

48043 32056 01802 10180 20086 333=

48045 32660 31805 10173 20014 80040 333 56050=

48048 32560 22201 10215 20156 40128 82800 333 56900 59013=

48051 32958 03101 10171 20120 70200 333 =

48052 32958 03201 10208 20120 333=

48053 31950 01801 10220 20136 40120 71000 333 59019=

48055 31956 00000 10143 20082 40145 70500 333 59012=

48057 32956 01402 10174 20074 333=

48060 32430 40000 10185 20143 40140 82130 333 56590 59020=

48062 NIL=

48064 32960 01401 10198 20109 40123 333 59002=

48065 32960 00000 10200 20130 333=

48071 32958 00501 10225 20198 40138 333 59008=

48072 31959 03202 10230 20163 70522 333=

48074 32558 13604 10225 20156 40142 81400 333 56900 58008=

48075 31957 00000 10190 20140 40152 70544 333 59003=

48077 31958 00000 10210 20160 40119 70500 333 59007=

48078 32950 10402 10214 20164 40141 80001 333 56009 59004=

48080 32958 00000 10210 20175 40128 333 59023=

48085 31957 03604 10226 20185 40136 71044 333 59008=

48087 32956 00000 10228 20143 333=

48092 31950 53104 10210 20160 40111 70522 80070 333 56090 59014=

48093 32656 21401 10229 20198 82100 333 56500=

48094 32959 03202 10250 20210 40135 333 59011=

48095 32958 10403 10220 20185 70122 80002 333 56009=

48097 32557 62301 10240 20146 40158 70122 83530 333 56990 59002=

48099 32440 41303 10264 20179 40132 82830 333 56990 59009=

48101 32958 23202 10226 20181 70111 80030 333 56090=

48103 22450 30401 10258 20203 40131 83800 333 56100 59006=

48107 31950 20901 10240 20191 40132 70144 80006 333 56009 58004=

48108 32596 60501 10260 20203 40142 82436 333 56999 59001=

48109 32497 50401 10272 20211 40147 70222 82530 333 56990 59002=

48110 31596 81303 10275 20229 40139 70522 81157 333 56999 58001=

48112 32598 60403 10270 20226 40134 70122 82216 333 56199 59003=  
SIBM20 VBRR 130300

AAXX 13034

48001 31905 90000 10130 20125 40152 74544 333 59014=

48004 31456 11301 10158 20123 71044 81100 333 56900=

48008 31557 40401 10167 20135 40126 82430 333 56110

59030=

48010 31040 01801 10160 20123 40131 74244 333 59027=

48018 32558 31401 10165 20144 40126 83800 333 56900

59016=

48019 32560 33602 10167 20123 40121 80030 333 56060

59027=

48020 31950 00000 10150 20134 70144 333=

48025 31220 62201 10165 20106 40134 74044 83840 333

56550 59018=

48035 31540 10402 10154 20111 40127 71000 81500 333

56900 59024=

48037 32656 23601 10189 20118 40118 80030 333 56050

59028=

48042 32956 01301 10222 20156 40122 70500 333 59016=

48045 32660 31805 10173 20014 80040 333 56050=

48048 32560 22201 10215 20156 40128 82800 333 56900

59013=

48051 32958 03101 10171 20120 70200 333 =

48053 31950 01801 10220 20136 40120 71000 333 59019=

48060 32430 40000 10185 20143 40140 82130 333 56590

59020=

48062 NIL=

48071 32958 00501 10225 20198 40138 333 59008=

48075 31957 00000 10190 20140 40152 70544 333 59003=

48077 31958 00000 10210 20160 40119 70500 333 59007=

48078 32950 10402 10214 20164 40141 80001 333 56009

59004=

48080 32958 00000 10210 20175 40128 333 59023=

48085 31957 03604 10226 20185 40136 71044 333 59008=

48095 32958 10403 10220 20185 70122 80002 333 56009=

48108 32596 60501 10260 20203 40142 82436 333 56999

59001=

48109 32497 50401 10272 20211 40147 70222 82530 333

56990 59002=

48110 31596 81303 10275 20229 40139 70522 81157 333

56999 58001=

48112 32598 60403 10270 20226 40134 70122 82216 333

56199 59003=

48030 32956 02202 10106 29040 333=

48072 31959 03202 10230 20163 70522 333=

48087 32956 00000 10228 20143 333=

48099 32440 41303 10264 20179 40132 82830 333 56990

59009=

48101 32958 23202 10226 20181 70111 80030 333 56090=

48103 22450 30401 10258 20203 40131 83800 333 56100

59006=

48057 32956 01402 10174 20074 333=

48094 32959 03202 10250 20210 40135 333 59011=

48097 32557 62301 10240 20146 40158 70122 83530 333

56990 59002=

48031 32256 03601 10140 29037 333=

48033 32962 03601 10220 20156 40108 333 59031=

48034 31456 11801 10128 20076 71011 81500 333 56500=

48039 31950 21401 10212 20120 70511 80002 333 56009=

48043 32056 01802 10180 20086 333=

48052 32958 03201 10208 20120 333=

48055 31956 00000 10143 20082 40145 70500 333 59012=

48064 32960 01401 10198 20109 40123 333 59002=

48065 32960 00000 10200 20130 333=

48074 32558 13604 10225 20156 40142 81400 333 56900

58008=

48092 31950 53104 10210 20160 40111 70522 80070 333

56090 59014=

48093 32656 21401 10229 20198 82100 333 56500=

48107 31950 20901 10240 20191 40132 70144 80006 333

56009 58004=  





