



*-*-*


<!--
.style2 {
	font-family:"Courier New", Courier, monospace;
	font-size: 14px;
}
-->






SMBM01 VBRR 130600

AAXX 13064

48001 NIL=

48004 31458 10401 10236 20136 70511 81500 333 56900=

48008 32557 63401 10243 20136 40108 83930 333 56770 59030=

48010 31660 40000 10235 20185 40117 70344 80006 333 56005 59012=

48018 32560 30402 10255 20138 40104 83800 333 56900 59030=

48019 32960 03601 10240 20155 40113 333 59022=

48020 32456 30403 10260 20179 80002 333 56005=

48025 32440 62701 10262 20119 40115 83841 333 56559 59030=

48030 32356 52205 10154 20073 82806 333 56509=

48031 31262 50902 10188 20047 70522 82206 333 56906=

48033 32963 03601 10280 20158 40099 333 59008=

48034 32457 23202 10228 20097 83800 333 56500=

48035 31956 02203 10242 20066 40074 70500 333 59023=

48037 32560 30401 10281 20146 40096 81130 333 56880 59024=

48039 31456 32202 10297 20124 70511 80002 333 56005=

48042 31956 21802 10300 20124 40108 70511 80050 333 56090 59013=

48043 32657 32705 10225 20097 83200 333 56900=

48045 32561 31404 10220 20035 83800 333 56500=

48048 32560 30401 10280 20146 40115 82850 333 56490 59011=

48051 32558 40402 10272 20130 70322 81236 333 56699=

48052 32570 20401 10300 20149 82200 333 56900=

48053 31950 01802 10310 20146 40102 70500 333 59036=

48055 31556 12702 10250 20086 40079 70511 81500 333 56500 59016=

48057 32456 22401 10212 20072 81500 333 56400=

48060 32450 20401 10255 20123 40099 82100 333 56500 59027=

48062 32957 20902 10262 20200 40135 70122 80030 333 56090 59005=

48064 32970 01401 10300 20185 40099 333 59009=

48065 32965 00000 10310 20124 333=

48071 32960 03202 10250 20167 40135 333 59010=

48072 32960 02702 10270 20191 70122 333=

48074 32959 00000 10285 20184 40115 333 59009=

48075 31258 21401 10260 20120 40108 70511 82100 333 56500 58002=

48077 31958 00000 10310 20146 40106 70500 333 59008=

48078 32958 12301 10306 20168 40117 80001 333 56009 59006=

48080 32960 03201 10284 20220 40118 333 59008=

48085 31957 03207 10280 20184 40123 70500 333 59003=

48087 32960 00000 10308 20151 333 56000=

48092 32956 03103 10310 20124 40092 333 56000 59008=

48093 32957 02301 10314 20189 333=

48094 32960 03202 10305 20170 40120 333 59010=

48095 32960 00402 10300 20124 333=

48097 32957 00402 10300 20124 40125 333 59012=

48099 32456 20904 10313 20169 40115 83800 333 56900 59008=

48101 32960 03202 10293 20179 333=

48103 32456 30401 10316 20184 40114 82830 333 56110 59008=

48107 32950 00401 10324 20184 40109 333 59018=

48108 32596 60502 10330 20191 40124 83806 333 56109 58001=

48109 32497 30401 10308 20005 40133 70122 83500 333 56900 59011=

48110 31596 51802 10335 20232 40118 70522 82256 333 56799 59000=

48112 32598 60402 10315 20210 40121 70222 82216 333 56199 58005=  





