



*-*-*


<!--
.style2 {
	font-family:"Courier New", Courier, monospace;
	font-size: 14px;
}
-->






SIBM20 VBRR 130300

AAXX 13034

48001 31903 90000 10080 20076 40220 74744 89/// 333

56999 59002=

48004 31560 10401 10110 20091 70144 81100 333 56900=

48008 32558 10401 10155 20106 40209 81400 333 56500

59007=

48010 31540 20000 10135 20124 40204 74044 82600 333

56600 59008=

48018 32558 30401 10130 20113 40202 83800 333 56100

58002=

48019 32960 00401 10150 20111 40197 333 58002=

48020 31930 90000 10130 20113 74544 89/// 333 56///=

48025 31008 60000 10132 20113 40206 74244 86600 333

56600 59003=

48035 31960 10000 10116 20081 40214 70500 80001 333

56009 58000=

48037 32958 33602 10168 20135 40182 80001 333 56007

59005=

48042 31550 23202 10200 20168 40173 71011 81402 333

56909 59012=

48045 32559 30402 10110 20045 82801 333 56505=

48048 32960 00401 10190 20139 40183 333 59006=

48051 32558 53602 10185 20160 70322 83230 333 56590=

48053 32950 03203 10180 20147 40166 333 59013=

48060 31/10 90000 10094 20068 40258 74744 89/// 333

56999 58024=

48062 31550 60402 10195 20170 40154 70544 84970 333

56690 58001=

48071 32458 20502 10245 20167 40146 82200 333 56900

59012=

48075 31958 00000 10152 20130 40218 70144 333 58002=

48077 32959 00402 10228 20163 40158 333 59006=

48078 32556 20902 10152 20122 40166 81501 333 56909

58008=

48080 32459 23201 10221 20185 40149 82200 333 56900

59004=

48085 32458 30901 10242 20155 40145 85830 333 56990

58005=

48095 32458 80401 10295 20160 70222 84940 333 56009=

48108 22596 31405 10270 20172 40143 82406 333 56409

58000=

48109 21497 80405 10252 20250 40130 70265 8397/ 333

5699/ 59009=

48110 31596 41803 10265 20196 40142 70522 81136 333

56999 58005=

48112 32598 60408 10262 20215 40132 70122 82216 333

56199 58010=

48030 32256 22204 10026 20004 82100 333 56500=

48072 31459 41301 10240 20181 70522 82306 333 56409=

48087 32556 60403 10214 20143 83370 333 56990=

48099 32440 40401 10232 20163 40161 83830 333 56190

58014=

48101 21558 83601 10228 20181 70252 8577/ 333 5649/=

48103 32450 70404 10230 20143 40161 86730 333 56110

58011=

48057 32958 01502 10140 20082 333=

48094 32959 00403 10250 20130 40154 333 58002=

48097 32457 61403 10240 20144 40168 84830 333 56990

58013=

48031 32962 01801 10122 20030 333=

48033 32962 03601 10170 20117 40145 333 59020=

48034 31456 20402 10144 20082 71011 82500 333 56500=

48039 31440 30401 10180 20108 74044 82402 333 56509=

48043 32054 00502 10135 20082 333=

48052 32958 00402 10200 20130=

48055 31948 00000 10108 20069 40230 71011 333 58013=

48064 32960 01801 10195 20130 40155 333 59012=

48065 32968 00000 10196 20130 333=

48074 32959 03203 10185 20108 40169 333 59005=

48092 31557 50000 10225 20150 40149 70522 82430 333

56990 58010=

48093 32657 20401 10241 20134 81101 333 56509=

48107 32330 40903 10250 20167 40142 84900 333 56500

58019=  
SIBM20 VBRR 130300

AAXX 13034

48001 31903 90000 10080 20076 40220 74744 89/// 333 56999 59002=

48004 31560 10401 10110 20091 70144 81100 333 56900=

48008 32558 10401 10155 20106 40209 81400 333 56500 59007=

48010 31540 20000 10135 20124 40204 74044 82600 333 56600 59008=

48018 32558 30401 10130 20113 40202 83800 333 56100 58002=

48019 32960 00401 10150 20111 40197 333 58002=

48020 31930 90000 10130 20113 74544 89/// 333 56///=

48025 31008 60000 10132 20113 40206 74244 86600 333 56600 59003=

48030 32256 22204 10026 20004 82100 333 56500=

48031 32962 01801 10122 20030 333=

48033 32962 03601 10170 20117 40145 333 59020=

48034 31456 20402 10144 20082 71011 82500 333 56500=

48035 31960 10000 10116 20081 40214 70500 80001 333 56009 58000=

48037 32958 33602 10168 20135 40182 80001 333 56007 59005=

48039 31440 30401 10180 20108 74044 82402 333 56509=

48042 31550 23202 10200 20168 40173 71011 81402 333 56909 59012=

48043 32056 00502 10135 20082 333=

48045 32559 30402 10110 20045 82801 333 56505=

48048 32960 00401 10190 20139 40183 333 59006=

48051 32558 53602 10185 20160 70322 83230 333 56590=

48052 32958 00402 10200 20130=

48053 32950 03203 10180 20147 40166 333 59013=

48055 31948 00000 10108 20069 40230 71011 333 58013=

48057 32958 01502 10140 20082 333=

48060 31/10 90000 10094 20068 40258 74744 89/// 333 56999 58024=

48062 31550 60402 10195 20170 40154 70544 84970 333 56690 58001=

48064 32960 01801 10195 20130 40155 333 59012=

48065 32968 00000 10196 20130 333=

48071 32458 20502 10245 20167 40146 82200 333 56900 59012=

48072 31459 41301 10240 20181 70522 82306 333 56409=

48074 32959 03203 10185 20108 40169 333 59005=

48075 31958 00000 10152 20130 40218 70144 333 58002=

48077 32959 00402 10228 20163 40158 333 59006=

48078 32556 20902 10152 20122 40166 81501 333 56909 58008=

48080 32459 23201 10221 20185 40149 82200 333 56900 59004=

48085 32458 30901 10242 20155 40145 85830 333 56990 58005=

48087 32556 60403 10214 20143 83370 333 56990=

48092 31557 50000 10225 20150 40149 70522 82430 333 56990 58010=

48093 32657 20401 10241 20134 81101 333 56509=

48094 32959 00403 10250 20130 40154 333 58002=

48095 32458 80401 10295 20160 70222 84940 333 56009=

48096 32956 40304 10220 20173 40169 70222 80030 333 56090 58005=

48097 32457 61403 10240 20144 40168 84830 333 56990 58013=

48099 32440 40401 10232 20163 40161 83830 333 56190 58014=

48101 21558 83601 10228 20181 70252 8577/ 333 5649/=

48103 32450 70404 10230 20143 40161 86730 333 56110 58011=

48107 32330 40903 10250 20167 40142 84900 333 56500 58019=

48108 22596 31405 10270 20172 40143 82406 333 56409 58000=

48109 21497 80405 10252 20250 40130 70265 8397/ 333 5699/ 59009=

48110 31596 41803 10265 20196 40142 70522 81136 333 56999 58005=

48112 32598 60408 10262 20215 40132 70122 82216 333 56199 58010=  
SIBM20 VBRR 130300 RRA

AAXX 13034

48095 32458 80401 10295 20160 70222 84940 333 56009=  





