



*-*-*


<!--
.style2 {
	font-family:"Courier New", Courier, monospace;
	font-size: 14px;
}
-->






SMBM01 VBRR 131800

NIL=  
SMBM01 VBRR 131800 RRA

AAXX 13184

48008 31510 20000 10160 20144 40159 71044 81430 333 56560 59010=

48010 32501 50000 10155 20152 40174 82430 333 56550 59010=

48018 32430 42201 10165 20135 40151 82870 333 56590 59040=

48025 32905 03201 10170 20135 40178 333 59014=

48042 32550 50000 10210 20175 40143 82450 333 56560 59008=

48053 32540 50000 10200 20168 40143 83550 333 56690 59015=

48057 32439 11401 10137 20082 81500 333 56900=

48060 32910 00000 10106 20091 40205 333 59014=

48062 32550 50000 10220 20190 40138 70122 83830 333 56990 59010=

48071 32920 00000 10240 20191 40127 333 59019=

48078 32550 40000 10207 20185 40149 82531 333 56599 59001=

48080 32440 52201 10210 20185 40144 83870 333 56990 58002=

48094 32450 60000 10220 20190 40142 70322 85940 333 56990 58003=

48097 32456 72301 10230 20143 40154 70222 84550 333 56990 58008=

48099 32440 20000 10200 20185 40144 82500 333 56900 58007=

48103 32510 60402 10226 20181 40130 84830 333 56110 58003=

48108 32595 41401 10200 20185 40139 83406 333 56909 59001=

48109 22495 80403 10258 20246 40109 70222 8697/ 333 5699/ 59002=

48110 31994 20000 10230 20163 40133 70511 80005 333 56009 59001=

48112 32597 70408 10255 20215 40110 83876 333 56199 58003=  





