



*-*-*


<!--
.style2 {
	font-family:"Courier New", Courier, monospace;
	font-size: 14px;
}
-->






SMBM01 VBRR 130600

AAXX 13064

48001 32556 70000 10280 20220 40077 83870 333 56110 59002=

48004 32458 52201 10330 20234 85900 333 56500=

48008 32556 21401 10332 20212 40073 81430 333 56450 58010=

48010 32560 60000 10345 20225 40064 83830 333 56660 58001=

48018 32559 21402 10342 20225 40078 81160 333 56560 58013=

48019 32960 03201 10337 20240 40070 333 58008=

48020 32358 23602 10370 20231 82800 333 56500=

48025 31940 03201 10372 20207 40071 70444 333 58012=

48030 32357 12201 10262 20119 81200 333 56500=

48031 31260 11401 10272 20154 70544 81200 333 56900=

48033 32963 03601 10370 20246 40056 333 58007=

48034 32457 62303 10298 20207 86800 333 56500=

48035 32559 63203 10311 20237 40048 84960 333 56590 58001=

48037 32558 23601 10383 20240 40067 82100 333 56600 58020=

48039 32460 32201 10370 20248 83100 333 56500=

48042 32557 21804 10385 20247 40057 82200 333 56900 59002=

48043 32657 31807 10300 20187 83200 333 56600=

48045 31558 31404 10300 20149 70444 83800 333 56500=

48048 32560 21801 10400 20230 40068 82800 333 56900 58014=

48051 32559 10402 10342 20260 70211 81200 333 56900=

48052 32970 02201 10414 20230 333 56000=

48053 32456 41803 10390 20267 40056 84800 333 56500 59002=

48055 32558 50405 10300 20124 40052 85900 333 56500 58007=

48057 32458 42202 10290 20179 84300 333 56600=

48060 31440 60000 10302 20207 40067 70544 84830 333 56550 58016=

48062 32558 42707 10345 20300 40086 70122 84900 333 56700 59001=

48064 32570 10901 10410 20292 40052 81100 333 56900 58002=

48065 32970 23205 10395 20230 80006 333 56009=

48071 32460 23203 10345 20280 40093 82200 333 56900 58007=

48072 32460 40405 10360 20278 70222 83830 333 56790=

48074 32961 02305 10375 20221 40081 333 58011=

48075 32457 30000 10330 20210 40058 70222 82260 333 56650 59009=

48077 32559 22301 10370 20227 40071 81201 333 56909 59001=

48078 32558 41803 10380 20221 40080 83801 333 56509 58003=

48080 32460 52308 10350 20266 40086 83970 333 56690 58014=

48085 32458 12703 10342 20300 40078 81800 333 56800 59004=

48087 32560 42302 10384 20221 70322 84800 333 56900=

48092 32459 42702 10375 20205 40065 84200 333 56900 58005=

48093 32558 22702 10369 20246 82800 333 56500=

48094 32460 53203 10375 20270 40086 85900 333 56900 58005=

48095 32560 31801 10380 20255 83800 333 56900=

48097 32557 41301 10355 20244 40094 84800 333 56900 58005=

48099 32457 52302 10363 20249 40084 84901 333 56509 58007=

48101 32560 33202 10350 20240 83200 333 56500=

48103 32557 61401 10358 20249 40091 86800 333 56300 58008=

48107 32350 62301 10340 20257 40088 84970 333 56700 58004=

48108 32596 82302 10340 20257 40096 84366 333 56439 58006=

48109 32497 60000 10340 20270 40100 85901 333 56909 59004=

48110 21596 71302 10295 20256 40103 75099 84306 333 56909 58003=

48112 32598 62701 10350 20266 40097 70122 82216 333 56699 59005=  





