



*-*-*


<!--
.style2 {
	font-family:"Courier New", Courier, monospace;
	font-size: 14px;
}
-->






SMBM01 VBRR 130000 RRA

AAXX 13004

48042 21556 71304 10290 20230 40060 70255 85850 333

20272 56990 59007 69902=

48048 32550 41801 10288 20230 40059 84800 333 20282

56400 59010=

48051 22958 43602 10250 20240 80031 333 20244 56069=

48060 21430 70000 10227 20214 40095 75055 84970 333

20208 56590 59002 60022=

48062 32556 60000 10280 20270 40075 84330 333 20250

56990 59006=

48071 32450 60000 10280 20268 40081 84970 333 20270

56990 59005=

48075 32956 00000 10225 20210 40091 333 20200 59016=

48077 32956 00000 10278 20233 40059 333 20260 59013=

48078 32550 31801 10293 20250 40077 82501 333 20275

56909 59010=

48080 22456 40000 10251 20219 40089 83870 333 20235

56690 59013 60022=

48085 32456 30000 10256 20246 40083 82306 333 20255

56709 58000=

48108 32595 71402 10260 20253 40095 83366 333 20248

56999 59005=

48110 31595 60000 10275 20262 40096 70522 83306 333

20270 56909 59002=

48112 32597 62701 10270 20256 40093 82246 333 20229

56699 59001=

48087 32950 10000 10260 20246 80001 333 20244 56009=

48099 32450 31301 10275 20250 40084 82830 333 20248

56990 59003=

48101 32956 00000 10275 20250 333 20232=

48103 32540 40000 10277 20268 40083 84500 333 20250

56700 59005=

48057 22956 30000 10210 20175 80050 333 20200 56090=

48094 32956 00000 10270 20260 40088 333 20230 58004=

48097 32557 32301 10280 20233 40076 81501 333 20260

56909 58004=

48031 32259 23201 10190 20098 82070 333 20180 56090=

48039 21456 62201 10288 20230 70155 83560 333 20285

56550 69902=

48043 32620 60000 10210 20195 84330 333 20172 56990=

48052 32450 50000 10304 20253 85900 333 20299 56900=

48055 21530 60000 10212 20207 40096 71055 83950 333

20205 56550 58000 60012=

48064 32550 60401 10299 20239 40053 82130 333 20250

56990 58005=

48065 32450 60000 10294 20248 83831 333 20266 56999=

48074 32458 21402 10290 20248 40088 82500 333 20274

56900 59004=

48093 32956 01401 10278 20250 333 20270=

48107 32340 42301 10260 20246 40089 84900 333 20248

56600 59004=  
SMBM01 VBRR 130000 RRA

AAXX 13004

48001 NIL=

48004 22460 50000 10234 20214 85900 333 20207 56500 60022=

48008 22556 30401 10233 20214 40078 82430 333 20220 56170 59003

 69902=

48010 32540 70000 10252 20219 40058 84930 333 20235 56660 59009=

48018 21956 01401 10235 20214 40078 71044 333 20225 59006 69902

00786=

48019 32950 00000 10233 20214 40063 333 20230 59001=

48020 NIL=

48025 31410 30000 10260 20203 40071 70444 82840 333 20256 56590

 59001=

48030 32956 02201 10127 20086 333 20102=

48031 32259 23201 10190 20098 82070 333 20180 56090=

48033 32960 00000 10270 20240 40062 333 20250 59016=

48034 32456 50000 10190 20175 85500 333 20182 56500=

48035 31530 71804 10238 20191 40080 70522 85970 333 20230 56450

 59021=

48037 32540 10000 10283 20233 40052 80030 333 20275 56090 59012=

48039 21456 62201 10288 20230 70155 83560 333 20285 56550 69902=

48042 21556 71304 10290 20230 40060 70255 85850 333 20272 56990 59007

 69902=

48043 32620 60000 10210 20195 84330 333 20172 56990=

48045 NIL=

48048 32550 41801 10288 20230 40059 84800 333 20282 56400 59010=

48051 22958 43602 10250 20240 80031 333 20244 56069=

48052 32450 50000 10304 20253 85900 333 20299 56900=

48053 32550 31801 10300 20239 40075 81556 333 20294 56699 58017=

48055 21530 60000 10212 20207 40096 71055 83950 333 20205 56550 58000

 60012=

48057 22956 30000 10210 20175 80050 333 20200 56090=

48060 21430 70000 10227 20214 40095 75055 84970 333 20208 56590 59002

 60022=

48062 32556 60000 10280 20270 40075 84330 333 20250 56990 59006=

48064 32550 60401 10299 20239 40053 82130 333 20250 56990 58005=

48065 32450 60000 10294 20248 83831 333 20266 56999=

48071 32450 60000 10280 20268 40081 84970 333 20270 56990 59005=

48072 NIL=

48074 32458 21402 10290 20248 40088 82500 333 20274 56900 59004=

48075 32956 00000 10225 20210 40091 333 20200 59016=

48077 32956 00000 10278 20233 40059 333 20260 59013=

48078 32550 31801 10293 20250 40077 82501 333 20275 56909 59010=

48080 22456 40000 10251 20219 40089 83870 333 20235 56690 59013

 60022=

48085 32456 30000 10256 20246 40083 82306 333 20255 56709 58000=

48087 32950 10000 10260 20246 80001 333 20244 56009=

48092 31556 30000 10270 20256 40061 70511 81431 333 20255 56999

 59006=

48093 32956 01401 10278 20250 333 20270=

48094 32956 00000 10270 20260 40088 333 20230 58004=

48095 NIL=

48097 32557 32301 10280 20233 40076 81501 333 20260 56909 58004=

48099 32450 31301 10275 20250 40084 82830 333 20248 56990 59003=

48101 32956 00000 10275 20250 333 20232=

48103 32540 40000 10277 20268 40083 84500 333 20250 56700 59005=

48107 32340 42301 10260 20246 40089 84900 333 20248 56600 59004=

48108 32595 71402 10260 20253 40095 83366 333 20248 56999 59005=

48109 NIL=

48110 31595 60000 10275 20262 40096 70522 83306 333 20270 56909

 59002=

48112 32597 62701 10270 20256 40093 82246 333 20229 56699 59001=  





