



*-*-*


<!--
.style2 {
	font-family:"Courier New", Courier, monospace;
	font-size: 14px;
}
-->






SMBM01 VBRR 130600

AAXX 13064

48001 32556 20000 10233 20198 40142 82200 333 56800

59008=

48004 31562 20401 10257 20179 70311 82800 333 56900=

48008 32558 11401 10266 20172 40151 81100 333 56400

59011=

48010 32560 30000 10280 20203 40149 82830 333 56550

59010=

48018 32559 30000 10273 20191 40153 70322 82810 333

56110 59007=

48019 32960 03203 10280 20158 40143 333 59008=

48020 32458 43602 10275 20220 83200 333 56500=

48025 32440 40401 10262 20215 40160 83840 333 56590

59003=

48035 32560 31803 10241 20155 40133 83800 333 56900

59000=

48037 32458 23201 10285 20203 40145 70322 82100 333

56800 59001=

48042 32456 23601 10280 20220 40133 82200 333 56800

59002=

48045 32556 62304 10199 20168 86800 333 56500=

48048 32562 20401 10295 20207 40144 82800 333 56900

59007=

48051 32560 10401 10294 20230 70211 81200 333 56800=

48053 32456 33603 10290 20215 40142 83800 333 56800

59002=

48060 32350 22701 10245 20161 40124 70122 81130 333

56440 59015=

48062 32458 42302 10310 20280 40128 70322 84800 333

56900 59002=

48071 32460 13203 10306 20267 40124 81200 333 56900

59005=

48075 32458 51401 10260 20203 40137 70122 84830 333

56590 59003=

48077 32959 10401 10310 20225 40129 80001 333 56009

58000=

48078 32558 30402 10316 20251 40131 82501 333 56709

59002=

48080 32562 20401 10340 20257 40126 82200 333 56400

58003=

48085 32458 22703 10318 20254 40124 82800 333 56900

58004=

48095 32960 00403 10300 20239 333 56000=

48108 32596 63601 10337 20258 40117 83366 333 56799

58006=

48109 NIL=

48110 31596 83202 10325 20278 40121 70522 84347 333

56999 58006=

48112 NIL=

48030 31257 40402 10170 20117 70144 81200 333 56100=

48072 32460 11302 10315 20265 70122 81200 333 56100=

48087 32960 00402 10315 20236 333=

48099 32558 22301 10340 20257 40113 82800 333 56900

59002=

48101 32660 13602 10328 20258 70311 81100 333 56100=

48103 32456 43202 10348 20266 40114 70311 84800 333

56700 59003=

48057 31458 32302 10220 20173 70344 82830 333 56390=

48094 32960 00402 10325 20240 40132 333 58008=

48097 32557 40703 10320 20265 40128 70211 84800 333

56900 58005=

48031 32260 31401 10205 20130 83800 333 56400=

48033 32963 03601 10280 20203 40139 70100 333 59019=

48034 32457 21802 10242 20136 82500 333 56500=

48039 32460 33201 10285 20203 83100 333 56600=

48043 32557 43205 10220 20185 84200 333 56400=

48052 32458 32601 10310 20225 70311 82200 333 56900=

48055 32556 41405 10227 20177 40138 70144 84800 333

56300 59019=

48064 32560 21401 10301 20223 40125 70300 81101 333

56809 58000=

48065 32557 20402 10307 20203 70322 82800 333 56700=

48074 32460 20403 10300 20239 40129 82200 333 56900

59019=

48092 32457 43202 10320 20248 40106 70322 84100 333

56900 58003=

48093 32658 51401 10318 20248 85800 333 56300=

48107 32350 41301 10338 20257 40099 82906 333 56309

59010=

48096 32558 43207 10310 20254 40130 84200 333 56900

58005=  
SMBM01 VBRR 130600

AAXX 13064

48001 32556 20000 10233 20198 40142 82200 333 56800

59008=

48004 31562 20401 10257 20179 70311 82800 333 56900=

48008 32558 11401 10266 20172 40151 81100 333 56400

59011=

48010 32560 30000 10280 20203 40149 82830 333 56550

59010=

48018 32559 30000 10273 20191 40153 70322 82810 333

56110 59007=

48019 32960 03203 10280 20158 40143 333 59008=

48020 32458 43602 10275 20220 83200 333 56500=

48025 32440 40401 10262 20215 40160 83840 333 56590

59003=

48035 32560 31803 10241 20155 40133 83800 333 56900

59000=

48037 32458 23201 10285 20203 40145 70322 82100 333

56800 59001=

48042 32456 23601 10280 20220 40133 82200 333 56800

59002=

48045 32556 62304 10199 20168 86800 333 56500=

48048 32562 20401 10295 20207 40144 82800 333 56900

59007=

48051 32560 10401 10294 20230 70211 81200 333 56800=

48053 32456 33603 10290 20215 40142 83800 333 56800

59002=

48060 32350 22701 10245 20161 40124 70122 81130 333

56440 59015=

48062 32458 42302 10310 20280 40128 70322 84800 333

56900 59002=

48071 32460 13203 10306 20267 40124 81200 333 56900

59005=

48075 32458 51401 10260 20203 40137 70122 84830 333

56590 59003=

48077 32959 10401 10310 20225 40129 80001 333 56009

58000=

48078 32558 30402 10316 20251 40131 82501 333 56709

59002=

48080 32562 20401 10340 20257 40126 82200 333 56400

58003=

48085 32458 22703 10318 20254 40124 82800 333 56900

58004=

48095 32960 00403 10300 20239 333 56000=

48108 32596 63601 10337 20258 40117 83366 333 56799

58006=

48109 NIL=

48110 31596 83202 10325 20278 40121 70522 84347 333

56999 58006=

48112 NIL=

48030 31257 40402 10170 20117 70144 81200 333 56100=

48072 32460 11302 10315 20265 70122 81200 333 56100=

48087 32960 00402 10315 20236 333=

48099 32558 22301 10340 20257 40113 82800 333 56900

59002=

48101 32660 13602 10328 20258 70311 81100 333 56100=

48103 32456 43202 10348 20266 40114 70311 84800 333

56700 59003=

48057 31458 32302 10220 20173 70344 82830 333 56390=

48094 32960 00402 10325 20240 40132 333 58008=

48097 32557 40703 10320 20265 40128 70211 84800 333

56900 58005=

48031 32260 31401 10205 20130 83800 333 56400=

48033 32963 03601 10280 20203 40139 70100 333 59019=

48034 32457 21802 10242 20136 82500 333 56500=

48039 32460 33201 10285 20203 83100 333 56600=

48043 32557 43205 10220 20185 84200 333 56400=

48052 32458 32601 10310 20225 70311 82200 333 56900=

48055 32556 41405 10227 20177 40138 70144 84800 333

56300 59019=

48064 32560 21401 10301 20223 40125 70300 81101 333

56809 58000=

48065 32557 20402 10307 20203 70322 82800 333 56700=

48074 32460 20403 10300 20239 40129 82200 333 56900

59019=

48092 32457 43202 10320 20248 40106 70322 84100 333

56900 58003=

48093 32658 51401 10318 20248 85800 333 56300=

48107 32350 41301 10338 20257 40099 82906 333 56309

59010=

48096 32558 43207 10310 20254 40130 84200 333 56900

58005=  





