



*-*-*


<!--
.style2 {
	font-family:"Courier New", Courier, monospace;
	font-size: 14px;
}
-->






SIBM20 VBRR 140900

AAXX 14094

48001 21330 83201 10272 20256 40027 76366 8497/ 333

56459 58012=

48004 22560 41301 10313 20267 84900 333 56500=

48008 32557 61801 10320 20265 40031 83970 333 56440

59008=

48010 21457 60000 10298 20282 40028 72055 84970 333

56440 59023=

48018 NIL=

48019 NIL=

48020 NIL=

48025 NIL=

48035 NIL=

48037 NIL=

48042 NIL=

48045 NIL=

48048 NIL=

48051 NIL=

48053 NIL=

48060 NIL=

48062 NIL=

48071 NIL=

48075 NIL=

48077 NIL=

48078 NIL=

48080 NIL=

48085 NIL=

48095 NIL=

48108 NIL=

48109 NIL=

48110 NIL=

48112 NIL=

48030 NIL=

48072 NIL=

48087 NIL=

48099 NIL=

48101 NIL=

48103 NIL=

48057 NIL=

48094 NIL=

48097 NIL=

48031 NIL=

48033 NIL=

48034 NIL=

48039 NIL=

48043 NIL=

48052 NIL=

48055 NIL=

48064 NIL=

48065 NIL=

48074 NIL=

48092 NIL=

48093 NIL=

48107 NIL=  
SIBM20 VBRR 140900 RRA

AAXX 14094

48018 32557 61401 10320 20248 40035 83870 333 56440

59013=

48019 32460 62702 10318 20265 40032 83660 333 56560

59013=

48020 32257 63602 10340 20270 86800 333 56500=

48025 32458 61401 10332 20275 40025 84840 333 56550

59018=

48035 32560 62202 10298 20223 40014 84960 333 56190

59002=

48037 32560 61801 10334 20258 40021 83831 333 56449

59011=

48042 32559 62202 10340 20257 40017 84852 333 56449

59004=

48045 31130 71402 10260 20229 74244 87300 333 56500=

48048 32560 51801 10351 20240 40024 83851 333 56499

59010=

48051 22559 61301 10310 20270 70122 85930 333 56490=

48053 32456 71802 10330 20258 40035 84956 333 56599

59004=

48060 32340 62201 10290 20230 40004 84970 333 56490

59017=

48062 22456 70903 10290 20270 40056 70122 85970 333

56590 58005=

48071 32458 82303 10300 20266 40061 8597/ 333 5659/

58007=

48075 21456 70000 10270 20226 40049 79596 85970 333

56590 59009=

48077 32559 72301 10334 20258 40033 85931 333 56499

59012=

48078 21440 82301 10261 20253 40062 79596 8592/ 333

56499 59000=

48080 21459 72201 10294 20274 40065 75065 85870 333

56590 58002=

48085 32357 82704 10296 20266 40062 86970 333 56590

58002=

48095 21458 82202 10250 20250 76155 84970 333 56990=

48108 22595 73203 10300 20246 40090 84366 333 56699

58001=

48110 32495 53203 10330 20258 40085 83306 333 56509

59012=

48112 32598 62702 10325 20270 40084 70222 82216 333

56699 59016=

48030 32357 82203 10223 20185 71722 8794/ 333 56569=

48072 22460 72705 10285 20266 85970 333 56590=

48087 21458 72301 10270 20256 75055 8597/ 333 5649/=

48099 21440 82302 10272 20256 40074 70296 8697/ 333

5659/ 58005=

48101 21457 82702 10303 20266 75155 8497/ 333 5659/=

48103 21456 82202 10275 20250 40074 70255 86770 333

56550 58006=

48057 21458 82302 10237 20209 70155 86950 333 56690=

48094 21456 82201 10255 20255 40075 76066 8697/ 333

5699/ 58006=

48097 21456 82501 10250 20250 40095 76322 8597/ 333

5659/ 58006=

48031 32258 71401 10265 20229 878// 333 56499=

48033 32563 61801 10315 20265 40035 86900 333 56400

58000=

48034 21356 81801 10245 20221 75055 8692/ 333 56599=

48039 32460 61401 10320 20265 84960 333 56550=

48043 32556 61806 10260 20229 83232 333 56599=

48052 32468 32202 10362 20264 83800 333 56900=

48055 22456 71405 10262 20229 40037 70355 84971 333

56399 59009=

48064 32560 33601 10345 20270 40019 82801 333 56606

59010=

48065 32558 31401 10350 20266 83800 333 56400=

48074 32460 61402 10320 20281 40048 83361 333 56440

59017=

48092 21456 82301 10255 20246 40057 75055 8697/ 333

5659/ 59008=

48093 21456 83201 10253 20247 75165 86971 333 56599=

48107 32350 62301 10290 20248 40081 84970 333 56550

58002=  





