



*-*-*


<!--
.style2 {
	font-family:"Courier New", Courier, monospace;
	font-size: 14px;
}
-->






SMBM01 VBRR 140000

AAXX 14004

48001 NIL=

48004 22110 80000 10250 20250 75296 8697/ 333 20215

56999 61012=

48008 22456 80000 10257 20246 40054 8497/ 333 20243

56459 59003 60002=

48010 22440 70000 10260 20250 40042 84730 333 20240

56440 59013 60002=

48018 22556 80000 10256 20246 40048 8497/ 333 20250

56559 59003 60002=

48019 22450 80000 10248 20240 40047 887// 333 20244

56499 59003 60002=

48020 22356 70000 10260 20246 87800 333 20235 56500

60002=

48025 22220 63201 10266 20256 40046 84840 333 20260

56880 59004 60012=

48035 31220 80000 10227 20214 40059 8597/ 333 20220

56549 59002 60002=

48037 32550 71801 10272 20256 40043 84530 333 20270

56440 58002=

48042 22557 71802 10265 20235 40046 84850 333 20248

56440 59011 60052=

48045 NIL=

48048 32559 51801 10266 20240 40054 84850 333 20260

56490 58001=

48051 21456 80000 10256 20240 76166 86920 333 20250

56490 60112=

48053 32450 81803 10260 20246 40065 8585/ 333 20250

56499 58002=

48060 32440 70000 10222 20205 40081 82172 333 20208

56566 59004=

48062 21350 82709 10250 20230 40069 79665 86970 333

56560 58011 60132=

48071 21460 80000 10275 20246 40070 72162 8697/ 333

20260 5659/ 58010 60032=

48075 21456 80000 10220 20205 40097 75055 8677/ 333

5659/ 58011 60012=

48077 21556 80000 10260 20260 40056 70266 85970 333

20245 56490 59004 60022=

48078 21440 81801 10250 20242 40081 75065 8477/ 333

20240 56499 58002 60072=

48080 21450 80402 10253 20253 40071 75166 85920 333

20248 56590 58002 60412=

48085 21356 81402 10264 20264 40071 75065 86970 333

20263 56590 58001 60012=

48095 NIL=

48108 22494 80000 10240 20233 40102 85377 333 20230

56699 58008 60002=

48109 NIL=

48110 22495 81802 10240 20240 40103 85307 333 20235

56509 58001=

48112 22597 80402 10250 20250 40100 83876 333 20195

56199 59004 60012=

48030 21150 82201 10170 20170 70155 8684/ 333 20165

56569 60032=

48072 NIL=

48087 22450 70000 10266 20256 8497/ 333 20246 5649/

60042=

48099 21330 80000 10243 20243 40084 76165 8692/ 333

20235 5699/ 58003 60452=

48101 21450 80000 10248 20248 70265 8597/ 333 20210

5699/ 60442=

48103 21330 81401 10250 20233 40087 75355 8672/ 333

20247 5633/ 59003 60032=

48057 21456 80000 10193 20193 70155 86970 333 20190

56590 60012=

48094 22456 70000 10258 20250 40075 85970 333 20205

56590 59003 60022=

48097 21557 82402 10250 20250 40098 72065 8697/ 333

20245 5699/ 58002=

48031 21/05 91402 10190 20190 74764 89/// 333 20180

56999 60032 =

48033 22560 71301 10260 20246 40055 85970 333 20250

56590 59015 69902=

48034 21148 83602 10210 20208 75365 8692/ 333 20195

5659/ 60022=

48039 22456 61401 10265 20229 83560 333 20264 56550

60002=

48043 22520 81806 10205 20205 8677/ 333 20179 56599

60302=

48052 22450 70000 10272 20256 85930 333 20265 56990

60022=

48055 22556 70000 10215 20211 40072 83936 333 20213

56399 59007 60002=

48064 22450 73601 10270 20256 40034 84731 333 20224

56449 59016 60032=

48065 22450 70401 10270 20256 84570 333 20235 56990

60402=

48074 21250 80000 10240 20240 40066 75096 8672/ 333

20240 56499 59019 60082=

48092 21450 80000 10255 20255 40061 75055 8697/ 333

20250 5699/ 58008 60022=

48093 21450 80000 10261 20258 75055 8637/ 333 20254

56999 60022=

48107 21330 82301 10242 20242 40098 76166 8597/ 333

20235 5655/ 58001 60182=  





