



*-*-*


<!--
.style2 {
	font-family:"Courier New", Courier, monospace;
	font-size: 14px;
}
-->






SMBM01 VBRR 140000 RRA

AAXX 14004

48001 31904 90000 10115 20115 40161 74344 89/// 333

20110 56999 59002=

48020 31920 90000 10170 20154 74544 333 20140 56000=

48053 32950 00000 10195 20175 40125 333 20183 58009=

48060 32430 50000 10117 20102 40178 83130 333 20110

56550 59003=

48057 31940 00000 10104 20104 71000 333 20098 56000=

48043 31010 00000 10105 20091 71044 333 20070 56000=

48055 31/06 90000 10090 20088 40176 74544 89/// 333

20071 56/// 58002=  
SMBM01 VBRR 140000 RRB

AAXX 14004

48020 31920 90000 10170 20154 74544 333 20140 56000=

48051 32556 23601 10184 20170 81201 333 20181 56809=

48062 31405 20000 10180 20180 40117 74144 82500 333

20160 56900 58002=

48071 31930 00000 10220 20205 40120 74244 333 20205

58007=

48075 31950 00000 10130 20113 40164 71044 333 20120

59002=

48077 32956 00000 10210 20195 40121 333 20194 58014=

48078 32950 10000 10192 20175 40129 80001 333 20177

56009 58006=

48080 31956 00000 10172 20154 40119 71044 333 20157

58007=

48085 31430 21401 10182 20180 40118 74244 81806 333

20181 56909 58009=

48108 31493 60000 10210 20198 40117 74022 83406 333

20193 56999 58004=

48109 31496 10000 10206 20195 40121 71022 81500 333

20163 56900 58002=

48110 31595 81303 10255 20239 40112 70522 81207 333

20250 56809 58001=

48112 31597 80402 10260 20246 40108 70522 83846 333

20205 56199 58002=

48087 31940 10000 10176 20155 71044 80001 333 20150

56009=

48099 31330 30000 10198 20183 40123 74144 82801 333

20180 56909 58015=

48103 31420 30402 10190 20190 40117 74044 83700 333

20184 56100 58001=

48094 31440 10000 10210 20200 40113 71000 81500 333

20202 56900 59004=

48097 31540 20000 10210 20202 40122 74011 81500 333

20190 56909 58002=

48092 31503 30000 10180 20180 40096 74644 82401 333

20170 56909 59000=

48093 32940 00000 10198 20185 333 20190=

48107 31930 20901 10200 20200 40116 74144 80006 333

20194 56009 58002=

48096 31920 12602 10210 20210 40119 71011 80001 333

20175 56009 59003=  





