



*-*-*


<!--
.style2 {
	font-family:"Courier New", Courier, monospace;
	font-size: 14px;
}
-->






SIBM20 VBRR 140900

AAXX 14094

48001 21440 82701 10175 20125 40150 72055 8572/ 333

56519 59012=

48004 32458 43201 10225 20198 84900 333 56500=

48008 32556 30000 10250 20167 40122 82930 333 56110

59018=

48010 32558 30000 10240 20209 40125 83800 333 56400

59002=

48018 32959 01401 10270 20172 40121 333 58004=

48019 32560 12702 10265 20160 40119 81100 333 56600

59001=

48020 32958 03602 10240 20204 333=

48025 32440 20401 10280 20186 40132 82100 333 56900

59002=

48035 31558 23203 10244 20155 40092 70500 82100 333

56900 59001=

48037 32558 23201 10280 20184 40116 70322 82100 333

56800 58008=

48042 32557 10000 10295 20202 40106 81100 333 56900

59006=

48045 32559 62204 10209 20160 86800 333 56500=

48048 32560 20401 10300 20207 40112 82800 333 56900

58000=

48051 32558 53601 10300 20210 83831 333 56799=

48053 32956 03601 10310 20189 40102 333 59002=

48060 32440 30000 10256 20160 40089 82130 333 56550

59016=

48062 32957 02704 10305 20250 40118 333 58000=

48071 31958 03203 10288 20215 40114 70500 333 59006=

48075 32957 00401 10290 20140 40088 333 59001=

48077 32959 00000 10330 20212 40103 333 59002=

48078 32560 23201 10312 20189 40108 81101 333 56909

59002=

48080 32960 02205 10302 20207 40105 333 59007=

48085 32958 03203 10310 20225 40104 333 59003=

48095 32960 00401 10305 20223 333=

48108 32596 43203 10325 20240 40101 83306 333 56809

58002=

48109 NIL=

48110 31596 63205 10315 20259 40096 70522 82306 333

56909 58001=

48112 32597 82703 10311 20254 40092 83876 333 56699

58004=

48030 32556 72204 10154 20092 87900 333 56500=

48072 32960 03601 10310 20225 333=

48087 32960 00401 10318 20215 333=

48099 32557 20402 10335 20218 40099 82800 333 56900

58002=

48101 32960 03201 10321 20200 333=

48103 32457 13202 10332 20172 40098 81500 333 56700

59003=

48057 32457 32201 10218 20111 83800 333 56600=

48094 32960 03202 10330 20220 40106 333 58002=

48097 32557 42501 10325 20200 40100 84500 333 56900

58000=

48031 32558 71401 10175 20086 87800 333 56400=

48033 32563 11801 10280 20203 40088 81100 333 56900

58012=

48034 32456 52301 10240 20166 85300 333 56500=

48039 32458 11701 10294 20215 81100 333 56500=

48043 32057 03202 10225 20124 333=

48052 32958 03602 10335 20223 333=

48055 32556 11302 10265 20146 40088 81100 333 56500

59005=

48064 32960 01401 10270 20211 40100 333 58000=

48065 32960 03201 10312 20203 333=

48074 32958 01401 10310 20203 40102 333 59016=

48092 32958 01301 10330 20212 40081 333 59002=

48093 32958 00401 10326 20212 333=

48107 32950 03601 10330 20234 40097 333 58002=

48096 32059 03304 10330 20191 40104 333 59000=  





