



*-*-*


<!--
.style2 {
	font-family:"Courier New", Courier, monospace;
	font-size: 14px;
}
-->






SMBM01 VBRR 140000 RRA

AAXX 14004

48001 NIL=

48004 NIL=

48008 22550 62701 10135 20107 40127 83930 333 20125 56650 59016=

48010 31210 30000 10120 20111 40119 74244 83600 333 20110 56800 

58010=

48018 32556 73201 10140 20124 40112 84870 333 20130 56790 58010=

48019 32540 10000 10135 20130 40122 80001 333 20132 56009 58020=

48020 NIL=

48025 31110 12202 10136 20107 40120 74044 81600 333 20128 56900 

58005=

48030 32950 02201 10070 20046 333 20062=

48031 31950 03201 10086 20044 70500 333 20078=

48033 32560 43301 10160 20144 40103 82501 333 20145 56909 58015=

48034 21456 60000 10105 20074 70295 86900 333 20095 56500=

48035 31558 60000 10106 20069 40132 70399 84960 333 20100 56690 

59002=

48037 32910 00000 10158 20123 40098 333 20152 58003=

48039 21450 20000 10162 20144 70199 82400 333 20163 56900 60032=

48042 22556 30000 10175 20147 40106 82850 333 20163 56990 58008 

60022=

48043 21010 20000 10100 20079 80032 333 20060 56099 60012=

48045 NIL=

48048 32540 20000 10133 20113 40114 83800 333 20126 56900 58010=

48051 31910 00000 10127 20110 74044 333 20121=

48052 32450 20401 10150 20111 82200 333 20140 56900=

48053 32950 00000 10150 20134 40112 333 20150 59007=

48055 31420 10000 10052 20047 40164 71011 81500 333 20048 56500 

58007=

48057 31439 12201 10084 20055 71000 81500 333 20080 56900=

48060 22420 80000 10120 20102 40139 8677/ 333 20105 5659/ 58005=

48062 31540 50401 10160 20160 40121 74044 83830 333 20135 56990 

58007=

48064 32950 00401 10154 20134 40090 333 20115 58003=

48065 32950 00000 10145 20134 333 20135=

48071 31940 03202 10212 20175 40126 71000 333 20200 58010=

48072 NIL=

48074 31950 00000 10160 20144 40116 71000 333 20148 58005=

48075 31956 00000 10100 20100 40165 71022 333 20095 59003=

48077 31956 00000 10170 20135 40113 71000 333 20140 58006=

48078 32956 10000 10160 20144 40099 80001 333 20156 56009 59006=

48080 31450 40000 10144 20124 40125 71044 82870 333 20135 56690 

58005=

48085 31930 00000 10148 20145 40123 74244 333 20146 58004=

48087 32950 00000 10126 20113 333 20116=

48092 31920 00401 10150 20142 40104 71022 333 20140 58012=

48093 NIL=

48094 31956 00000 10195 20180 40115 71000 333 20158 58003=

48095 NIL=

48096 32956 01004 10190 20175 40120 333 20185 59011= 

48097 32556 20402 10180 20155 40117 82500 333 20172 56900 59002=

48099 31220 10000 10185 20185 40110 74044 81500 333 20175 56900 

58009=

48101 NIL=

48103 32440 10201 10166 20154 40115 81500 333 20158 56100 58011=

48107 31930 00902 10167 20135 40118 74144 333 20157 58004=

48108 31/91 90000 10185 20185 40126 74144 333 20170 58003=

48109 32496 20000 10202 20200 40124 82500 333 20195 56900 58001=

48110 31992 20000 10230 20198 40120 74244 80005 333 20230 56009 

59001=

48112 32597 80403 10242 20226 40112 83876 333 20198 56199 59020=  





