



*-*-*


<!--
.style2 {
	font-family:"Courier New", Courier, monospace;
	font-size: 14px;
}
-->






SIBM20 VBRR 140300

AAXX 14034

48001 31920 90000 10116 20115 40153 74544 89/// 333

56999 58001=

48004 32060 00401 10141 20124 333=

48008 32557 10401 10162 20123 40144 81400 333 56500

59019=

48010 31040 00000 10140 20107 40145 74144 333 58014=

48018 32558 23201 10165 20135 40136 82800 333 56900

58010=

48019 32960 10403 10174 20117 40136 80001 333 56006

58015=

48020 31956 03602 10145 20120 70144 333=

48025 31230 12201 10161 20106 40136 74044 81600 333

56900 58002=

48035 31956 00000 10147 20092 40124 70522 333 59002=

48037 32957 03601 10188 20096 40121 333 58005=

48042 21556 21301 10220 20156 40118 70511 81450 333

56990 59004=

48045 32960 01805 10138 29028 333=

48048 32560 22701 10175 20108 40141 82800 333 56900

58013=

48051 32958 03602 10188 20140 70200 333=

48053 31950 01302 10220 20136 40126 70500 333 58006=

48060 22440 30000 10177 20108 40135 82130 333 56560

59005=

48062 31556 20402 10195 20170 40136 71011 82500 333

56900 58006=

48071 31958 00000 10230 20198 40141 333 58003=

48075 31956 00401 10160 20115 40158 70511 333 59010=

48077 31958 00000 10222 20156 40130 70500 333 58011=

48078 31940 10401 10198 20150 40137 70244 80001 333

56009 59004=

48080 32959 00000 10194 20159 40143 333 58015=

48085 31957 03603 10234 20181 40138 71044 333 58002=

48095 32958 00000 10220 20173 70000 80000 333 56000=

48108 31996 31401 10240 20191 40142 70344 80006 333

56009 58000=

48109 32497 20401 10268 20211 40144 82500 333 56900

59003=

48110 31596 31302 10285 20240 40136 70544 81105 333

56909 59003=

48112 32598 60402 10265 20215 40132 82216 333 56199

59002=

48030 32256 32201 10096 20031 83800 333 56500=

48072 31959 03202 10240 20209 70522 80000 333 56000=

48087 32960 00000 10220 20136 80000 333 56000=

48099 31340 20903 10240 20174 40130 71044 82500 333

56900 59002=

48101 32958 03202 10235 20191 333=

48103 32456 10402 10243 20174 40129 81500 333 56100

59002=

48057 32958 01401 10152 20073 80000 333 56000=

48094 32959 03202 10245 20190 40142 333 58007=

48097 31956 00402 10250 20126 40151 70500 333 58003=

48031 31950 02201 10130 20044 70500 333=

48033 32962 00402 10204 20130 40135 333 58027=

48034 22456 20000 10130 20086 82500 333 56500=

48039 21956 22702 10200 20130 70511 80002 333 56005=

48043 32056 03201 10150 20073 333=

48052 32458 23202 10200 20109 82200 333 56900=

48055 31940 00000 10156 20089 40134 70511 333 59011=

48064 32960 01401 10190 20118 40125 333 58002=

48065 32960 00000 10210 20143 80000 333 56000=

48074 32958 00404 10205 20130 40138 333 59004=

48092 31956 03102 10240 20146 40119 70522 80000 333

56000 58008=

48093 32956 02301 10210 20160 80000 333 56000=

48107 31930 01301 10230 20181 40132 70144 80000 333

56000 58000=  
SIBM20 VBRR 140351

AAXX 14034

48001 21920 90000 10116 20115 40153 74544 333 58001=

48004 22960 00401 10141 20124 333=

48008 32557 10401 10162 20123 40144 81400 333 56500 59019=

48010 31940 00000 10140 20107 40145 74144 333 58014=

48018 32558 23201 10165 20135 40136 82800 333 56900 58010=

48019 32960 10403 10174 20117 40136 80001 333 56009 58015=

48020 31956 03602 10145 20120 70144 333=

48025 31230 12201 10161 20106 40136 74044 81600 333 56900 58002=

48030 32256 32201 10096 20031 83800 333 56500=

48031 31950 02201 10130 20044 70500 333=

48033 32962 00402 10204 20130 40135 333 58027=

48034 22456 20000 10130 20086 82500 333 56500=

48035 31956 00000 10147 20092 40124 70522 333 59002=

48037 32957 03601 10188 20096 40121 333 58005=

48039 21956 22702 10200 20130 70511 80002 333 56009=

48042 21556 21301 10220 20156 40118 70511 81450 333 56990 59004=

48043 22956 03201 10150 20073 333=

48045 32960 01805 10138 29028 333=

48048 32560 22701 10175 20108 40141 82800 333 56900 58013=

48051 32958 03602 10188 20140 333=

48052 32458 23202 10200 20109 82200 333 56900=

48053 31950 01302 10220 20136 40126 70500 333 58006=

48055 31940 00000 10156 20089 40134 70511 333 59011=

48057 32958 01401 10152 20073 333=

48060 22440 30000 10177 20108 40135 82130 333 56560 59005=

48062 31556 20402 10195 20170 40136 71011 82500 333 56900 58006=

48064 32960 01401 10190 20118 40125 333 58002=

48065 32960 00000 10210 20143 333=

48071 31958 00000 10230 20198 40141 333 58003=

48072 31959 03202 10240 20209 70522 333=

48074 32956 00404 10205 20130 40138 333 59004=

48075 31956 00401 10160 20115 40158 70511 333 59010=

48077 31958 00000 10222 20156 40130 70500 333 58011=

48078 31940 10401 10198 20150 40137 70244 80001 333 56009 59004=

48080 32959 00000 10194 20159 40143 333 58015=

48085 31957 03203 10234 20181 40138 71044 333 58002=

48087 32960 00000 10220 20136 333=

48092 31956 03102 10240 20146 40119 70522 333 58008=

48093 32956 02301 10210 20160 333=

48094 32959 03202 10245 20190 40142 333 58007=

48095 32958 00000 10220 20173 333=

48096 32958 03305 10230 20174 40143 333 58004=

48097 31956 00402 10250 20126 40151 70500 333 58003=

48099 31340 20903 10240 20174 40130 71044 82500 333 56900 59002=

48101 32958 03202 10235 20191 333=

48103 32456 10402 10243 20174 40129 81500 333 56100 59002=

48107 31930 01301 10230 20181 40132 70144 333 58000=

48108 31996 31401 10240 20191 40142 70344 80006 333 56009 58000=

48109 32497 20401 10268 20211 40144 82500 333 56900 59003=

48110 31596 31302 10285 20240 40136 70544 81105 333 56909 59003=

48112 32598 60402 10265 20215 40132 82216 333 56199 59002=  





