



*-*-*


<!--
.style2 {
	font-family:"Courier New", Courier, monospace;
	font-size: 14px;
}
-->






SMBM01 VBRR 140606

AAXX 14064

48001 NIL=

48004 32062 03201 10220 20136 333=

48008 32558 31401 10220 20111 40136 81400 333 56500 58029=

48010 31560 10000 10240 20136 40125 70344 81100 333 56900 58009=

48018 32560 31402 10245 20105 40126 83800 333 56900 58022=

48019 32960 00902 10231 20143 40134 333 58021= 

48020 32957 03603 10250 20167 333=

48025 32940 02701 10266 20085 40133 333 58018=

48030 32356 32205 10138 29037 83800 333 56500=

48031 31257 21401 10170 20014 70500 82800 333 56900=

48033 32963 03302 10280 20158 40131 333 58031=

48034 32457 21802 10225 20065 82500 333 56500=

48035 31560 02203 10221 20065 40101 70500 333 58027=

48037 32958 03201 10271 20113 40122 333 58025=

48039 32958 22202 10268 20133 80002 333 56005=

48042 32557 12702 10282 20126 40107 81200 333 56900 59001=

48043 32058 03205 10200 20033 333=

48045 32561 11410 10190 20014 81100 333 56900=

48048 32560 10401 10286 20230 40132 81500 333 56900 58017=

48051 32959 00402 10270 20150 333=

48052 32970 03203 10290 20155 333=

48053 32950 03602 10280 20126 40111 70500 333 58009=

48055 31556 21403 10241 20095 40089 70500 82800 333 56500 58010=

48057 32460 31402 10196 20085 83800 333 56600=

48060 32440 32701 10253 20068 40081 82130 333 56560 59018=

48062 32556 20403 10260 20220 40137 82500 333 56900 58002=

48064 32970 01401 10300 20166 40108 333 58009=

48065 32970 03207 10300 20098 333=

48071 32960 03202 10255 20179 40140 333 58005=

48072 32960 02701 10285 20196 333=

48074 32959 01402 10272 20133 40134 333 58019=

48075 31956 01401 10240 20100 40101 70511 333 58013=

48077 31958 00402 10304 20098 40117 70500 333 58011=

48078 31550 21402 10286 20106 40122 70344 81101 333 56909 58005=

48080 NIL=

48085 32958 03209 10280 20203 40127 333 58004=

48087 NIL=

48092 32957 03105 10310 20124 40100 333 58008=

48093 32958 00401 10306 20124 333=

48094 32960 03202 10295 20205 40133 333 58013=

48095 32960 00401 10300 20166 333=

48097 31957 00503 10315 20121 40127 333 58002=

48099 32450 23202 10302 20149 40119 82800 333 56700 58003=

48101 32960 03203 10287 20159 333=

48103 32957 00402 10308 20146 40121 333 58007=

48107 32950 02302 10315 20116 40116 333 58007=

48108 31596 42305 10315 20186 40129 70344 81406 333 56409 58006=

48109 NIL=

48110 31596 33205 10315 20230 40123 70511 82205 333 56909 58005=

48112 NIL=  
SMBM01 VBRR 140600

NIL=  





