



*-*-*


<!--
.style2 {
	font-family:"Courier New", Courier, monospace;
	font-size: 14px;
}
-->






SMBM01 VBRR 141800

NIL=  
SMBM01 VBRR 141800 RRA

AAXX 14184

48008 31510 40000 10180 20147 40119 71044 82970 333 56560 58009=

48010 31001 00000 10145 20132 40115 70244 333 58013=

48018 32920 01401 10170 20154 40129 333 58019=

48025 32905 00000 10190 20118 40127 333 58025=

48042 32950 00000 10180 20123 40105 333 58009=

48053 32940 03604 10200 20130 40128 333 58027=

48057 32939 01401 10094 20068 333=

48060 32410 10000 10123 20102 40138 81100 333 56500 58017=

48062 31540 20000 10200 20170 40118 71011 82500 333 56900 59006=

48071 32920 03202 10230 20198 40120 333 59010=

48078 32950 10000 10187 20134 40106 80001 333 56009 59001=

48080 32940 00000 10210 20195 40132 333 58001=

48094 32958 00000 10200 20190 40123 333 58005=

48097 32956 00901 10230 20153 40124 333 58003=

48099 32940 02301 10200 20185 40121 333 58000=

48108 31594 40501 10200 20168 40125 71011 81406 333 56909 58015=

48109 32495 30000 10234 20181 40117 83500 333 56900 59002=

48110 31994 20000 10240 20209 40113 70511 80005 333 56009 59009=

48112 32597 70402 10251 20219 40108 83876 333 56199 59008=  





