



*-*-*


<!--
.style2 {
	font-family:"Courier New", Courier, monospace;
	font-size: 14px;
}
-->






SMBM01 VBRR 140600

AAXX 14064

48001 NIL=

48004 32562 42201 10211 20143 84900 333 56500=

48008 32557 60000 10210 20120 40186 83970 333 56450

59003=

48010 32558 63601 10210 20143 40130 84830 333 56660

58007=

48018 32560 71401 10185 20139 40184 84870 333 56320

58006=

48019 32458 80402 10167 20139 40186 8577/ 333 56569

58003=

48020 32258 33602 10245 20186 83700 333 56500=

48025 32456 33601 10247 20150 40187 81141 333 56449

59010=

48035 31560 80000 10171 20097 40170 70522 8597/ 333

56569 58009=

48037 32560 10401 10264 20119 40160 80030 333 56090

58003=

48042 32557 22701 10272 20133 40157 81450 333 56960

58003=

48045 32560 61802 10177 20108 86800 333 56500=

48048 32560 20401 10280 20146 40172 82800 333 56900

58006=

48051 32559 23101 10283 20160 70111 82200 333 56500=

48053 32556 63602 10270 20172 40161 82550 333 56650

58007=

48060 32440 40000 10180 20086 40198 82130 333 56560

59005=

48062 32958 30402 10280 20230 40147 82203 333 56909

59002=

48071 32460 10502 10282 20184 40151 81200 333 56900

58008=

48075 32558 62201 10220 20140 40171 84830 333 56590

58008=

48077 32559 50402 10282 20146 40149 83831 333 56999

58002=

48078 32558 43202 10286 20133 40150 82831 333 56699

59007=

48080 32461 50403 10302 20223 40134 83830 333 56490

58010=

48085 32458 10902 10301 20166 40132 81100 333 56500

59001=

48095 32460 20901 10285 20158 70222 82200 333 56900=

48108 32596 40405 10310 20169 40141 82406 333 56209

58012=

48109 32497 60401 10310 20254 40134 86900 333 56900

58007=

48110 31996 30406 10305 20198 40134 70511 80006 333

56009 58013=

48112 32597 80407 10290 20230 40130 83876 333 56199

58010=

48030 32256 62201 10170 20097 85850 333 56560=

48072 32459 51301 10280 20220 70322 84830 333 56490=

48087 32560 13602 10292 20159 81100 333 56400=

48099 32558 33202 10290 20159 40144 82801 333 56709

59006=

48101 32660 32702 10298 20166 70322 81130 333 56990=

48103 32556 20402 10303 20185 40145 82500 333 56100

58002=

48057 32456 71402 10200 20109 83850 333 56990=

48094 32459 60402 10300 20170 40147 82940 333 56990

58005=

48097 32557 31802 10310 20189 40157 70211 81550 333

56990 58015=

48031 32268 63601 10175 20108 86800 333 56400=

48033 32963 03601 10270 20133 40143 333 59004=

48034 32456 61802 10205 20060 84530 333 56550=

48039 32460 20401 10266 20171 81150 333 56550=

48043 32657 10503 10210 20091 81200 333 56900=

48052 32470 33203 10280 20146 83800 333 56900=

48055 32556 70902 10190 20107 40175 83530 333 56550

59003=

48064 32570 30901 10280 20184 40149 82830 333 56490

58026=

48065 32568 40405 10285 20140 83830 333 56990=

48074 32559 43202 10260 20119 40158 83850 333 56660

58009=

48075 32558 62201 10220 20140 40171 84830 333

56590 58008=

48092 32958 40504 10300 20149 40130 70122 80070 333

56090 58007=

48093 32958 10401 10284 20184 70111 80040 333 56090=

48107 32950 00402 10300 20149 40121 80000 333 56000

58004=  
SMBM01 VBRR 140600

AAXX 14064

48001 NIL=

48004 32562 42201 10211 20143 84900 333 56500=

48008 32557 60000 10210 20120 40186 83970 333 56450 59003=

48010 32558 63601 10210 20143 40130 84830 333 56660 58007=

48018 32560 71401 10185 20139 40184 84870 333 56320 58006=

48019 32458 80402 10167 20139 40186 8577/ 333 56569 58003=

48020 32258 33602 10245 20186 83700 333 56500=

48025 32456 33601 10247 20150 40187 81141 333 56449 59010=

48030 32256 62201 10170 20097 85850 333 56560=

48031 32268 63601 10175 20108 86800 333 56400=

48033 32963 03601 10270 20133 40143 333 59004=

48034 32456 61802 10205 20060 84530 333 56550=

48035 31560 80000 10171 20097 40170 70522 8597/ 333 56569 58009=

48037 32560 10401 10264 20119 40160 80030 333 56090 58003=

48039 32460 20401 10266 20171 81150 333 56550=

48042 32557 22701 10272 20133 40157 81450 333 56960 58003=

48043 32657 10503 10210 20091 81200 333 56900=

48045 32560 61802 10177 20108 86800 333 56500=

48048 32560 20401 10280 20146 40172 82800 333 56900 58006=

48051 32559 23101 10283 20160 70111 82200 333 56500=

48052 32470 33203 10280 20146 83800 333 56900=

48053 32556 63602 10270 20172 40161 82550 333 56650 58007=

48055 32556 70902 10190 20107 40175 83530 333 56550 59003=

48057 32456 71402 10200 20109 83850 333 56990=

48060 32440 40000 10180 20086 40198 82130 333 56560 59005=

48062 32958 30402 10280 20230 40147 82203 333 56909 59002=

48064 32570 30901 10280 20184 40149 82830 333 56490 58026=

48065 32568 40405 10285 20140 83830 333 56990=

48071 32460 10502 10282 20184 40151 81200 333 56900 58008=

48072 32459 51301 10280 20220 70322 84830 333 56490=

48074 32559 43202 10260 20119 40158 83850 333 56660 58009=

48075 32558 62201 10220 20140 40171 84830 333 56590 58008=

48077 32559 50402 10282 20146 40149 83831 333 56999 58002=

48078 32558 43202 10286 20133 40150 82831 333 56699 59007=

48080 32461 50403 10302 20223 40134 83830 333 56490 58010=

48085 32458 10902 10301 20166 40132 81100 333 56500 59001=

48087 32560 13602 10292 20159 81100 333 56400=

48092 32958 40504 10300 20149 40130 70122 80070 333 56090 58007=

48093 32958 10401 10284 20184 70111 80040 333 56090=

48094 32459 60402 10300 20170 40147 82940 333 56990 58005=

48095 32460 20901 10285 20158 70222 82200 333 56900=

48097 32557 31802 10310 20189 40157 70211 81550 333 56990 58015=

48099 32558 33202 10290 20159 40144 82801 333 56709 59006=

48101 32660 32702 10298 20166 70322 81130 333 56990=

48103 32556 20402 10303 20185 40145 82500 333 56100 58002=

48107 32950 00402 10300 20149 40121 80000 333 56000 58004=

48108 32596 40405 10310 20169 40141 82406 333 56209 58012=

48109 32497 60401 10310 20254 40134 86900 333 56900 58007=

48110 31996 30406 10305 20198 40134 70511 80006 333 56009 58013=

48112 32597 80407 10290 20230 40130 83876 333 56199 58010=  





