



*-*-*


<!--
.style2 {
	font-family:"Courier New", Courier, monospace;
	font-size: 14px;
}
-->






SMBM01 VBRR 140000

AAXX 14004
48001 NIL=
48004 NIL=
48008 31550 10000 10162 20144 40119 71044 81400 333 20150 56100 58007 60002=
48010 32020 03601 10160 20152 40120 333 20153 58006 60002=
48018 31956 00000 10165 20144 40116 74244 333 20155 59000 60002=
48019 32940 00000 10153 20150 40114 333 20150 58007 60002=
48020 NIL=
48025 31910 00000 10176 20108 40129 70544 333 20170 58010 60002=
48030 31950 02201 10124 29042 70544 333 20087 60002=
48031 31957 03601 10140 20056 70500 333 20137 60002=
48033 32960 00401 10210 20160 40131 333 20190 58026 60002=
48034 32956 00000 10108 20091 333 20098 60002=
48035 31510 20000 10099 20079 40154 71000 81501 333 20090 56909 59001 60002=
48037 31920 00000 10188 20139 40102 70400 333 20178 59001 60002=
48039 31440 30000 10200 20150 71011 82402 333 20199 56909 60002=
48042 31940 01801 10230 20181 40107 71000 333 20216 58008 60002=
48043 32030 00000 10160 20106 333 20120 60002=
48045 NIL=
48048 32940 00000 10177 20129 40117 333 20170 58013 60002=
48051 NIL=
48052 32950 00401 10190 20098 333 20180=
48053 32940 01801 10240 20191 40113 333 20228 58004 60002=
48055 31940 00000 10086 20080 40189 71000 333 20078 58020 60002=
48057 32956 00000 10160 20123 333 20138 60006=
48060 31930 00000 10146 20111 40157 74244 333 20122 59001 60002=
48062 31950 00402 10195 20190 40133 70500 333 20165 58017 60002=
48064 32950 00901 10218 20173 40095 333 20160 58011=
48065 32950 00000 10175 20117 333 20170=
48071 31950 00000 10215 20185 40140 74044 333 20205 58025 60002=
48072 NIL=
48074 31950 00000 10120 20185 40143 70500 333 20207 58019 60002=
48075 31956 00000 10145 20145 40172 70500 333 20140 58013 60002=
48077 32956 00000 10200 20185 40112 333 20180 58013 60002=
48078 32940 11401 10228 20206 40134 80001 333 20213 56009 58020=
48080 31909 00000 10160 20144 40149 74044 333 20145 58026 60002=
48085 31930 00401 10166 20165 40139 74244 333 20165 58021 60002=
48087 31420 20000 10190 20175 71044 82700 333 20170 56900 60002=
48092 31/30 90000 10190 20175 40118 74644 89/// 333 20183 56999 58012=
48093 31920 00000 10217 20205 333 20214 60002=
48094 31456 20000 10210 20200 40138 71000 81540 333 20170 56990 58017=
48095 NIL=
48096 32056 01904 10220 20205 40144 333 20205 58027=
48097 31556 22302 10215 20200 40126 70511 82400 333 20205 56900 58007=
48099 31330 20000 10235 20226 40149 71044 82500 333 20220 56900 58026=
48101 31940 00000 10210 20210 74244 333 20183 60002=
48103 32540 50000 10228 20214 40142 85500 333 20208 56700 58020=
48107 31930 01301 10213 20195 40136 74144 333 20204 58016=
48108 31594 50000 10238 20228 40146 71122 82406 333 20230 56909 58015=
48109 31996 00000 10220 20205 40149 71022 333 20210 58020 60002=
48110 31595 41302 10255 20239 40145 70522 82506 333 20250 56809 58015=
48112 32597 80401 10252 20233 40142 83876 333 20207 56199 58012=  





