



*-*-*


<!--
.style2 {
	font-family:"Courier New", Courier, monospace;
	font-size: 14px;
}
-->






SMBM01 VBRR 141200

AAXX 14124

48001 32440 60000 10217 20205 40104 84520 333 10263

56150 59040 60002=

48004 32456 40000 10241 20209 84300 333 10282 56500

60002=

48008 32540 10000 10228 20163 40103 81400 333 10296

56900 59019 60002=

48010 32530 30000 10255 20229 40092 82440 333 10300

56660 59020 60002=

48018 31940 00000 10245 20186 40097 70544 333 10305

59031 60002=

48019 32940 00000 10248 20205 40098 333 10300 59022

60002=

48020 32930 00000 10250 20205 333 10300 60002=

48025 NIL=

48035 32510 10000 10224 20185 40078 81100 333 10275

56900 59040 60002=

48037 32430 43601 10278 20203 40084 83820 333 10320

56450 59031 60002=

48042 32956 00000 10275 20216 40089 333 10313 59019

60002=

48045 31330 32203 10180 20165 74044 83700 333 10216

56500 60002=

48048 32550 20401 10266 20220 40085 82800 333 10325

56900 59025 60002=

48051 32559 31302 10300 20250 83200 333 10330 56900

60002=

48053 32550 33201 10290 20215 40087 81550 333 10335

56900 59024 60002=

48060 32420 10000 10230 20163 40088 81100 333 10298

56600 59032 60002=

48062 32450 42701 10290 20270 40090 82930 333 10330

56990 59015 60002=

48071 32950 03201 10283 20233 40091 333 10315 59013

60002=

48075 32456 20000 10240 20209 40098 82500 333 10300

56500 59017 60002=

48077 32556 10000 10300 20239 40080 81200 333 10330

56900 59022 60002=

48078 NIL=

48080 32956 00000 10295 20239 40078 333 10342 59025

60002=

48085 NIL=

48095 NIL=

48108 31495 61403 10290 20254 40094 72999 84966 333

10340 56499 59010 60002=

48109 32496 40901 10300 20266 40091 84900 333 10337

56900 59011=

48110 21495 81803 10260 20246 40095 71399 85367 333

10315 56999 59010 60032=

48112 22597 80403 10285 20254 40084 83876 333 10317

56199 59014 60022=

48030 32150 22201 10167 20106 82800 333 10222 56500

60002=

48072 32956 02701 10285 20259 333 10330 60002=

48087 32950 00000 10280 20250 333 10340 60002=

48099 22330 22301 10305 20239 40079 86800 333 10355

56590 59011 69902=

48101 32950 10000 10297 20253 80001 333 10353 56009

60002=

48103 22330 32201 10285 20250 40084 83700 333 10350

56500 59013 69902=

48057 32440 52201 10217 20173 84830 333 10260 56490

60002=

48094 32456 20000 10310 20240 40088 82500 333 10358

56900 59010=

48097 32556 32201 10280 20259 40102 83400 333 10345

56900 59005=

48031 32258 52201 10155 20144 85800 333 10225 56400

60002=

48033 32559 53601 10270 20226 40085 85900 333 10320

56400 59037 60002=

48034 32456 70000 10208 20165 87300 333 10256 56500

60002=

48039 32460 20000 10265 20215 82800 333 10316 56700

60002=

48043 32010 00000 10200 20185 333 10257 60002=

48052 32950 00000 10315 20265 333 60002=

48055 32556 22303 10235 20219 82800 333 10300 56500

59044 60002=

48064 32950 00000 10278 20233 40068 333 10326 59035

60002=

48065 32450 00000 10290 20230 333 10345 60002=

48074 32957 00000 10280 20252 40089 333 10341 59010

60002=

48092 NIL=

48093 32930 01401 10286 20259 333 10350 60002=

48107 32330 40000 10290 20259 40092 84900 333 10355

56300 59008 60002=

48096 NIL=  





