



*-*-*


<!--
.style2 {
	font-family:"Courier New", Courier, monospace;
	font-size: 14px;
}
-->






SIBM20 VBRR 140900

AAXX 14094

48001 NIL=

48004 NIL=

48008 NIL=

48010 NIL=

48018 NIL=

48019 NIL=

48020 NIL=

48025 NIL=

48035 NIL=

48037 NIL=

48042 NIL=

48045 NIL=

48048 NIL=

48051 32560 33601 10320 20250 83200 333 56400=

48053 NIL=

48060 NIL=

48062 32458 42703 10320 20290 40091 82930 333 56990

59017=

48071 32960 03202 10310 20254 40089 333 59014=

48075 32558 52201 10280 20233 40079 85800 333 56500

59030=

48077 32559 10000 10328 20212 40084 81200 333 56900

59021=

48078 32560 23201 10333 20237 40083 81201 333 56909

59020=

48080 32961 01805 10335 20258 40086 333 59014=

48085 32458 23204 10322 20265 40085 82800 333 56300

59014=

48095 32560 10000 10328 20265 81200 333 56900=

48108 32596 53205 10335 20242 40080 83306 333 56709

59012=

48109 32497 40901 10326 20275 40091 84900 333 56900

59007=

48110 31496 81305 10315 20266 40087 71799 85947 333

56999 59006=

48112 21597 83206 10314 20267 40077 70152 83876 333

56799 59004=

48030 NIL=

48072 32560 13202 10320 20265 81200 333 56900=

48087 NIL=

48099 21456 52302 10335 20270 40077 75055 83970 333

56590 59006=

48101 32560 20000 10335 20257 82200 333 56100=

48103 21456 53201 10335 20257 40080 70255 85700 333

56700 59007=

48057 NIL=

48094 32460 10402 10340 20240 40085 81500 333 56900

59015=

48097 32557 61301 10315 20260 40088 85330 333 56990

59010=

48031 NIL=

48033 NIL=

48034 NIL=

48039 NIL=

48043 NIL=

48052 NIL=

48055 NIL=

48064 NIL=

48065 NIL=

48074 NIL=

48092 NIL=

48093 32658 21401 10344 20254 82100 333 56300=

48107 32350 41801 10348 20240 40080 84900 333 56300

59007=

48096 32559 20304 10340 20240 40084 82800 333 56900

59017=  
SIBM20 VBRR 140900 RRA

AAXX 14094

48004 32562 52201 10280 20220 70312 85900 333 56500=

48008 32558 10000 10292 20159 40098 81100 333 56900

59026=

48010 32560 50000 10290 20215 40096 84830 333 56500

59032=

48018 32559 30401 10295 20149 40099 82210 333 56190

59020=

48019 32962 00402 10296 20185 40092 333 59024=

48025 32456 43201 10277 20203 40099 84800 333 56900

59020=

48035 32560 12702 10274 20172 40072 81100 333 56900

59081=

48037 32560 43201 10313 20225 40083 70311 84300 333

56400 59030=

48042 32559 13601 10307 20189 40087 81200 333 56900

59018=

48045 31340 72303 10202 20185 74044 87800 333 56500=

48048 32562 20401 10320 20200 40088 82800 333 56900

59027=

48053 32556 33601 10300 20212 40085 83800 333 56800

59038=

48060 32456 23201 10298 20166 40054 82100 333 56600

59055=

48030 32957 02204 10212 20072 333=

48057 32458 52202 10258 20160 85300 333 56500=

48031 32260 12701 10220 20156 81200 333 56900=

48033 32963 03601 10300 20223 40093 333 59021=

48034 32457 42302 10248 20167 84800 333 56500=

48039 32460 00000 10305 20207 333=

48043 32658 23205 10250 20205 82200 333 56500=

48052 32958 03201 10365 20235 70211 333=

48055 32557 52302 10290 20206 40054 83800 333 56500

59053=

48064 32960 02301 10310 20254 40068 333 59042=

48065 32960 02201 10335 20202 333=

48074 32561 10403 10330 20212 40086 81100 333 56900

59030=  





