



*-*-*


<!--
.style2 {
	font-family:"Courier New", Courier, monospace;
	font-size: 14px;
}
-->






SMBM01 VBRR 140600

AAXX 14064

48001 32440 60401 10270 20240 40148 83852 333 56559

58018=

48004 32560 43201 10281 20220 84900 333 56500=

48008 32457 60000 10275 20220 40163 83970 333 56450

58008=

48010 32456 71801 10245 20226 40159 85870 333 56110

58001=

48018 32560 63601 10273 20211 40169 82872 333 56500

58000=

48019 32460 60402 10287 20230 40158 82630 333 56960

58003=

48020 21457 83604 10250 20219 70255 8577/ 333 56499=

48025 32240 83201 10243 20209 40186 8572/ 333 56779

58010=

48035 32560 80000 10236 20174 40151 8597/ 333 56129

59020=

48037 32458 83201 10247 20219 40187 8582/ 333 56299

58056=

48042 32557 70000 10255 20224 40161 84850 333 56880

58009=

48045 31120 80406 10172 20172 74244 887// 333 56299

48048 32558 71801 10260 20229 40167 85970 333 56890

58006=

48048 32558 71801 10260 20229 40167 85970 333 56890

58006=

48051 32559 33601 10296 20260 70111 81330 333 56490=

48053 32456 63603 10250 20219 40167 84950 333 56590

58004=

48060 32330 80000 10222 20173 40172 8683/ 333 56699

59022=

48062 32458 20902 10295 20250 40141 70122 82900 333

56900 58024=

48071 32958 03601 10293 20230 40144 333 58013=

48075 32456 81401 10220 20185 40168 8677/ 333 5659/

59028=

48077 21458 80000 10252 20233 40156 70266 85970 333

56490 58017=

48078 32558 63204 10272 20240 40152 84831 333 56799

58005=

48080 32462 51301 10320 20248 40132 83830 333 56390

58010=

48085 32458 51405 10306 20237 40134 82359 333 56999

58006=

48095 32458 51402 10285 20250 70122 83240 333 56690=

48108 32596 51409 10325 20235 40126 83306 333 56209

59008=

48109 21396 83201 10255 20250 40141 75166 8697/ 333

5699/ 58011=

48110 32596 33603 10325 20240 40126 82306 333 56109

59005=

48112 21496 80402 10275 20262 40128 75055 8677/ 333

5619/ 59002=

48030 21250 70401 10168 20154 70154 86940 333 56180=

48072 32460 12701 10295 20266 70122 81200 333 56900=

48087 32456 80402 10266 20256 70322 8537/ 333 5689/=

48099 32560 21303 10312 20237 40131 82300 333 56900

59013=

48101 32559 70000 10301 20253 70322 85970 333 56290=

48103 32457 10402 10320 20236 40130 70111 81100 333

56100 59007=

48057 32458 81403 10200 20185 86350 333 56490=

48094 32458 70402 10257 20255 40145 85970 333 56290

58013=

48097 32557 61205 10310 20237 40142 85840 333 56990

59001=

48031 21/05 91801 10170 20154 74764 89/// 333 56999=

48033 32562 60000 10260 20229 40170 86930 333 56400

58016=

48034 32456 81802 10212 20160 8637/ 333 56599=

48039 32459 71401 10257 20229 84860 333 56110=

48043 32556 81403 10180 20180 8587/ 333 56199=

48052 32456 53602 10254 20233 85900 333 56900=

48055 32356 61403 10232 20181 40159 83930 333 56190

59030=

48064 32456 81402 10260 20246 40136 85770 333 56880

59008=

48065 32456 80401 10260 20229 85570 333 56890=

48074 32458 70403 10270 20240 40159 84870 333 56440

58008=

48092 32457 60000 10300 20246 40120 84330 333 56390

58001=

48093 32558 31401 10309 20254 83800 333 56300=

48107 32950 21302 10318 20248 40121 80006 333 56009

58003=

48096 32458 70506 10300 20239 40143 70222 85940 333

56990 59001=  





