



*-*-*


<!--
.style2 {
	font-family:"Courier New", Courier, monospace;
	font-size: 14px;
}
-->






SMBM01 VBRR 141200

AAXX 14124

48001 32450 60402 10263 20229 40064 86900 333 10315

56700 59008=

48004 22558 50000 10290 20274 84901 333 10320 56509

60012=

48008 22556 60000 10280 20250 40059 81434 333 10296

56455 58002 60052=

48010 32550 50000 10292 20259 40048 83930 333 10306

56440 59007=

48018 32556 41401 10295 20259 40064 83830 333 10322

56330 59010=

48019 22558 30000 10292 20259 40045 81161 333 10313

56669 59006 60292=

48020 32350 60000 10300 20253 86700 333 10345 56500=

48025 32456 63601 10302 20253 40047 84341 333 10323

56459 59004=

48035 32560 30000 10277 20233 40035 83900 333 10308

56900 59005=

48037 32458 81401 10318 20248 40046 83171 333 10345

56449 58014=

48042 32558 50000 10320 20248 40042 83906 333 10360

56909 59001=

48045 21230 70902 10198 20198 74165 87900 333 10225

56400 60482=

48048 21550 60401 10303 20253 40045 72996 84950 333

10320 56490 59006 60022=

48051 32559 51302 10300 20250 84930 333 10327 56490=

48053 32460 51801 10310 20237 40045 84906 333 10335

56409 59024=

48060 32330 70000 10273 20226 40055 84870 333 10297

56440 59015=

48062 21350 81808 10275 20270 40043 70355 86970 333

10315 56490 59015 60032=

48071 22456 42302 10290 20248 40058 84900 333 10310

56400 58002 60242=

48075 32456 50000 10280 20220 40056 83340 333 10302

56530 59020=

48077 32556 82301 10280 20250 40053 85931 333 10322

56499 58006=

48078 22556 51801 10277 20254 40067 83933 333 10302

56499 59009 60042=

48080 32457 70401 10275 20250 40066 85870 333 10332

56590 59002=

48085 22457 50000 10260 20255 40066 83876 333 10295

56599 59001 60072=

48095 22450 80000 10270 20270 8697/ 333 10285 5699/

60062=

48108 22495 72302 10270 20250 40089 84376 333 10300

56699 59007 60022=

48109 32496 42302 10292 20259 40075 84900 333 10317

56900 58003=

48110 21495 82302 10255 20239 40093 75155 8632/ 333

10300 5679/ 59008 60072=

48112 21496 82708 10235 20235 40102 75165 8677/ 333

10285 5669/ 58001 60562=

48030 21/09 90402 10197 20197 75055 89/// 333 10222

56999 60042=

48072 22456 81304 10280 20268 86970 333 10295 56590

60212=

48087 21450 80000 10250 20250 75055 8497/ 333 10310

5649/ 60092=

48099 32450 72303 10285 20250 40072 85830 333 10315

56590 59009=

48101 22550 70000 10277 20250 84371 333 10298 56499

60022=

48103 22450 62202 10276 20250 40076 84830 333 10315

56550 59006 60052=

48057 22456 40000 10218 20205 83901 333 10247 56909

60052=

48094 21456 80000 10264 20264 40068 70265 86970 333

10303 56590 59007 60132=

48097 21557 62201 10265 20258 40085 70296 82551 333

10322 56999 59005 60052=

48031 21/05 91801 10200 20185 74744 89/// 333 10235

56999 69902=

48033 32560 30000 10310 20254 40032 83900 333 10330

56900 59004=

48034 21456 70402 10240 20209 72055 87300 333 10280

56500 69902=

48039 32460 60401 10319 20236 83802 333 10338 56404=

48043 22520 60000 10245 20219 82202 333 10265 56909

60022=

48052 22450 42201 10318 20265 84800 333 10320 56900

60022=

48055 32556 30402 10271 20233 40036 82830 333 10300

56340 59007=

48064 31450 73201 10286 20259 40049 71799 84931 333

10320 56449 58006=

48065 32450 63202 10285 20259 83570 333 10330 56990=

48074 32458 51801 10300 20266 40056 84940 333 10330

56490 59015=

48092 32456 72302 10270 20256 40059 84931 333 10315

56599 59006=

48093 21550 82301 10272 20256 70365 86370 333 10312

56590 60062=

48107 21330 80000 10250 20250 40090 70166 8597/ 333

10308 5677/ 59001 60252=

48096 22456 62602 10260 20246 40075 84930 333 10310

56990 59009 60022=  





