



*-*-*


<!--
.style2 {
	font-family:"Courier New", Courier, monospace;
	font-size: 14px;
}
-->






SIBM20 VBRR 150300

AAXX 15034

48001 22430 83201 10250 20233 40054 8476/ 333 56429

59002=

48004 32240 80401 10254 20254 8697/ 333 56159=

48008 21450 82301 10248 20233 40055 76365 8497/ 333

56559 59005=

48010 21420 80000 10255 20255 40040 75165 8577/ 333

56559 59009=

48018 22558 61801 10275 20240 40057 83872 333 56569

59002=

48019 22458 83602 10270 20256 40045 85670 333 56870

59007=

48020 22257 73602 10272 20256 85740 333 56490=

48025 21210 83601 10280 20280 40043 75065 8597/ 333

56559 59005=

48035 32560 72204 10267 20211 40040 85970 333 56690

59015=

48037 32560 71201 10298 20239 40032 84830 333 56560

59006=

48042 22558 61803 10312 20237 40037 83850 333 56440

59010=

48045 21556 51403 10239 20174 70244 83806 333 56509=

48048 22560 52202 10242 20215 40037 84850 333 56490

59005=

48051 22458 81302 10268 20260 86920 333 56490=

48053 22456 61803 10280 20250 40060 82556 333 56599

59003=

48060 22340 73201 10250 20219 40066 84870 333 56590

58025=

48062 22457 71801 10280 20270 40060 70122 85920 333

56590 59006=

48071 22458 72301 10270 20270 40055 70222 85970 333

56590 59005=

48075 22457 70401 10270 20240 40060 85830 333 56590

59000=

48077 22559 42301 10290 20259 40050 83801 333 56409

59007=

48078 22556 51801 10290 20259 40066 83531 333 56499

59003=

48080 22459 41301 10301 20253 40070 82830 333 56590

58005=

48085 21357 80901 10254 20250 40072 71796 86920 333

56590 58011=

48095 22458 40000 10295 20274 70222 82602 333 56909=

48108 22596 71401 10270 20240 40083 83367 333 56399

59002=

48109 22496 70000 10290 20259 40079 85970 333 56990

59011=

48110 22496 81302 10295 20262 40084 84357 333 56599

59004=

48112 21496 82702 10255 20255 40097 75165 8677/ 333

5665/ 58005=

48030 22256 52203 10192 20159 84940 333 56560=

48072 22460 21302 10300 20253 70122 82800 333 56500=

48087 32560 72302 10292 20259 8437/ 333 5649/=

48099 22450 71302 10285 20250 40072 85930 333 56390

59003=

48101 22558 62302 10295 20253 70122 84330 333 56590=

48103 22350 70401 10292 20248 40073 86730 333 56110

59005=

48057 32458 61402 10220 20185 85350 333 56490=

48094 21459 80000 10270 20260 40069 75165 86970 333

56590 59001=

48097 22557 73601 10290 20259 40082 82301 333 56909

59001=

48031 22/60 60401 10210 20195 86800 333 56400=

48033 32563 41801 10290 20248 40029 84800 333 56400

59023=

48034 21356 82302 10210 20198 75055 8692/ 333 5659/=

48039 22460 71401 10295 20239 84860 333 56550=

48043 32556 51805 10240 20209 83230 333 56590=

48052 32458 61302 10330 20244 82201 333 56509=

48055 32556 51806 10260 20209 40048 83831 333 56559

59011=

48064 32460 63601 10300 20253 40040 83631 333 56449

58001=

48065 32556 52202 10312 20254 84501 333 56509=

48074 22357 71402 10280 20265 40078 84770 333 56490

58002=

48092 22456 71301 10282 20268 40056 84971 333 56499

59003=

48093 22556 62301 10288 20259 84370 333 56590=

48107 22350 42301 10290 20259 40076 84900 333 56500

59002=  





