



*-*-*


<!--
.style2 {
	font-family:"Courier New", Courier, monospace;
	font-size: 14px;
}
-->






SMBM01 VBRR 150600

AAXX 15064

48001 21440 80000 10290 20230 40089 75055 8487/ 333

56789 58020=

48004 21110 80402 10264 20229 70252 8697/ 333 56559=

48008 32557 82301 10322 20236 40088 8497/ 333 56459

58011=

48010 32558 80000 10300 20239 40086 8577/ 333 56669

58008=

48018 32559 83201 10320 20236 40099 8437/ 333 56559

58025=

48019 32458 83201 10325 20248 40089 8577/ 333 56699

58018=

48020 32356 83602 10350 20240 88700 333 56500=

48025 31430 50402 10367 20246 40098 70444 83840 333

56590 58026=

48035 32559 62205 10335 20225 40063 84960 333 56590

58017=

48037 32560 61801 10381 20255 40074 81106 333 56906

58016=

48042 32557 51803 10350 20240 40084 81202 333 56909

58014=

48045 31558 51404 10292 20140 70444 85300 333 56500=

48048 32960 01801 10400 20230 40079 333 58010=

48051 32560 30903 10370 20250 83800 333 56600=

48053 32556 41804 10350 20254 40086 84900 333 56500

58015=

48060 32456 32201 10345 20204 40055 83132 333 56599

59030=

48062 32558 32708 10345 20300 40111 83300 333 56600

58031=

48071 32960 03204 10345 20266 40116 333 58020=

48075 32457 52201 10320 20240 40073 85800 333 56500

59008=

48077 32559 42302 10380 20221 40086 83901 333 56909

58013=

48078 32558 41801 10364 20240 40097 83801 333 56509

58013=

48080 32461 32209 10372 20246 40086 82830 333 56590

58008=

48085 32458 23208 10352 20266 40101 82800 333 56900

58004=

48095 32460 42202 10365 20249 83840 333 56990=

48108 32596 70502 10330 20258 40121 84356 333 56899

58000=

48109 NIL=

48110 32596 43203 10335 20272 40119 83306 333 56709

59005=

48112 32598 62201 10335 20275 40116 82216 333 56599

59005=

48030 32256 52202 10240 20155 84840 333 56590=

48072 32461 12706 10360 20278 81200 333 56700=

48087 NIL=

48099 32458 42302 10363 20249 40100 84900 333 56500

58006=

48101 32560 50000 10353 20240 83311 333 56599=

48103 21456 41401 10318 20265 40110 71796 84900 333

56300 58006=

48057 32458 51402 10284 20184 84350 333 56690=

48094 32460 53202 10375 20270 40098 85900 333 56600

58001=

48097 32557 63302 10350 20240 40103 82836 333 56999

58005=

48031 31258 81402 10250 20167 70544 888// 333 56999=

48033 32563 61801 10360 20264 40069 85930 333 56990

58011=

48034 32457 62302 10300 20207 86800 333 56500=

48039 32460 62201 10345 20240 83102 333 56505=

48043 32058 31806 10290 20215 80032 333 56099=

48052 32970 02201 10402 20230 333=

48055 32556 82303 10275 20216 40087 85970 333 56550

58023=

48064 32970 01401 10413 20292 40070 333 58018=

48065 32970 10000 10400 20246 80030 333 56090=

48074 32561 21403 10360 20249 40108 82100 333 56300

58020=

48092 32457 61303 10370 20237 40083 86800 333 56900

58011=

48093 32658 63202 10357 20235 85301 333 56309=

48107 21350 62702 10276 20250 40113 71795 84970 333

56550 58011=  





