



*-*-*


<!--
.style2 {
	font-family:"Courier New", Courier, monospace;
	font-size: 14px;
}
-->






SMBM01 VBRR 151800

NIL=  
SMBM01 VBRR 151800 RRA

AAXX 15184
48008 31510 40000 10240 20209 40113 71044 82430 333 56340 58000=
48010 31501 30000 10210 20195 40129 71044 80031 333 56099 58005=
48018 32920 00000 10220 20185 40138 333 58028=
48025 31905 02201 10265 20138 40140 70544 333 58020=
48042 32950 00000 10262 20203 40115 333 58002=
48053 32940 00000 10250 20167 40129 333 58001=
48057 32939 01401 10198 20130 333=
48060 32910 00000 10145 20118 40149 333 59001=
48062 32540 22705 10250 20230 40142 82500 333 56900 58012=
48071 32920 03203 10265 20240 40121 333 58000=
48078 32950 10401 10277 20206 40131 80001 333 56009 59007=
48080 31950 00000 10242 20209 40146 70500 333 59002=
48094 32950 00000 10255 20240 40134 333 59004=
48097 32956 00303 10270 20240 40132 333 59015=
48099 32930 00000 10250 20219 40130 333 59007=
48103 32510 22201 10255 20229 40127 82500 333 56500 59005=
48108 32596 50000 10250 20219 40145 82406 333 56909 59006=
48109 32995 00000 10260 20246 40138 333 59006=
48110 32594 43203 10270 20226 40143 81305 333 56909 59002=
48112 32597 80402 10282 20233 40136 83876 333 56199 58010=  





