



*-*-*


<!--
.style2 {
	font-family:"Courier New", Courier, monospace;
	font-size: 14px;
}
-->






SIBM20 VBRR 150300

AAXX 15034
48001 31440 82701 10200 20168 40153 70522 8477/ 333 56129 59005=
48004 31556 13601 10214 20175 71044 81100 333 56900=
48008 31557 60000 10210 20160 40157 70344 83830 333 56110 58008=
48010 31530 60000 10220 20185 40160 70544 85501 333 56606 58007=
48018 32558 33201 10215 20173 40154 83800 333 56700 58028=
48019 31957 00000 10220 20173 40150 70500 333 58008=
48020 31950 00000 10250 20167 70500 333=
48025 31910 10901 10240 20136 40142 70544 81100 333 56900 58006=
48030 31256 12204 10170 20074 70544 81100 333 56500=
48031 31959 01402 10200 20060 70500 333=
48033 32962 00000 10280 20184 40164 333 58035=
48034 32956 03202 10240 20104 70500 333=
48035 31920 00000 10183 20108 40163 70500 333 58013=
48037 32950 03601 10257 20138 40154 333 58017=
48039 31940 20901 10265 20160 70500 80002 333 56009=
48042 31956 01302 10275 20156 40155 70500 333 58016=
48043 32058 01803 10225 20143 333=
48045 32962 20402 10228 29013 80001 333 56005=
48048 31958 01801 10238 20136 40150 71044 333 58003=
48051 31958 03102 10246 20170 70500 333 56000=
48052 32958 00000 10260 20160 333=
48053 32950 02202 10270 20211 40150 333 58011=
48055 31948 03402 10206 20088 40158 70500 333 58009=
48057 32958 02201 10230 20097 333 56000=
48060 31930 00000 10200 20125 40178 74044 333 58018=
48062 32956 00402 10240 20210 40159 333 58004=
48064 32960 01401 10250 20167 40134 333 58018=
48065 32960 00000 10272 20172 333=
48071 32958 00000 10258 20246 40163 333 59005=
48072 32959 03601 10270 20240 70122 333 56000=
48074 32958 11401 10255 20179 40173 81500 333 56900 58011=
48075 31957 01801 10225 20099 40164 70500 333 58006=
48077 32958 02301 10252 20205 40151 333 58016=
48078 32557 31802 10266 20207 40160 82501 333 56409 58003=
48080 31959 00000 10242 20209 40164 70144 333 59001=
48085 31957 03202 10266 20229 40154 71044 333 59001=
48087 32450 51402 10258 20229 84730 333 56490=
48092 31450 11302 10275 20229 40136 70522 81100 333 56900 58001=
48093 32956 33201 10268 20211 70311 82101 333 56909=
48094 32459 13202 10270 20240 40153 70111 81500 333 56900 58000=
48095 32458 60402 10260 20229 70222 84870 333 56990=
48097 32557 61802 10280 20184 40165 70222 84550 333 56990 59001=
48099 31450 43205 10273 20211 40159 70544 84800 333 56700 58003=
48101 31557 80000 10250 20233 70244 8477/ 333 5699/=
48103 32956 01401 10293 20215 40168 333 58007=
48107 31950 01301 10270 20211 40152 70144 333 59002=
48108 31996 33601 10276 20216 40163 70141 80006 333 56009 59006=
48109 32997 00401 10270 20240 40171 70222 333 59002=
48110 31596 53601 10305 20230 40161 70522 83305 333 56709 59006=
48112 32598 60403 10290 20230 40160 82216 333 56199 59010=  
SIBM20 VBRR 150300

AAXX 15034

48001 31440 82701 10200 20168 40153 70522 8477/ 333

56129 59005=

48004 31556 13601 10214 20175 71044 81100 333 56900=

48008 31557 60000 10210 20160 40157 70344 83830 333

56110 58008=

48010 31530 60000 10220 20185 40160 70544 85501 333

56606 58007=

48018 32558 33201 10215 20173 40154 83800 333 56700

58028=

48019 31957 00000 10220 20173 40150 70500 333 58008=

48020 31950 00000 10250 20167 70500 333=

48025 31910 10901 10240 20136 40142 70544 81100 333

56900 58006=

48035 31920 00000 10183 20108 40163 70500 333 58013=

48037 32950 03601 10257 20138 40154 333 58017=

48042 31956 01302 10275 20156 40155 70500 333 58016=

48045 32962 20402 10228 29013 80001 333 56005=

48048 31958 01801 10238 20136 40150 71044 333 58003=

48051 31958 03102 10246 20170 70500 333 56000=

48053 32950 02202 10270 20211 40150 333 58011=

48060 31930 00000 10200 20125 40178 74044 333 58018=

48062 32956 00402 10240 20210 40159 333 58004=

48071 32958 00000 10258 20246 40163 333 59005=

48075 31957 01801 10225 20099 40164 70500 333 58006=

48077 32958 02301 10252 20205 40151 333 58016=

48078 32557 31802 10266 20207 40160 82501 333 56409

58003=

48080 31959 00000 10242 20209 40164 70144 333 59001=

48085 31957 03202 10266 20229 40154 71044 333 59001=

48095 32458 60402 10260 20229 70222 84870 333 56990=

48108 31996 33601 10276 20216 40163 70141 80006 333

56009 59006=

48109 32997 00401 10270 20240 40171 70222 333 59002=

48110 31596 53601 10305 20230 40161 70522 83305 333

56709 59006=

48112 32598 60403 10290 20230 40160 82216 333 56199

59010=

48030 31256 12204 10170 20074 70544 81100 333 56500=

48072 32959 03601 10270 20240 70122 333 56000=

48087 32450 51402 10258 20229 84730 333 56490=

48099 31450 43205 10273 20211 40159 70544 84800 333

56700 58003=

48101 31557 80000 10250 20233 70244 8477/ 333 5699/=

48103 32956 01401 10293 20215 40168 333 58007=

48057 32958 02201 10230 20097 333 56000=

48094 32459 13202 10270 20240 40153 70111 81500 333

56900 58000=

48097 32557 61802 10280 20184 40165 70222 84550 333

56990 59001=

48031 NIL=

48033 32962 00000 10280 20184 40164 333 58035=

48034 32956 03202 10240 20104 70500 333=

48039 31940 20901 10265 20160 70500 80002 333 56009=

48043 32058 01803 10225 20143 333=

48052 32958 00000 10260 20160 333=

48055 31948 03402 10206 20088 40158 70500 333 58009=

48064 32960 01401 10250 20167 40134 333 58018=

48065 32960 00000 10272 20172 333=

48074 32958 11401 10255 20179 40173 81500 333 56900

58011=

48092 31450 11302 10275 20229 40136 70522 81100 333

56900 58001=

48093 32956 33201 10268 20211 70311 82101 333 56909=

48107 31950 01301 10270 20211 40152 70144 333 59002=  





