



*-*-*


<!--
.style2 {
	font-family:"Courier New", Courier, monospace;
	font-size: 14px;
}
-->






SMBM01 VBRR 150600

AAXX 15064

48001 NIL=

48004 31056 02201 10298 20185 70511 333=

48008 31557 41401 10288 20126 40139 70544 82230 333 56330 58014=

48010 31558 60000 10305 20166 40133 70244 85301 333 56606 58007=

48018 32960 01402 10310 20169 40134 333 58010=

48019 31958 02302 10300 20185 40129 70500 333 58003=

48020 31958 03602 10355 20195 70500 333=

48025 31930 03201 10355 20143 40144 70544 333 58011=

48030 31256 10403 10237 20034 70544 81300 333 56100=

48031 31958 00402 10254 20046 70500 333=

48033 32963 03602 10350 20237 40144 333 58016=

48034 31958 02302 10298 20069 70500 333=

48035 31956 02202 10301 20069 40111 70500 333 58028=

48037 31950 00402 10361 20132 40135 70544 333 58022=

48039 31950 30401 10330 20172 70511 80002 333 56009=

48042 31956 00401 10350 20158 40140 70500 333 58027=

48043 32059 03203 10270 20154 333=

48045 31960 01403 10275 20043 70400 333=

48048 32962 00401 10340 20145 40146 333 58015=

48051 31559 03603 10367 20120 70500 333 56000=

48052 32970 00401 10350 20143 333=

48053 31950 03602 10340 20184 40135 70500 333 58016=

48055 31956 02703 10302 20111 40103 70500 333 58017=

48057 32958 03201 10286 20085 333 56000=

48060 31930 00000 10300 20149 40110 71011 333 58019=

48062 32956 02709 10330 20260 40142 333 59016=

48064 32970 01401 10340 20206 40124 333 58020=

48065 32970 00403 10348 20158 333=

48071 32960 03202 10300 20239 40147 333 59002=

48072 32960 00404 10310 20225 70222 333=

48074 32560 11401 10320 20200 40156 81500 333 56900 58013=

48075 31957 00000 10305 20095 40119 70500 333 58016=

48077 31958 00000 10357 20156 40135 70500 333 58010=

48078 32557 21801 10331 20212 40142 82501 333 56409 58007=

48080 32960 03203 10330 20234 40132 333 59008=

48085 31958 03206 10298 20248 40140 70500 333 59008=

48087 32960 01401 10362 20132 333=

48092 32957 01303 10320 20236 40119 333 58006=

48093 32957 00401 10346 20182 333=

48094 32961 03203 10340 20260 40135 333 59001=

48095 32960 00402 10320 20236 333=

48096 32958 01307 10310 20203 40139 333 58002=

48097 32557 23202 10320 20208 40136 70211 82500 333 56900 59007=

48099 32557 52302 10340 20206 40132 84830 333 56590 59007=

48101 32950 03201 10308 20237 333=

48103 32556 12201 10342 20225 40137 81500 333 56500 59008=

48107 32950 01301 10348 20202 40124 333 59013=

48108 31596 33602 10345 20204 40144 70241 81106 333 56809 59007=

48109 NIL=

48110 32596 33604 10340 20232 40146 82305 333 56809 59005=

48112 32598 63602 10345 20240 40142 70222 82216 333 56199 59007=  





