



*-*-*


<!--
.style2 {
	font-family:"Courier New", Courier, monospace;
	font-size: 14px;
}
-->






SMBM01 VBRR 151200

AAXX 15124
48001 NIL=
48004 31556 20000 10293 20230 70511 82800 333 10336 56900=
48008 31550 41401 10305 20203 40093 70544 82430 333 10335 56430 58009=
48010 31540 40000 10310 20203 40091 70544 80031 333 10356 56079 58012=
48018 32556 30401 10315 20184 40089 83800 333 10355 56100 58011=
48019 32550 20000 10308 20223 40095 80006 333 10344 56009 59012=
48020 31940 00000 10325 20212 70500 333 10380=
48025 31440 50401 10356 20177 40090 70544 83841 333 10386 56799 58007=
48030 31250 32203 10223 29035 70544 82803 333 10251 56509=
48031 31257 31402 10232 20045 70511 81270 333 10280 56490=
48033 32962 10000 10350 20240 40083 80001 333 10380 56009 59002=
48034 32456 20000 10257 20102 81501 333 10310 56509=
48035 31540 23203 10279 20043 40084 70500 81501 333 10319 56909 58006=
48037 31940 40000 10267 20207 40081 70544 80009 333 10398 56009 58008=
48039 32456 30000 10329 20172 83400 333 10365 56900=
48042 31556 10000 10348 20202 40096 70511 81100 333 10380 56900 58015=
48043 32930 00000 10255 20138 333 10297=
48045 31556 31402 10268 20022 70400 83800 333 10305 56500=
48048 31550 20401 10333 20191 40096 71044 83800 333 10385 56900 58012=
48051 32959 03102 10293 20180 333 10385=
48052 32450 30000 10364 20195 83800 333 10401 56900=
48053 31940 03601 10300 20185 40099 70500 333 10360 58017=
48055 31556 13601 10284 20152 40078 70511 81500 333 10335 56500 58026=
48057 32956 01401 10247 20105 333 10298=
48060 32920 00000 10280 20098 40089 333 10340 59010=
48062 31940 02709 10280 20250 40108 70500 333 10330 59003=
48064 32950 11401 10340 20206 40078 80001 333 10382 56009 58010=
48065 32950 10000 10335 20164 80001 333 10394 56009=
48071 32956 02702 10290 20248 40115 333 10318 59005=
48072 32957 03201 10280 20250 333 10335=
48074 32558 10000 10340 20225 40095 81500 333 10358 56900 58002=
48075 31956 02701 10290 20106 40090 70500 333 10342 59008=
48077 31956 00000 10330 20172 40089 70500 333 10372 58005=
48078 32950 20000 10336 20219 40100 80002 333 10360 56009 59001=
48080 31956 03201 10305 20237 40110 70500 333 10350 58013=
48085 31956 03203 10280 20233 40116 70500 333 10308 59007=
48087 32940 00000 10310 20203 333 10370=
48092 31956 01303 10320 20273 40094 70500 333 10355 59004=
48093 32950 03201 10332 20172 333 10372=
48094 32956 03202 10295 20240 40110 333 10355 59014=
48095 32956 02202 10320 20236 333 10340=
48096 32957 01406 10300 20223 40110 333 10355 59006=
48097 32556 21403 10300 20231 40117 82500 333 10365 56900 59003=
48099 31440 22304 10316 20236 40106 70511 82500 333 10373 56900 59011=
48101 32956 01403 10283 20250 333 10334=
48103 32940 02201 10302 20223 40113 333 10372 59006=
48107 32940 22701 10290 20230 40112 80006 333 10353 56009 59007=
48108 32596 43201 10308 20224 40122 81406 333 10380 56909 59009=
48109 32997 03601 10289 20248 40137 333 10320 59001=
48110 32596 33204 10305 20223 40119 81305 333 10340 56909 59006=
48112 32597 83203 10300 20223 40125 83876 333 10360 56799 59003=  





