



*-*-*


<!--
.style2 {
	font-family:"Courier New", Courier, monospace;
	font-size: 14px;
}
-->






SMBM01 VBRR 150000 RRA

AAXX 15004

48051 32456 43601 10230 20230 84500 333 20226 56800=

48062 32450 60902 10245 20230 40128 85930 333 20220

56990 58002=

48071 32456 30000 10237 20226 40128 82830 333 20230

56990 59006=

48075 31456 50000 10190 20190 40162 71044 83830 333

20185 56590 59021=

48077 22556 70000 10240 20226 40130 85931 333 20220

56999 59015=

48078 32450 83202 10240 20237 40136 8577/ 333 20230

5689/ 59009=

48080 32456 40000 10230 20214 40123 82870 333 20220

56990 59001=

48085 32456 40000 10236 20234 40123 81876 333 20235

56599 59005=

48108 31595 51401 10230 20222 40120 74022 83406 333

20220 56909 59012=

48109 22496 60000 10266 20256 40122 84930 333 20212

56990 59004 60122=

48110 21595 60000 10245 20237 40123 70522 82406 333

20245 56109 58001=

48112 22597 80406 10248 20233 40114 83876 333 20190

56199 59013 60162=

48087 32450 70000 10240 20240 8497/ 333 20235 5639/=

48099 32450 30000 10250 20233 40123 82801 333 20238

56909 59016=

48101 32556 31801 10248 20233 82101 333 20210 56809=

48103 32450 20401 10241 20226 40122 82500 333 20207

56100 59014=

48057 NIL=

48094 32457 50401 10245 20240 40123 83840 333 20175

56290 59016=

48097 31557 40502 10240 20233 40137 71011 81531 333

20224 56799 59003=

48092 31456 80000 10240 20240 40109 70522 8597/ 333

20235 5699/ 59005=

48093 32550 21401 10248 20233 81141 333 20243 56399=

48107 21330 40000 10230 20230 40117 70165 82306 333

20225 56409 59008 60012=

48096 31456 53402 10240 20240 40129 70522 83640 333

20238 56990 59012=  
SMBM01 VBRR 150000 RRB

AAXX 15004

48008 32456 50000 10228 20214 40149 82430 333 20216

56450 59010=

48010 32440 60000 10225 20225 40146 83730 333 20220

56660 59017=

48018 32550 30000 10216 20205 40163 81462 333 20210

56879 58000=

48019 32956 00000 10217 20205 40146 333 20215 59003=

48025 31010 62701 10212 20212 40156 74044 85840 333

20204 56690 59012=

48035 31/01 90000 10181 20180 40163 74744 89/// 333

20145 56999 59013=

48037 32540 73601 10218 20218 40139 84870 333 20215

56340 59026=

48042 32556 60000 10236 20226 40134 83450 333 20220

56990 59009=

48048 32550 60401 10232 20214 40147 85950 333 20225

56890 59010=

48053 32450 53601 10230 20214 40145 81556 333 20222

56459 59007=

48060 32420 70000 10190 20183 40169 85830 333 20180

56390 59018=

48075 31456 50000 10190 20190 40162 71044 83830 333

20185 56590 59021=

48109 22496 60000 10266 20256 40122 84930 333 20212

56990 59004 60122=

48030 21/05 92201 10124 20124 74354 89/// 333 20112

56999 60012=

48057 31456 50000 10160 20160 71022 81536 333 20150

56999=

48031 22257 72201 10145 20145 87900 333 20130 56400

60002=

48033 32560 33601 10230 20230 40142 83500 333 20220

56900 58000=

48034 31/48 90000 10145 20137 74344 89/// 333 20139

56999=

48039 31456 60000 10230 20214 71022 83560 333 20228

56110=

48043 31020 00000 10160 20160 71044 333 20128=

48052 32450 40000 10228 20214 84800 333 20222 56900=

48055 22256 70702 10187 20184 40158 84970 333 20182

56390 59023 60002=

48064 32450 81401 10230 20214 40131 85770 333 20175

56440 59012=

48065 32440 80301 10235 20222 86570 333 20205 56890=

48074 21458 43603 10240 20240 40135 70255 81540 333

20230 56990 59025 60012=

48092 31456 80000 10240 20240 40109 70522 8597/ 333

20235 5679/ 59005=  
SMBM01 VBRR 150000

AAXX 15004

48051 32456 43601 10230 20230 84500 333 20226 56800=

48062 32450 60902 10245 20230 40128 85930 333 20220

56990 58002=

48071 32456 30000 10237 20226 40128 82830 333 20230

56990 59006=

48075 31456 50000 10190 20190 40162 71044 83830 333

20185 56590 59021=

48077 22556 70000 10240 20226 40130 85931 333 20220

56999 59015=

48078 32450 83202 10240 20237 40136 8577/ 333 20230

5689/ 59009=

48080 32456 40000 10230 20214 40123 82870 333 20220

56990 59001=

48085 32456 40000 10236 20234 40123 81876 333 20235

56599 59005=

48108 31595 51401 10230 20222 40120 74022 83406 333

20220 56909 59012=

48109 22496 60000 10266 20256 40122 84930 333 20212

56990 59004 60122=

48110 21595 60000 10245 20237 40123 70522 82406 333

20245 56109 58001=

48112 22597 80406 10248 20233 40114 83876 333 20190

56199 59013 60162=

48087 32450 70000 10240 20240 8497/ 333 20235 5639/=

48099 32450 30000 10250 20233 40123 82801 333 20238

56909 59016=

48101 32556 31801 10248 20233 82101 333 20210 56809=

48103 32450 20401 10241 20226 40122 82500 333 20207

56100 59014=

48057 NIL=

48094 32457 50401 10245 20240 40123 83840 333 20175

56290 59016=

48097 31557 40502 10240 20233 40137 71011 81531 333

20224 56799 59003=

48092 31456 80000 10240 20240 40109 70522 8597/ 333

20235 5699/ 59005=

48093 32550 21401 10248 20233 81141 333 20243 56399=

48107 21330 40000 10230 20230 40117 70165 82306 333

20225 56409 59008 60012=

48096 31456 53402 10240 20240 40129 70522 83640 333

20238 56990 59012=  





