



*-*-*


<!--
.style2 {
	font-family:"Courier New", Courier, monospace;
	font-size: 14px;
}
-->






SMBM01 VBRR 151200

AAXX 15124

48001 22420 80000 10235 20226 40144 8487/ 333 10290

56339 59005 69902=

48004 32460 40000 10261 20246 84900 333 10306 56500

60002=

48008 32456 20000 10300 20239 40120 81930 333 10325

56890 59009 60002=

48010 32530 40000 10270 20240 40114 82430 333 10305

56660 59019 60002=

48018 32558 60000 10285 20233 40114 83870 333 10325

56550 59022 60002=

48019 32950 00000 10293 20248 40129 333 10330 58001

60002=

48020 32440 30000 10270 20240 82430 333 10320 56550

60002=

48025 32456 62701 10270 20240 40125 83840 333 10298

56550 59021 60002=

48035 32530 20000 10257 20203 40107 82800 333 10293

56900 59038 60002=

48037 32558 40000 10282 20250 40110 82830 333 10305

56550 59030 60002=

48042 32556 20000 10284 20250 40108 81450 333 10310

56990 59019 60002=

48045 32450 52302 10185 20175 83670 333 10205 56550

60002=

48048 32550 20401 10283 20250 40113 82800 333 10310

56900 59021 60002=

48051 32558 21301 10292 20260 82200 333 10330 56900=

48053 32456 43601 10280 20233 40119 83950 333 10310

56590 59018 60002=

48060 32320 20000 10235 20195 40107 82100 333 10298

56200 59040 60002=

48062 32456 30000 10300 20270 40111 82230 333 10320

56990 59003=

48071 32450 30000 10293 20248 40113 82830 333 10313

56990 59008=

48075 32456 40000 10250 20219 40143 83840 333 10280

56590 59011=

48077 32556 70000 10290 20248 40115 85931 333 10322

56999 59013=

48078 32556 50000 10288 20266 40111 83331 333 10315

56889 59020=

48080 32456 50000 10292 20248 40115 83830 333 10340

56390 59005=

48085 32456 33202 10292 20259 40109 81876 333 10312

56999 59011=

48095 32556 10000 10285 20268 81200 333 10315 56900=

48108 32596 50501 10300 20223 40103 83306 333 10340

56909 59010=

48109 32496 50000 10300 20266 40111 85900 333 10330

56900 59005=

48110 21595 80000 10280 20250 40100 70265 82307 333

10330 56909 59009=

48112 32597 80406 10292 20248 40094 84876 333 10325

56199 59018=

48030 31/05 90402 10168 20168 74344 89/// 333 10186

56999 60002=

48072 32456 10000 10290 20259 81200 333 10325 56900=

48087 32556 40000 10290 20259 82841 333 10324 56999=

48099 32440 41301 10305 20239 40096 82831 333 10347

56399 59011=

48101 32556 20000 10298 20266 81201 333 10333 56809=

48103 32440 30401 10302 20253 40101 83800 333 10346

56100 59015=

48057 21440 81401 10184 20184 75066 85970 333 10220

56390 60152=

48094 32956 00000 10280 20250 40112 333 10365 59009=

48097 32556 52701 10295 20256 40123 85500 333 10340

56900 59021=

48031 32257 72201 10175 20147 87800 333 10215 56400

60002=

48033 32960 13601 10290 20243 40101 80001 333 10313

56009 59037 60002=

48034 22456 60000 10225 20191 86300 333 10272 56500

60002=

48039 32460 33201 10290 20248 82850 333 10329 56110

60002=

48043 32020 00000 10200 20200 333 10238 60352=

48052 32450 40000 10300 20266 84800 333 10312 56900

60002=

48055 32456 70000 10234 20220 40119 84970 333 10276

56550 59020 60002=

48064 32950 10000 10270 20240 40103 80030 333 10310

56090 59024 60002=

48065 32450 40000 10280 20250 82570 333 10320 56990

60002=

48074 32450 70000 10280 20250 40115 85912 333 10327

56990 59020 60002=

48092 32450 22301 10280 20242 40088 82400 333 10335

56900 59013=

48093 32540 30401 10293 20248 82101 333 10334 56409=

48107 32330 63201 10288 20248 40103 84970 333 10344

56110 59010=

48096 32557 13006 10300 20253 40115 81100 333 10340

56900 59012=  





