



*-*-*


<!--
.style2 {
	font-family:"Courier New", Courier, monospace;
	font-size: 14px;
}
-->






SMBM01 VBRR 151200

AAXX 15124

48001 32556 50000 10298 20253 40030 85800 333 10315

56200 59034 60002=

48004 32560 40000 10303 20266 83901 333 10330 56505

60002=

48008 32556 30000 10320 20265 40041 82930 333 10345

56450 59018 60002=

48010 32540 50000 10305 20266 40040 82440 333 10335

56556 59006 60002=

48018 32556 50000 10312 20206 40033 83830 333 10334

56110 59014 60002=

48019 32456 20000 10312 20267 40031 82200 333 10343

56600 59014 60002=

48020 21450 60000 10280 20268 70265 86800 333 10345

56500 60132=

48025 22456 60000 10286 20274 40048 83341 333 10292

56599 58001 60382=

48035 32560 30000 10299 20239 40017 83900 333 10315

56900 59017 60002=

48037 32558 63601 10305 20253 40036 84302 333 10350

56403 59009 60002=

48042 32558 71302 10324 20248 40035 86902 333 10350

56309 59007 60002=

48045 21230 72302 10210 20210 70164 87900 333 10222

56500 60042=

48048 32550 21801 10322 20236 40036 82800 333 10340

56900 59009 60002=

48051 32560 41802 10290 20260 83801 333 10340 56909

60002=

48053 32456 50000 10310 20254 40044 83956 333 10330

56499 59001 60002=

48060 32320 40000 10284 20232 40037 82106 333 10332

56609 59018 60002=

48062 22456 71803 10290 20260 40044 85970 333 10305

56490 58001 60122=

48071 22456 70000 10300 20253 40051 84970 333 10310

56590 59007 60022=

48075 32456 50000 10290 20230 40034 83305 333 10300

56509 59022 60002=

48077 21456 80000 10272 20256 40047 76196 85970 333

10312 56490 59006 60122=

48078 32558 50000 10306 20260 40051 83831 333 10325

56449 59016 60002=

48080 32457 61301 10280 20250 40058 84870 333 10324

56590 59008 60002=

48085 32457 80000 10276 20256 40057 85970 333 10313

56599 59009 60002=

48095 21456 80000 10270 20270 75155 86970 333 10304

56690 60032=

48108 21494 83201 10270 20256 40069 75055 8597/ 333

10290 5669/ 59020 69902=

48109 22496 72302 10277 20268 40057 85930 333 10297

56990 59017 60012=

48110 21495 83606 10265 20242 40078 70255 8632/ 333

10285 5669/ 59015 60022=

48112 21496 80402 10245 20245 40080 75055 8677/ 333

10265 5619/ 59022 60192=

48030 21/09 90401 10200 20200 74355 89/// 333 10214

56999 60012=

48072 22456 81304 10290 20259 70322 86970 333 10298

56490 60062=

48087 22550 60000 10270 20256 83371 333 10314 56499

60062=

48099 21440 50000 10266 20266 40052 70161 85300 333

10315 56900 59020 60062=

48101 21450 81801 10260 20246 76165 8697/ 333 10311

5659/ 60072=

48103 32330 72202 10276 20250 40060 86730 333 10312

56550 59014 60002=

48057 31456 71301 10220 20205 71799 86950 333 10250

56290 60002=

48094 22456 70000 10270 20260 40065 85970 333 10305

56590 59003 60012=

48097 22556 72401 10270 20263 40083 85931 333 10325

56999 59002 60002=

48031 21/03 92201 10200 20185 74744 89/// 333 10225

56999 60012=

48033 22562 40000 10310 20254 40039 84900 333 10330

56400 58008 60092=

48034 21356 80000 10220 20220 75165 8692/ 333 10328

5659/ 60302=

48039 32460 70000 10319 20265 84960 333 10349 56440

60002=

48043 NIL=

48052 32458 30000 10330 20258 83800 333 10346 56900

60002=

48055 32556 40902 10283 20233 40022 82901 333 10310

56309 59014 60002=

48064 32450 60000 10300 20253 40035 83831 333 10330

56449 59010 60002=

48065 32450 50000 10302 20266 82571 333 10332 56999

60002=

48074 NIL=

48092 21440 82302 10265 20251 40041 70266 84976 333

10305 56599 59018 60062=

48093 21540 63202 10276 20268 70155 83871 333 10323

56399 69902=

48107 32330 82301 10270 20256 40072 8597/ 333 10298

5666/ 59018 60002=

48096 22457 52106 10280 20256 40069 84930 333 10310

56990 59016 60002=  





