



*-*-*


<!--
.style2 {
	font-family:"Courier New", Courier, monospace;
	font-size: 14px;
}
-->






SIBM20 VBRR 160000 RRA

AAXX 16004

48001 NIL=

48004 NIL=

48008 31550 63601 10163 20144 40147 71044 83930 333 20150 56810 58006 60002=

48010 22410 60000 10145 20132 40149 83770 333 20140 56770 58022 60002=

48018 21530 20000 10150 20134 40153 72055 82800 333 20140 56900 58026=

48019 32440 70401 10143 20124 40146 84770 333 20142 56450 58024 60002=

48020 NIL=

48025 21110 23201 10166 20135 40153 74044 81640 333 20160 56990 58032=

48030 32150 32204 10038 20038 83700 333 20024 56500 60002=

48031 31950 03601 10086 20044 70500 333 20080 60002=

48033 32960 03302 10170 20154 40131 333 20160 58028 60002=

48034 32456 50000 10100 20056 85500 333 20085 56500 60002=

48035 31930 00000 10076 20055 40173 71000 333 20070 58016 60002=

48037 32910 03102 10172 20150 40130 333 20165 58020 60002=

48039 31450 32202 10155 20123 71011 81402 333 20154 56909 60002=

48042 32956 00000 10160 20123 40128 333 20148 58014 60002=

48043 32010 00000 10090 20068 333 20050 60002=

48045 NIL=

48048 32940 02201 10140 20107 40136 333 20133 58018 60002=

48051 32956 03602 10147 20120 333 20140 60002=

48052 32950 00401 10170 20117 333 20150 60002=

48053 32550 52703 10170 20117 40141 82556 333 20150 56699 58021 60002=

48055 31920 00000 10058 20053 40198 71000 333 20050 58024 60002=

48057 31939 00000 10092 20068 71000 333 20082 60002=

48060 32420 10000 10103 20079 40181 81100 333 20090 56500 58019 60002=

48062 31440 20000 10170 20150 40135 71011 82500 333 20145 56900 58017 60002=

48064 32950 00401 10184 20147 40110 333 20137 58020 60002=

48065 32950 00000 10170 20135 333 20155 60002=

48071 31950 00000 10210 20195 40136 71000 333 20175 58018 60002=

48072 NIL=

48074 32950 00403 10182 20129 40134 333 20157 58014 60002=

48075 31956 00000 10100 20100 40200 71022 333 20095 58026 60002=

48077 31956 00000 10180 20155 40126 71000 333 20150 58023 60002=

48078 NIL=

48080 31907 00000 10140 20140 40135 74144 333 20128 58006 60002=

48085 31930 01401 10142 20140 40128 74244 333 20140 58022 60002=

48087 NIL=

48092 31910 00000 10155 20147 40107 74044 333 20135 58011 60002=

48093 31920 00000 10164 20144 71011 333 20162 60002=

48094 31940 00000 10190 20180 40125 71000 333 20154 58010 60002=

48095 NIL=

48097 31550 31401 10175 20162 40134 71011 83500 333 20165 56900 58015 60002=

48099 31920 00401 10165 20144 40128 74044 333 20155 58018 60002=

48101 31950 00000 10185 20185 74244 333 20152 60002=

48103 31530 23201 10165 20144 40127 74144 82500 333 20148 56700 58012 60002=

48107 31930 00901 10168 20135 40126 74144 333 20153 58007 60002=

48108 31594 50000 10160 20144 40128 71022 82407 333 20145 56909 58008 60002=

48109 31496 20000 10223 20205 40134 71022 82500 333 20195 56900 58013 60002=

48110 31592 30000 10215 20190 40126 74244 81105 333 20215 56909 58010 60002=

48112 32597 80402 10245 20219 40120 83876 333 20200 56199 58013 60002=  





