



*-*-*


<!--
.style2 {
	font-family:"Courier New", Courier, monospace;
	font-size: 14px;
}
-->






SMBM01 VBRR 160600

AAXX 16064

48001 NIL=

48004 32562 40401 10226 20143 84800 333 56500=

48008 32557 20401 10236 20114 40179 82200 333 56100

59004=

48010 32060 01801 10235 20174 40176 333 59006=

48018 32560 41402 10250 20126 40189 83810 333 56320

58010=

48019 32460 30402 10222 20156 40181 80060 333 56040

58006=

48020 32557 73604 10240 20174 87700 333 56800=

48025 32458 62702 10235 20155 40197 84840 333 56650

58009=

48035 31560 60000 10219 20087 40148 70522 84960 333

56560 59003=

48037 21558 63601 10226 20163 40173 75155 84820 333

56650 59003=

48042 21450 80000 10230 20181 40174 75022 8597/ 333

56999 58030=

48045 21/25 80402 10140 20124 74164 887// 333 56999=

48048 21558 82201 10215 20185 40185 72055 8697/ 333

5649/ 58008=

48051 32558 73601 10250 20220 70222 85970 333 56590=

48053 21450 83602 10190 20190 40172 75065 8597/ 333

5689/ 59001=

48060 32440 50000 10222 20136 40170 82132 333 56566

59029=

48062 21456 80903 10212 20210 40152 70366 8597/ 333

5649/ 59015=

48071 21458 83603 10230 20198 40146 70162 8597/ 333

5649/ 59020=

48075 32558 31401 10230 20160 40149 83200 333 56500

59008=

48077 32559 80402 10240 20134 40156 85970 333 56990

59006=

48078 32558 53205 10256 20173 40164 82531 333 56599

58002=

48080 32460 60405 10300 20223 40126 84870 333 56590

59017=

48085 32458 81306 10290 20196 40135 84870 333 56990

59002=

48095 32458 60401 10265 20203 70122 83670 333 56990=

48108 32596 61403 10280 20146 40149 83506 333 56409

58005=

48109 32497 60401 10314 20254 40140 70122 86900 333

56900 58002=

48110 31596 53202 10210 20146 40142 70522 81106 333

56909 58002=

48112 NIL=

48030 21005 92202 10108 20108 75055 333=

48072 32460 70401 10270 20226 70322 85930 333 56590=

48087 32560 43603 10276 20203 81141 333 56999=

48099 32456 53203 10290 20196 40140 83831 333 56799

59004=

48101 32960 20000 10280 20203 70111 80005 333 56009=

48103 32457 30402 10316 20236 40135 83800 333 56100

59008=

48057 21/05 91501 10149 20149 74355 89/// 333 56///=

48094 32459 60403 10295 20200 40141 82540 333 56990

59006=

48097 32457 41303 10310 20166 40148 70211 82536 333

56999 59010=

48031 21/05 91801 10120 20117 75054 333=

48033 32563 63601 10230 20181 40166 86900 333 56500

58014=

48034 32456 60402 10207 20072 83830 333 56550=

48039 21459 82201 10218 20185 70255 887// 333 56599=

48043 32540 80000 10190 20139 8587/ 333 56999=

48052 32470 80402 10200 20200 85970 333 56990=

48055 21556 60402 10208 20152 40159 70255 83830 333

56550 59005=

48064 31468 83201 10205 20185 40165 75055 84720 333

56440 58002=

48065 21460 80000 10204 20200 75055 84720 333 56990=

48074 32457 70903 10245 20191 40160 85860 333 56440

59011=

48092 32558 41303 10290 20169 40126 70122 81431 333

56999 59003=

48093 32657 31401 10280 20169 83800 333 56500=

48107 32950 22301 10330 20126 40116 80006 333 56009

59003=  
SMBM01 VBRR 160600

AAXX 16064

48001 NIL=

48004 32562 40401 10226 20143 84800 333 56500=

48008 32557 20401 10236 20114 40179 82200 333 56100 59004=

48010 32060 01801 10235 20174 40176 333 59006=

48018 32560 41402 10250 20126 40189 83810 333 56320 58010=

48019 32460 30402 10222 20156 40181 80060 333 56040 58006=

48020 32557 73604 10240 20174 87700 333 56800=

48025 32458 62702 10235 20155 40197 84840 333 56650 58009=

48030 21005 92202 10108 20108 75055 333=

48031 21/05 91801 10120 20117 75050 333=

48033 32563 63601 10230 20181 40166 86900 333 56500 58014=

48034 32456 60402 10207 20072 83830 333 56550=

48035 31560 60000 10219 20087 40148 70522 84960 333 56560 59003=

48037 21558 63601 10226 20163 40173 75155 84820 333 56650 59003=

48039 21459 82201 10218 20185 70255 887// 333 56599=

48042 21450 80000 10230 20181 40174 75022 8597/ 333 56999 58030=

48043 32540 80000 10190 20139 8587/ 333 56999=

48045 21/25 80402 10140 20124 74164 887// 333 56999=

48048 21558 82201 10215 20185 40185 72055 8697/ 333 5649/ 58008=

48051 32558 73601 10250 20220 70222 85370 333 56590=

48052 32470 80402 10200 20200 85970 333 56990=

48053 21450 83602 10190 20190 40172 75065 8597/ 333 5689/ 59001=

48055 21556 60402 10208 20152 40159 70255 83830 333 56550 59005=

48057 21/05 91501 10149 20149 74355 89/// 333 56///=

48060 32440 50000 10222 20136 40170 82132 333 56566 59029=

48062 21458 80903 10292 20210 40192 70366 8597/ 333 5649/ 59015=

48064 31468 83201 10205 20185 40165 75055 84720 333 56440 58002=

48065 21460 80000 10204 20200 75055 84720 333 56990=

48071 21458 83603 10230 20198 40146 70162 8597/ 333 5649/ 59020=

48072 32490 70401 10270 20226 70322 85930 333 56590=

48074 32457 70903 10245 20191 40160 85860 333 56440 59011=

48075 32558 31401 10230 20160 40149 83200 333 56500 59008=

48077 32559 80402 10240 20134 40156 85970 333 56990 59006=

48078 32558 53205 10256 20173 40164 82531 333 56599 58002=

48080 32460 60405 10300 20223 40126 84870 333 56590 59017=

48085 32458 81306 10290 20196 40135 84870 333 56990 59002=

48087 32560 43603 10276 20202 81141 333 56999=

48092 32558 41303 10290 20169 40136 70122 81431 333 56999 59003=

48093 32657 31401 10280 20196 83800 333 56500=

48094 32459 60403 10295 20200 40141 82540 333 56990 59006=

48095 32458 60401 10265 20203 70122 83670 333 56990=

48097 32457 41303 10310 20166 40148 70211 82536 333 56999 59010=

48099 32456 53202 10290 20196 40140 82831 333 56799 59004=

48101 32960 20000 10280 20203 70111 80005 333 56009=

48103 32457 30402 10316 20236 40135 83800 333 56100 59008=

48107 32950 22301 10330 20126 40116 80006 333 56009 59003=

48108 32596 61403 10280 20146 40149 83506 333 56409 58005=

48109 32497 60401 10314 20254 40140 70122 86900 333 56900 58002=

48110 31596 53202 10310 20146 40142 70522 81106 333 56909 58003=

48112 NIL=  





