



*-*-*


<!--
.style2 {
	font-family:"Courier New", Courier, monospace;
	font-size: 14px;
}
-->






SIBM20 VBRR 160300

AAXX 16034

48001 21430 80401 10235 20226 40096 70266 8487/ 333 56339 59011=

48004 32458 73201 10285 20220 87900 333 56500=

48008 32557 50000 10285 20230 40082 82430 333 56990 59007=

48010 21440 80000 10265 20229 40091 70555 8577/ 333 56699 58006=

48018 32558 72301 10300 20239 40083 8387/ 333 56559 59011=

48019 32456 80000 10280 20250 40082 85620 333 56450 59000=

48020 31357 53602 10300 20253 72055 85700 333 56500=

48025 21430 63601 10318 20236 40090 70444 84841 333 56969 59000=

48030 22256 32201 10200 20150 82840 333 56560=

48031 31259 60401 10240 20174 70544 84830 333 56490=

48033 22561 71801 10270 20256 40090 86970 333 56440 58004=

48034 21456 80402 10230 20212 75055 8637/ 333 5659/=

48035 31530 61801 10266 20191 40074 70544 84960 333 56490 59014=

48037 22556 81801 10287 20248 40079 8587/ 333 56669 58012=

48039 21456 81201 10258 20258 75065 887// 333 56599=

48042 21456 81801 10255 20255 40095 79596 8592/ 333 56449 58003=

48043 21540 81803 10210 20210 75055 8677/ 333 56999=

48045 31556 51402 10242 20174 70444 80006 333 56009=

48048 22560 20401 10327 20244 40081 82800 333 56900 59008=

48051 32559 33601 10322 20250 70111 81206 333 56609=

48052 32460 21302 10350 20237 82200 333 56900=

48053 32450 71804 10310 20267 40089 83556 333 56499 59019=

48055 32556 52304 10262 20215 40090 83930 333 56660 59037=

48057 22458 42201 10230 20198 84300 333 56500=

48060 31440 20000 10290 20215 40086 70444 81130 333 56590 59005=

48062 32457 82703 10320 20292 40094 70222 84970 333 56690 59021=

48064 32960 00401 10340 20270 40073 333 59011=

48065 32960 10000 10344 20240 80001 333 56009=

48071 32458 43203 10323 20265 40093 84800 333 56700 59025=

48072 31459 61302 10320 20265 70355 84930 333 56590=

48074 32459 50402 10320 20248 40095 84860 333 56440 59022=

48075 32457 61401 10280 20230 40104 84840 333 56590 59007=

48077 32559 22301 10324 20248 40076 81201 333 56909 59025=

48078 32556 81802 10317 20251 40104 8557/ 333 56499 59016=

48080 32460 63021 10322 20265 40100 84870 333 56690 59026=

48085 32458 72705 10319 20254 40098 70322 85976 333 56509 59017=

48087 32960 30000 10320 20248 80041 333 56099=

48092 31456 32301 10320 20257 40079 70522 83200 333 56900 59032=

48093 32658 72301 10321 20248 85370 333 56590=

48094 32460 43202 10328 20280 40097 84900 333 56600 59022=

48095 32458 60000 10345 20270 70322 83940 333 56990=

48096 32458 33003 10320 20248 40107 83100 333 56600 59017=

48097 32557 50402 10335 20251 40111 85800 333 56900 59012=

48099 31456 83201 10287 20259 40113 71795 84930 333 56790 59007=

48101 32558 60000 10306 20267 70322 82335 333 56599=

48103 22456 70401 10327 20244 40108 85870 333 56110 59012=

48107 22350 62301 10320 20248 40105 84970 333 56550 59006=

48108 22596 60502 10315 20260 40118 84306 333 56109 59015=

48109 32497 61801 10315 20265 40105 85930 333 56990 59017=

48110 31596 50000 10310 20267 40116 70522 83306 333 56509 59016=

48112 22597 80401 10320 20281 40113 83876 333 56199 59017=  
SIBM20 VBRR 160300

NIL=  





