



*-*-*


<!--
.style2 {
	font-family:"Courier New", Courier, monospace;
	font-size: 14px;
}
-->






SIBM20 VBRR 160300

AAXX 16034

48001 32436 32701 10185 20165 40153 83800 333 56500

58002=

48004 31562 32201 10208 20175 70144 83800 333 56500=

48008 32556 20000 10200 20168 40145 82200 333 56100

59005=

48010 32556 40000 10210 20195 40142 84400 333 56600

59003=

48018 31958 01401 10210 20195 40139 70144 333 59005=

48019 32958 00000 10225 20173 40134 333 59005=

48020 32930 90000 10200 20185 74544 333=

48025 31110 82201 10215 20205 40150 74244 8587/ 333

56789 58000=

48035 31/05 90000 10167 20154 40140 74744 333 58003=

48037 32550 23201 10237 20209 40134 83800 333 56500

58005=

48042 32557 23601 10265 20207 40130 81202 333 56909

58005=

48045 32556 52203 10157 20144 85800 333 56500=

48048 32560 20401 10255 20203 40135 82800 333 56900

58001=

48051 32558 63604 10220 20210 86800 333 56800=

48053 32456 53202 10250 20205 40133 83550 333 56590

59002=

48060 NIL=

48062 32457 40904 10250 20220 40128 82902 333 56909

59000=

48071 32958 03202 10277 20233 40124 333 59002=

48075 32456 21401 10230 20198 40139 82100 333 56500

59005=

48077 32959 00000 10270 20240 40122 333 58002=

48078 32557 23201 10274 20222 40130 81501 333 56909

58004=

48080 32960 02202 10270 20240 40125 333 58001=

48085 32458 23601 10293 20248 40125 81506 333 56909

58000=

48095 32960 00000 10285 20233 333=

48108 32596 51403 10300 20253 40127 83306 333 56909

59002=

48109 32497 30000 10318 20265 40128 83800 333 56900

58004=

48110 21596 21301 10305 20267 40124 70511 81205 333

56909 59001=

48112 22598 60402 10280 20268 40123 82216 333 56199

58008=

48030 31960 02201 10080 20080 74144 333=

48072 32460 10401 10280 20233 81200 333 56600=

48087 NIL=

48099 31450 40000 10305 20253 40123 70344 83830 333

56990 59000=

48101 32959 13601 10302 20239 80001 333 56009=

48103 31457 40403 10303 20253 40128 70144 83830 333

56110 59001=

48057 32457 42202 10212 20160 84800 333 56500=

48094 32559 30401 10294 20250 40125 82501 333 56909

59001=

48097 32557 21301 10290 20248 40134 82500 333 56900

59005=

48031 32260 32201 10180 20108 83800 333 56500=

48033 32962 03601 10250 20186 40132 333 59012=

48034 32456 12301 10165 20120 81500 333 56500=

48039 31450 10000 10258 20214 74044 81100 333 56500=

48043 32557 20000 10200 20168 83200 333 56500=

48052 32958 00000 10268 20226 333=

48055 32556 22303 10206 20172 40138 82800 333 56600

59002=

48064 32958 10000 10235 20209 40113 80001 333 56009

59004=

48065 32950 03202 10255 20205 333=

48074 32959 00402 10260 20214 40142 333 59002=

48092 32456 23602 10294 20259 40108 82500 333 56900

59001=

48093 32958 00401 10298 20253 333=

48107 32350 43201 10300 20254 40116 84900 333 56300

59001=

48096 32958 13204 10290 20243 40132 80001 333 56009

59001=  





