



*-*-*


<!--
.style2 {
	font-family:"Courier New", Courier, monospace;
	font-size: 14px;
}
-->






SMBM01 VBRR 160600

AAXX 16064

48001 NIL=

48004 NIL=

48008 NIL=

48010 NIL=

48018 NIL=

48019 NIL=

48020 NIL=

48025 NIL=

48035 NIL=

48037 NIL=

48042 NIL=

48045 NIL=

48048 NIL=

48051 32558 33603 10277 20220 70111 82201 333 56909=

48053 NIL=

48060 NIL=

48062 32458 50402 10290 20260 40118 70322 82232 333

56199 59001=

48071 32458 23203 10290 20230 40116 81201 333 56909

58002=

48075 32558 31401 10280 20203 40118 83200 333 56300

58011=

48077 32559 20000 10314 20237 40112 81201 333 56909

58004=

48078 32558 33201 10327 20240 40107 82501 333 56709

59007=

48080 32562 22201 10332 20234 40111 82200 333 56900

59006=

48085 32458 23203 10318 20254 40109 81806 333 56309

59003=

48095 32460 30000 10330 20244 70300 83800 333 56900=

48108 32596 63202 10335 20264 40101 84366 333 56409

59007=

48109 NIL=

48110 NIL=

48112 32598 62202 10306 20267 40104 70122 82216 333

56599 58000=

48030 NIL=

48072 32461 13202 10305 20267 70222 81200 333 56600=

48087 32560 30000 10340 20240 83800 333 56900=

48099 32306 32302 10345 20257 40100 83900 333 56500

59006=

48101 32660 20000 10348 20240 70311 82200 333 56200=

48103 32457 50403 10338 20257 40099 85800 333 56100

59008=

48057 NIL=

48094 32560 33602 10335 20240 40108 70311 83900 333

56900 58000=

48097 32557 50702 10335 20242 40109 70222 85800 333

56900 59011=

48031 NIL=

48033 NIL=

48034 NIL=

48039 NIL=

48043 NIL=

48052 NIL=

48055 NIL=

48064 NIL=

48065 NIL=

48074 NIL=

48092 32459 40000 10340 20257 40089 84300 333 56900

58002=

48093 32658 42301 10344 20270 84800 333 56300=

48107 32350 41301 10340 20257 40102 84900 333 56300

58003=

48096 32558 63203 10320 20248 40119 82830 333 56990

58007=  





