



*-*-*


<!--
.style2 {
	font-family:"Courier New", Courier, monospace;
	font-size: 14px;
}
-->






SMBM01 VBRR 160000 RRA

AAXX 16004

48008 32456 30000 10220 20205 40150 82230 333 20200

56890 58001 60002=

48010 32440 70000 10225 20212 40141 84770 333 20215

56550 59005 60002=

48018 32550 21401 10230 20221 40150 81430 333 20223

56990 59013 60002=

48019 32950 00000 10216 20205 40140 333 20214 59007

60002=

48020 32330 50000 10220 20205 83540 333 20200 56550

60002=

48025 31110 60000 10224 20224 40148 74044 84640 333

20220 56690 59008 60002=

48035 31/01 90000 10184 20180 40154 74744 333 20175

59007 60002=

48037 32920 00000 10245 20209 40134 333 20230 59004

60002=

48042 32557 20000 10240 20226 40132 82400 333 20225

56900 59002 60002=

48108 31594 61401 10240 20226 40120 71022 83306 333

20223 56409 58000=

48110 21595 81302 10245 20237 40117 70522 82407 333

20245 56909 59006=

48112 32597 80402 10260 20246 40112 83876 333 20205

56199 59002=

48030 31/05 92201 10138 20138 74344 89/// 333 20130

56999 60002=

48099 32440 41301 10258 20246 40122 82830 333 20246

56390 59001=

48103 32440 30401 10242 20240 40119 83500 333 20239

56100 59003=

48031 32460 20000 10150 20150 81240 333 20140 56990

60002=

48033 32959 13601 10240 20226 40125 80001 333 20230

56009 59007 60002=

48034 22456 30000 10157 20152 70111 83500 333 20152

56500 60002=

48039 31456 20000 10236 20226 71011 82530 333 20235

56100 60002=

48107 32330 40901 10240 20226 40113 84900 333 20233

56100 59004=  
SMBM01 VBRR 160000

AAXX 16004

48008 32456 30000 10220 20205 40150 82230 333 20200

56890 58001 60002=

48010 32440 70000 10225 20212 40141 84770 333 20215

56550 59005 60002=

48018 32550 21401 10230 20221 40150 81430 333 20223

56990 59013 60002=

48019 32950 00000 10216 20205 40140 333 20214 59007

60002=

48020 32330 50000 10220 20205 83540 333 20200 56550

60002=

48025 31110 60000 10224 20224 40148 74044 84640 333

20220 56690 59008 60002=

48035 31/01 90000 10184 20180 40154 74744 333 20175

59007 60002=

48037 32920 00000 10245 20209 40134 333 20230 59004

60002=

48042 32557 20000 10240 20226 40132 82400 333 20225

56900 59002 60002=

48108 31594 61401 10240 20226 40120 71022 83306 333

20223 56409 58000=

48110 21595 81302 10245 20237 40117 70522 82407 333

20245 56909 59006=

48112 32597 80402 10260 20246 40112 83876 333 20205

56199 59002=

48030 31/05 92201 10138 20138 74344 89/// 333 20130

56999 60002=

48099 32440 41301 10258 20246 40122 82830 333 20246

56390 59001=

48103 32440 30401 10242 20240 40119 83500 333 20239

56100 59003=

48031 32460 20000 10150 20150 81240 333 20140 56990

60002=

48033 32959 13601 10240 20226 40125 80001 333 20230

56009 59007 60002=

48034 22456 30000 10157 20152 70111 83500 333 20152

56500 60002=

48039 31456 20000 10236 20226 71011 82530 333 20235

56100 60002=

48107 32330 40901 10240 20226 40113 84900 333 20233

56100 59004=  
SMBM01 VBRR 160000 RRB

AAXX 16004

48048 32550 20000 10228 20214 40136 82800 333 20221

56900 59011 60002=

48053 32440 53201 10230 20214 40128 82556 333 20228

56599 59017 60002=

48060 31420 20000 10178 20165 40171 74044 82130 333

20166 56340 58002 60002=

48057 21456 60000 10163 20163 70355 82550 333 20156

56990 60012=  





