



*-*-*


<!--
.style2 {
	font-family:"Courier New", Courier, monospace;
	font-size: 14px;
}
-->






SIBM20 VBRR 170300

AAXX 17034
48001 31440 82301 10223 20205 40120 70122 8577/ 333 56119 59011=
48004 31356 80000 10267 20223 70352 8797/ 333 56559=
48008 31550 80402 10275 20184 40097 70544 8497/ 333 56459 59027=
48010 32456 60000 10260 20229 40092 83731 333 56556 59032=
48018 32558 72202 10293 20196 40104 84870 333 56550 59009=
48019 32960 32701 10290 20230 40087 80020 333 56060 59029=
48020 21257 73601 10270 20233 72055 85740 333 56550=
48025 31440 52202 10290 20196 40096 70544 83840 333 56550 59027=
48030 22256 72204 10180 20108 85840 333 56560=
48031 31258 60401 10210 20120 70564 84840 333 56490=
48033 32562 41801 10310 20225 40097 84800 333 56900 59017=
48034 32457 60402 10246 20163 84830 333 56110=
48035 31930 00000 10271 20191 40084 70500 333 59032=
48037 22956 53601 10294 20215 40091 80070 333 56050 59023=
48039 22458 41401 10291 20230 81102 333 56404=
48042 22556 31302 10310 20237 40096 81252 333 56999 59024=
48043 32057 01805 10260 20179 333 /////=
48045 22560 71402 10238 20114 84660 333 56590=
48048 32560 31801 10310 20203 40092 83800 333 56900 59028=
48051 22558 53601 10271 20230 70222 82831 333 56590=
48052 32460 32201 10354 20219 83800 333 56900=
48053 32950 32201 10330 20244 40097 80006 333 56009 59043=
48055 21556 12204 10274 20188 40089 70511 81100 333 56500 59039=
48057 22457 32204 10244 20136 81501 333 56909=
48060 32940 10000 10280 20184 40093 80002 333 56009 59031=
48062 32958 50901 10286 20240 40118 70222 83830 333 56990 59016=
48064 32960 21401 10328 20244 40088 80001 333 56009 59019=
48065 32968 31402 10350 20219 80006 333 56009=
48071 32458 40000 10300 20266 40116 84800 333 56900 59025=
48072 32459 62702 10310 20267 70322 84930 333 56790=
48074 31458 12303 10305 20225 40124 70500 80002 333 56004 59017=
48075 22457 30000 10280 20230 40119 82101 333 56509 59015=
48077 32559 42301 10312 20225 40100 83801 333 56909 59023=
48078 32556 31401 10305 20230 40117 81501 333 56909 59028=
48080 32459 61302 10294 20259 40124 84870 333 56690 59021=
48085 32457 32703 10316 20265 40118 83800 333 56700 59020=
48087 32560 30000 10308 20237 82840 333 56990=
48092 31556 42202 10310 20254 40096 70511 82406 333 56909 59023=
48093 32957 92301 10304 20239 70222 8//// 333 56999=
48094 32459 33202 10315 20275 40122 70322 83900 333 56900 59019=
48095 32958 22202 10315 20254 70122 80002 333 56009=
48096 32557 42403 10310 20237 40127 81801 333 56909 59019=
48097 32557 42703 10251 20251 40131 84500 333 56900 59015=
48099 32450 41301 10308 20237 40119 84800 333 56300 59021=
48101 32959 23202 10310 20254 70311 80005 333 56009=
48103 32456 21401 10326 20258 40120 82500 333 56300 59022=
48107 32950 01301 10316 20236 40112 333 59018=
48108 32596 52701 10300 20239 40134 83806 333 56609 59014=
48109 32497 30401 10324 20265 40126 70122 83900 333 56900 59017=
48110 21595 82302 10305 20267 40131 70522 84307 333 56709 59017=
48112 32598 60401 10311 20237 40123 82216 333 56199 59012=  
SIBM20 VBRR 170300

AAXX 17034
48001 31440 82301 10223 20205 40120 70122 8577/ 333 56119 59011=
48004 31356 80000 10267 20223 70352 8797/ 333 56559=
48008 31550 80402 10275 20184 40097 70544 8497/ 333 56459 59027=
48010 32456 60000 10260 20229 40092 83731 333 56556 59032=
48018 32558 72202 10293 20196 40104 84870 333 56550 59009=
48019 32960 32701 10290 20230 40087 80020 333 56060 59029=
48020 21257 73601 10270 20233 72055 85740 333 56550=
48025 31440 52202 10290 20196 40096 70544 83840 333 56550 59027=
48030 22256 72204 10180 20108 85840 333 56560=
48031 31258 60401 10210 20120 70564 84840 333 56490=
48033 32562 41801 10310 20225 40097 84800 333 56900 59017=
48034 32457 60402 10246 20163 84830 333 56110=
48035 31930 00000 10271 20191 40084 70500 333 59032=
48037 22956 53601 10294 20215 40091 80070 333 56050 59023=
48039 22458 41401 10291 20230 81102 333 56404=
48042 22556 31302 10310 20237 40096 81252 333 56999 59024=
48043 32057 01805 10260 20179 333 /////=
48045 22560 71402 10238 20114 84660 333 56590=
48048 32560 31801 10310 20203 40092 83800 333 56900 59028=
48051 22558 53601 10271 20230 70222 82831 333 56590=
48052 32460 32201 10354 20219 83800 333 56900=
48053 32950 32201 10330 20244 40097 80006 333 56009 59043=
48055 21556 12204 10274 20188 40089 70511 81100 333 56500 59039=
48057 22457 32204 10244 20136 81501 333 56909=
48060 32940 10000 10280 20184 40093 80002 333 56009 59031=
48062 32958 50901 10286 20240 40118 70222 83830 333 56990 59016=
48064 32960 21401 10328 20244 40088 80001 333 56009 59019=
48065 32968 31402 10350 20219 80006 333 56009=
48071 32458 40000 10300 20266 40116 84800 333 56900 59025=
48072 32459 62702 10310 20267 70322 84930 333 56790=
48074 31458 12303 10305 20225 40124 70500 80002 333 56004 59017=
48075 22457 30000 10280 20230 40119 82101 333 56509 59015=
48077 32559 42301 10312 20225 40100 83801 333 56909 59023=
48078 32556 31401 10305 20230 40117 81501 333 56909 59028=
48080 32459 61302 10294 20259 40124 84870 333 56690 59021=
48085 32457 32703 10316 20265 40118 83800 333 56700 59020=
48087 32560 30000 10308 20237 82840 333 56990=
48092 31556 42202 10310 20254 40096 70511 82406 333 56909 59023=
48093 32957 92301 10304 20239 70222 8//// 333 56999=
48094 32459 33202 10315 20275 40122 70322 83900 333 56900 59019=
48095 32958 22202 10315 20254 70122 80002 333 56009=
48096 32557 42403 10310 20237 40127 81801 333 56909 59019=
48097 32557 42703 10251 20251 40131 84500 333 56900 59015=
48099 32450 41301 10308 20237 40119 84800 333 56300 59021=
48101 32959 23202 10310 20254 70311 80005 333 56009=
48103 32456 21401 10326 20258 40120 82500 333 56300 59022=
48107 32950 01301 10316 20236 40112 333 59018=
48108 32596 52701 10300 20239 40134 83806 333 56609 59014=
48109 32497 30401 10324 20265 40126 70122 83900 333 56900 59017=
48110 21595 82302 10305 20267 40131 70522 84307 333 56709 59017=
48112 32598 60401 10311 20237 40123 82216 333 56199 59012=  





