



*-*-*


<!--
.style2 {
	font-family:"Courier New", Courier, monospace;
	font-size: 14px;
}
-->






SMBM01 VBRR 171200

AAXX 17124

48001 22440 71302 10260 20229 40024 85920 333 10290

56570 58002 69902=

48004 21110 80401 10270 20270 75055 8697/ 333 10278

56559 60082=

48008 22456 72301 10285 20248 40040 84970 333 10295

56450 59004 60012=

48010 22440 71801 10286 20274 40035 84770 333 10338

56440 58008 60022=

48018 32556 62301 10305 20239 40047 83870 333 10320

56450 58004 69902=

48019 32450 70000 10300 20266 40045 85620 333 10312

56560 58006=

48020 32456 51803 10310 20267 84730 333 10345 56440=

48025 21456 61802 10302 20253 40045 70155 84741 333

10330 56549 58002 69902=

48035 32560 82202 10257 20215 40038 8597/ 333 10275

56569 59020 60002=

48037 22558 71801 10308 20237 40043 84832 333 10325

56449 58003 69902=

48042 32559 71804 10300 20239 40051 84850 333 10315

56440 58010 60002=

48045 32450 62202 10212 20160 85330 333 10226 56560=

48048 22550 72201 10300 20223 40052 85950 333 10313

56490 58011 69902=

48051 22558 71302 10278 20250 70222 85930 333 10287

56490 60162=

48053 32450 81803 10290 20259 40067 8597/ 333 10300

56499 59005=

48060 22330 80000 10257 20229 40065 85832 333 10275

56566 58019 69902=

48062 21456 80903 10260 20260 40081 72055 86920 333

10273 56490 58006 60252=

48071 22456 82302 10270 20270 40083 8697/ 333 10285

5699/ 59002 60162=

48075 22456 82302 10260 20209 40086 8637/ 333 10280

5659/ 58008 69902=

48077 32556 82301 10280 20250 40078 85931 333 10304

56499 58002=

48078 21450 81802 10242 20233 40102 75055 8577/ 333

10282 56499 58014 69902=

48080 22457 70401 10271 20240 40092 85870 333 10280

56590 58008 60122=

48085 21456 80000 10268 20256 40092 75055 85970 333

10264 56990 58005 60352=

48095 21456 80000 10250 20250 76055 84970 333 10300

56990 60112=

48108 22596 53201 10290 20259 40111 83346 333 10323

56699 58009 60082=

48109 32496 60000 10295 20253 40096 85930 333 10313

56990 59002=

48110 32596 53205 10295 20256 40105 82206 333 10330

56909 58006=

48112 32597 83201 10293 20259 40104 70222 83876 333

10338 56799 58000=

48030 21240 82205 10179 20165 75055 8694/ 333 10224

56569 60012=

48072 22458 81302 10280 20268 70222 86970 333 10290

56590 60062=

48087 22450 80000 10270 20256 8597/ 333 10284 5649/

60152=

48099 21230 82305 10243 20243 40105 79696 8697/ 333

10280 5699/ 58016 60122=

48101 21450 80000 10262 20246 70252 8697/ 333 10298

5659/ 69902=

48103 22330 82201 10279 20250 40104 86770 333 10294

56550 58011 60062=

48057 21456 72202 10202 20185 70255 85950 333 10215

56690 69902=

48094 21456 80000 10265 20250 40095 79596 86970 333

10305 56590 58005 60062=

48097 21456 80000 10240 20240 40112 76096 8577/ 333

10300 5699/ 58007 60272=

48031 21259 80401 10205 20185 75055 888// 333 10235

56999 69902=

48033 32562 61802 10300 20253 40042 85970 333 10304

56490 59013=

48034 21356 82301 10210 20207 72055 8697/ 333 10225

56599 60042=

48039 32460 71402 10290 20248 84960 333 10305 56440

60002=

48043 32520 81805 10220 20205 8587/ 333 10245 56599

60002=

48052 32450 71302 10312 20237 85930 333 10320 56990=

48055 21456 72302 10250 20205 40061 70255 84970 333

10288 56690 58006 69902=

48064 32450 80000 10297 20266 40050 84870 333 10312

56440 59013=

48065 32450 80000 10295 20239 85570 333 10315 56990=

48074 21356 81402 10260 20260 40101 70265 8677/ 333

10305 56599 58002 60062=

48092 21450 80000 10250 20250 40085 76196 8597/ 333

10300 5699/ 58014 60212=

48093 21440 82301 10254 20248 75365 8697/ 333 10285

56999 60582=

48107 32330 40000 10287 20259 40101 84900 333 10320

56500 58002 60002=  





