



*-*-*


<!--
.style2 {
	font-family:"Courier New", Courier, monospace;
	font-size: 14px;
}
-->






SMBM01 VBRR 170000 RRA

AAXX 17004

48051 31909 93601 10150 20140 74144 333 20147=

48062 31430 40000 10170 20170 40138 74244 84800 333

20160 56900 58001=

48071 31920 00000 10190 20175 40131 74244 333 20180

58010=

48075 31950 00000 10130 20113 40185 71044 333 20140

58007=

48077 32956 00000 10204 20185 40125 333 20190 58011=

48078 32340 10000 10200 20185 40132 80001 333 20185

56009 59006=

48080 31908 00000 10155 20134 40132 74044 333 20140

58007=

48085 31930 00000 10168 20166 40127 74144 333 20166

58009=

48108 31494 60000 10230 20222 40134 74022 84406 333

20200 56909 58020=

48110 21592 50000 10225 20225 40123 74244 82406 333

20220 56909 58006 60522=

48112 22597 80403 10250 20233 40122 83846 333 20192

56199 58007=

48087 32940 00000 10188 20175 333 20166=

48099 31330 52301 10220 20205 40121 74144 84830 333

20205 56990 58001=

48103 31420 20403 10213 20213 40123 74044 82700 333

20208 56100 58000=

48094 31950 00000 10215 20205 40128 71000 333 20208

58008=

48097 31550 21801 10200 20200 40133 71011 82500 333

20185 56800 58012=

48092 31450 10000 10200 20200 40108 71022 81400 333

20196 56900 58001=

48093 32940 01401 10222 20205 333 20218=

48107 31930 00901 10197 20185 40121 74144 333 20190

58002=

48096 32956 03202 10220 20185 40121 333 20200 59001=  
SMBM01 VBRR 170000

AAXX 17004

48051 31909 93601 10150 20140 74144 333 20147=

48062 31430 40000 10170 20170 40138 74244 84800 333

20160 56900 58001=

48071 31920 00000 10190 20175 40131 74244 333 20180

58010=

48075 31950 00000 10130 20113 40185 71044 333 20140

58007=

48077 32956 00000 10204 20185 40125 333 20190 58011=

48078 32340 10000 10200 20185 40132 80001 333 20185

56009 59006=

48080 31908 00000 10155 20134 40132 74044 333 20140

58007=

48085 31930 00000 10168 20166 40127 74144 333 20166

58009=

48108 31494 60000 10230 20222 40134 74022 84406 333

20200 56909 58020=

48110 21592 50000 10225 20225 40123 74244 82406 333

20220 56909 58006 60522=

48112 22597 80403 10250 20233 40122 83846 333 20192

56199 58007=

48087 32940 00000 10188 20175 333 20166=

48099 31330 52301 10220 20205 40121 74144 84830 333

20205 56990 58001=

48103 31420 20403 10213 20213 40123 74044 82700 333

20208 56100 58000=

48094 31950 00000 10215 20205 40128 71000 333 20208

58008=

48097 31550 21801 10200 20200 40133 71011 82500 333

20185 56800 58012=

48092 31450 10000 10200 20200 40108 71022 81400 333

20196 56900 58001=

48093 32940 01401 10222 20205 333 20218=

48107 31930 00901 10197 20185 40121 74144 333 20190

58002=

48096 32956 03202 10220 20185 40121 333 20200 59001=  





