



*-*-*


<!--
.style2 {
	font-family:"Courier New", Courier, monospace;
	font-size: 14px;
}
-->






SIBM20 VBRR 170900

AAXX 17094 

48001 NIL= 

48004 32562 42201 10264 20160 84900 333 56500=

48008 32558 63401 10257 20138 40126 83970 333 56560 59029=

48010 32560 31801 10290 20196 40120 83800 333 56500 59021=

48018 32560 71402 10245 20150 40133 70322 84970 333 56320 59022=

48019 32458 70000 10235 20163 40145 85770 333 56550 58000=

48020 NIL=

48025 32458 40401 10264 20138 40126 83840 333 56550 59031=

48030 32150 70402 10126 20113 87800 333 56100=

48031 31/03 92201 10125 20125 76064 89/// 333 56999=

48033 32562 73601 10240 20174 40136 86930 333 56550 58006=

48034 21356 81802 10165 20152 75055 8692/ 333 5659/=

48035 31458 80000 10179 20147 40121 70522 8597/ 333 56569 58001=

48037 32560 23601 10262 20160 40118 84830 333 56550 59022=

48039 32456 83201 10215 20175 887// 333 56599=

48042 21450 80000 10220 20195 40138 75022 8597/ 333 56969 59009=

48043 21540 81805 10160 20160 75022 8677/ 333 56599=

48045 31/03 91404 10140 20140 75064 89/// 333 56999=

48048 21558 82201 10225 20220 40132 72150 869// 333 5649/ 59019=

48051 32558 63601 10260 20200 84970 333 56590=

48052 32465 70401 10210 20210 85930 333 56190=

48053 21440 83601 10220 20205 40135 75055 8597/ 333 56599 59016=

48055 22456 60402 10200 20168 40120 70255 86300 333 56500 59005=

48057 31456 52202 10176 20147 70165 84830 333 56590=

48060 22420 80000 10195 20164 40147 70255 8577/ 333 5659/ 58033=

48062 21456 60903 10230 20210 40111 70166 84970 333 56990 59013=

48064 32460 60000 10217 20205 40118 84870 333 56550 59013=

48065 21460 80000 10216 20205 72050 84870 333 56990=

48071 21358 83204 10220 20220 40105 79599 8692/ 333 5659/ 59023=

48072 32459 41304 10280 20233 83830 333 56590=

48074 32459 53203 10260 20202 40119 80860 333 56440 59018=

48075 32558 71401 10260 20180 40117 85360 333 56590 59009=

48077 32559 60000 10300 20185 40119 84931 333 56999 59010=

48078 22558 51401 10290 20187 40129 83831 333 56699 58004=

48080 32459 82202 10275 20233 40115 85870 333 56590 58009=

48085 32458 81403 10284 20184 40113 82870 333 56590 58003=

48087 32560 50401 10290 20215 82841 333 56999=

48092 32458 50902 10295 20154 40099 70122 82700 333 56990 59002=

48093 32656 72301 10282 20203 84841 333 56599=

48094 32458 60401 10290 20230 40122 70322 84940 333 56990 58008=

48095 32958 30000 10295 20215 70133 80002 333 56009=

48097 32557 61402 10300 20185 40122 84830 333 56990 59001=

48099 32440 62301 10278 20184 40120 84830 333 56990 58009=

48101 32660 60901 10290 20215 70111 84431 333 56999=

48103 32456 60402 10284 20203 40119 84830 333 56110 58011=

48107 32350 72301 10300 20166 40108 85970 333 56550 58005=

48108 32596 50503 10315 20154 40135 83856 333 56699 58012=

48109 NIL=

48110 31996 21302 10320 20140 40112 70511 80005 333 56009 58000=

48112 32598 60402 10301 20223 40114 82216 333 56199 58007=  





