



*-*-*


<!--
.style2 {
	font-family:"Courier New", Courier, monospace;
	font-size: 14px;
}
-->






SMBM01 VBRR 170600

AAXX 17064

48001 32556 23201 10165 20117 40168 82200 333 56600

59002=

48004 32562 33201 10234 20124 83800 333 56500=

48008 32558 33402 10237 20114 40162 82430 333 56560

59016=

48010 32560 20000 10250 20186 40162 82800 333 56500

59014=

48018 32560 60402 10245 20167 40166 86800 333 56600

59002=

48019 32458 71401 10225 20172 40154 85770 333 56550

59028=

48020 32258 33602 10240 20191 83700 333 56400=

48025 32458 53601 10244 20155 40177 84840 333 56550

59019=

48035 31560 80000 10186 20159 40158 70522 8597/ 333

56599 58009=

48037 32558 83601 10212 20175 40146 8537/ 333 56669

59027=

48042 31540 83201 10220 20185 40148 71022 8597/ 333

56899 59026=

48045 31/05 91402 10141 20141 74544 89/// 333 56999=

48048 21558 82201 10215 20195 40161 72150 8697/ 333

5649/ 59024=

48051 31458 73601 10231 20210 75022 85970 333 56590=

48053 32440 83601 10215 20195 40157 8597/ 333 56599

59016=

48060 31420 80000 10190 20167 40169 75055 8577/ 333

5659/ 59001=

48062 21350 80901 10215 20210 40143 76196 8692/ 333

5699/ 59009=

48071 31460 61305 10260 20215 40135 71792 84970 333

56490 59011=

48075 32560 30000 10235 20170 40142 83200 333 56500

59008=

48077 32559 63601 10280 20184 40146 85930 333 56990

59010=

48078 21557 63604 10248 20196 40153 70155 83551 333

56699 59011=

48080 31460 62702 10272 20240 40142 70255 84870 333

56590 58022=

48085 32458 71404 10296 20207 40131 85970 333 56590

59004=

48095 32558 70401 10260 20215 70222 84840 333 56990=

48108 32596 40505 10305 20135 40143 82406 333 56909

59005=

48109 32497 51401 10276 20220 40146 84930 333 56990

58006=

48110 31996 11304 10300 20124 40145 70511 80005 333

56009 58003=

48112 32598 60405 10297 20223 40138 82216 333 56199

58010=

48030 32150 80402 10124 20124 88800 333 56100=

48072 32459 71301 10270 20240 70322 85930 333 56590=

48087 32558 60402 10264 20203 83841 333 56999=

48099 31440 80406 10260 20260 40148 70144 86830 333

56190 58008=

48101 32659 80000 10275 20220 70322 8277/ 333 5699/=

48103 32456 60402 10280 20146 40140 84830 333 56110

58005=

48057 21239 82201 10152 20152 76165 86970 333 56990=

48094 32459 60402 10280 20210 40144 70322 84940 333

56990 58003=

48097 32557 71304 10280 20203 40143 70222 85550 333

56990 59005=

48031 31/03 91801 10126 20125 74744 89/// 333 56999=

48033 32562 73601 10210 20195 40156 86930 333 56550

59010=

48034 21356 80000 10158 20145 75055 8692/ 333 5659/=

48039 32456 80000 10215 20195 887// 333 56599=

48043 32540 80000 10165 20165 8687/ 333 56599=

48052 32465 70000 10210 20210 85930 333 56990=

48055 21240 80000 10170 20170 40162 75055 8697/ 333

5659/ 58003=

48064 32470 62701 10215 20200 40149 84870 333 56550

59016=

48065 21465 80000 10210 20210 86370 333 56990=

48074 32458 61402 10245 20191 40150 83860 333 56440

59010=

48092 32457 70402 10290 20196 40124 70222 84870 333

56990 59002=

48093 32657 80401 10177 20203 85841 333 56599=

48107 32350 40901 10313 20146 40131 82850 333 56330

58015=  
SMBM01 VBRR 170600

AAXX 17064

48001 32556 23201 10165 20117 40168 82200 333 56600 59002=

48004 32562 33201 10234 20124 83800 333 56500=

48008 32558 33402 10237 20114 40162 82430 333 56560 59016=

48010 32560 20000 10250 20186 40162 82800 333 56500 59014=

48018 32560 60402 10245 20167 40166 86800 333 56600 59002=

48019 32458 71401 10225 20172 40154 85770 333 56550 59028=

48020 32258 33602 10240 20191 83700 333 56400=

48025 32458 53601 10244 20155 40177 84840 333 56550 59019=

48030 32150 80402 10124 20124 88800 333 56100=

48031 31/03 91801 10126 20125 74744 89/// 333 56999=

48033 32562 73601 10210 20195 40156 86930 333 56550 59010=

48034 21356 80000 10158 20145 75055 8692/ 333 5659/=

48035 31560 80000 10186 20159 40158 70522 8597/ 333 56599 58009=

48037 32558 83601 10212 20175 40146 8537/ 333 56669 59027=

48039 32456 80000 10215 20195 887// 333 56599=

48042 31540 83201 10220 20185 40148 71022 8597/ 333 56899 59026=

48043 32540 80000 10165 20165 8687/ 333 56599=

48045 31/05 91402 10141 20141 74544 89/// 333 56999=

48048 21558 82201 10215 20195 40161 72150 8697/ 333 5649/ 59024=

48051 31458 73601 10231 20210 75022 85970 333 56590=

48052 32465 70000 10210 20210 85930 333 56990=

48053 32440 83601 10215 20195 40157 8597/ 333 56599 59016=

48055 21240 80000 10170 20170 40162 75055 8697/ 333 5659/ 58003=

48057 21239 82201 10152 20152 76165 86970 333 56990=

48060 31420 80000 10190 20167 40169 75055 8577/ 333 5659/ 59001=

48062 21350 80901 10215 20210 40143 76196 8692/ 333 5699/ 59009=

48064 32470 62701 10215 20200 40149 84870 333 56550 59016=

48065 21465 80000 10210 20210 86370 333 56990=

48071 31460 61305 10260 20215 40135 71792 84970 333 56490 59011=

48072 32459 71301 10270 20240 70322 85930 333 56590=

48074 32458 61402 10245 20191 40150 83860 333 56440 59010=

48075 32560 30000 10235 20170 40142 83200 333 56500 59008=

48077 32559 63601 10280 20184 40146 85930 333 56990 59010=

48078 21557 63604 10248 20196 40153 70155 83551 333 56699 59011=

48080 31460 62702 10272 20240 40142 70255 84870 333 56590 58022=

48085 32458 71404 10296 20207 40131 85970 333 56590 59004=

48087 32558 60402 10264 20203 83841 333 56999=

48092 32457 70402 10290 20196 40124 70222 84870 333 56990 59002=

48093 32657 80401 10177 20203 85841 333 56599=

48094 32459 60402 10280 20210 40144 70322 84940 333 56990 58003=

48095 32558 70401 10260 20215 70222 84840 333 56990=

48097 32557 71304 10280 20203 40143 70222 85550 333 56990 59005=

48099 31440 80406 10260 20260 40148 70144 86830 333 56190 58008=

48101 32659 80000 10275 20220 70322 8277/ 333 5699/=

48103 32456 60402 10280 20146 40140 84830 333 56110 58005=

48107 32350 40901 10313 20146 40131 82850 333 56330 58015=

48108 32596 40505 10305 20135 40143 82406 333 56909 59005=

48109 32497 51401 10276 20220 40146 84930 333 56990 58006=

48110 31996 11304 10300 20124 40145 70511 80005 333 56009 58003=

48112 32598 60405 10297 20223 40138 82216 333 56199 58010=  





