



*-*-*


<!--
.style2 {
	font-family:"Courier New", Courier, monospace;
	font-size: 14px;
}
-->






SIBM20 VBRR 170900

AAXX 17094

48001 NIL=

48004 31558 22201 10335 20191 70511 82800 333 56900=

48008 31557 41401 10338 20164 40068 70544 82430 333 56430 59025=

48010 32560 20000 10355 20195 40065 80030 333 56050 59033=

48018 32960 03202 10265 20125 40054 333 59042=

48019 32960 03201 10358 20214 40063 333 59027=

48020 NIL=

48025 31950 00901 10384 20159 40072 70544 333 59012=

48030 31250 12204 10250 20105 70544 81300 333 56500=

48031 31950 01801 10265 20070 70500 333=

48033 32963 03601 10380 20187 40058 333 59028=

48034 32958 02302 10308 20068 333=

48035 31920 03205 10333 20041 40038 70400 333 59026=

48037 31957 00401 10400 20176 40047 70544 333 59039=

48039 32958 32201 10366 20171 80002 333 56009=

48042 32957 00402 10385 20152 40058 333 59026=

48043 32059 03206 10320 20124 333=

48045 31557 21403 10310 29019 70400 82800 333 56500=

48048 32962 00401 10395 20196 40063 333 59033=

48051 31961 03602 10388 20130 70500 333=

48052 32970 00402 10421 20202 333=

48053 31950 01802 10390 20233 40058 70500 333 59034=

48055 31956 03107 10345 20116 40027 70500 333 59031=

48057 32960 02203 10300 20098 333=

48060 32940 02202 10336 20145 40045 333 59016=

48062 32958 02710 10350 20240 40083 333 59025=

48064 32970 01401 10400 20230 40047 333 59023=

48065 32970 00000 10410 20141 333=

48071 32960 02705 10320 20215 40081 333 59027=

48072 32960 03204 10340 20257 333=

48074 32961 03603 10390 20213 40072 333 59018=

48075 31957 02202 10370 20096 40046 70500 333 59031=

48077 31958 00000 10398 20196 40059 70500 333 59029=

48078 32558 21801 10384 20261 40065 81101 333 56909 59026=

48080 32960 02209 10351 20240 40067 333 59027=

48085 31458 23205 10318 20248 40081 70500 82100 333 56700 59025=

48087 NIL=

48092 31557 12203 10360 20249 40062 70522 81500 333 56900 59021=

48093 32958 01401 10362 20264 333=

48094 31960 03201 10370 20210 40075 70500 333 59029=

48095 32958 02202 10365 20278 333=

48097 32557 42303 10360 20249 40099 84500 333 56900 59019=

48099 32456 61204 10253 20237 40077 84830 333 56390 59020=

48101 32960 01402 10325 20248 333=

48103 32957 02201 10345 20206 40078 333 59024=

48107 32950 02302 10338 20225 40082 333 59019=

48108 32596 63209 10365 20231 40088 83866 333 56699 59024=

48109 32997 00401 10316 20246 40099 333 59023=

48110 32596 23204 10330 20244 40090 81205 333 56909 59024=

48112 32597 82702 10340 20240 40088 83876 333 56699 59020=  





