



*-*-*


<!--
.style2 {
	font-family:"Courier New", Courier, monospace;
	font-size: 14px;
}
-->






SIBM20 VBRR 170300

AAXX 17034

48001 32557 20401 10220 20156 40132 82200 333 56560 59024=

48004 31558 10401 10224 20173 70511 81100 333 56900=

48008 31557 41401 10230 20163 40129 70344 82230 333 56430 59026=

48010 32056 00000 10225 20185 40132 333 59017=

48018 31557 23201 10230 20181 40124 70344 82800 333 56700 59030=

48019 32960 03601 10233 20181 40117 333 59030=

48020 31950 00000 10255 20175 70500 333=

48025 31420 11401 10244 20114 40121 70544 81500 333 56900 59021=

48030 31956 02204 10180 20056 70544 333=

48031 31960 01801 10230 20085 70500 333=

48033 32962 00000 10280 20184 40114 333 59020=

48034 32957 00403 10244 20095 333=

48035 31910 00000 10204 20109 40125 70400 333 59024=

48037 31940 00401 10260 20119 40122 70544 333 59015=

48039 31950 30000 10271 20154 70511 80002 333 56009=

48042 32956 00000 10290 20159 40122 70500 333 59020=

48043 32058 03205 10250 20068 333=

48045 32960 11402 10250 20024 80001 333 56009=

48048 32960 00401 10270 20154 40121 333 59032=

48051 31956 03602 10276 20150 70500 333=

48052 32958 00000 10268 20154 333=

48053 31930 01801 10280 20220 40125 70500 333 59028=

48055 31950 01403 10220 20087 40129 70500 333 59036=

48057 32958 01401 10240 20095 333=

48060 31930 00000 10220 20136 40131 74244 333 59044=

48062 32956 03202 10255 20190 40129 333 59018=

48064 32960 01401 10250 20186 40101 333 59038=

48065 32960 00000 10283 20146 333=

48071 31958 00000 10268 20240 40128 71044 333 59018=

48072 31956 02301 10255 20246 71045 333=

48074 32958 01402 10275 20126 40141 333 59018=

48075 31957 00000 10250 20126 40138 70500 333 59042=

48077 31958 02701 10280 20203 40114 70500 333 59028=

48078 32957 11801 10279 20226 40122 80001 333 56009 58034=

48080 32960 00401 10254 20205 40127 333 59024=

48085 31458 51402 10276 20240 40128 70344 85800 333 56300 59018=

48087 32450 40000 10278 20250 84500 333 56900=

48092 31450 40903 10270 20240 40122 70522 84800 333 56900 59017=

48093 32956 91401 10270 20240 333=

48094 32959 03202 10290 20250 40132 333 59014=

48095 31956 00000 10270 20240 70544 333=

48096 32056 01203 10280 20250 40144 333 59012=

48097 31557 42602 10295 20244 40150 70544 84500 333 56900 59005=

48099 31330 42301 10273 20240 40137 74044 84800 333 56500 59017=

48101 32957 00000 10273 20256 333=

48103 31950 03201 10288 20248 40137 70144 333 59021=

48107 31940 00401 10274 20211 40131 70144 333 59012=

48108 31996 40903 10270 20226 40144 70244 80006 333 56009 59019=

48109 32997 00000 10276 20233 40141 333 59023=

48110 31596 31301 10300 20239 40141 70544 82105 333 56909 59015=

48112 32598 60402 10305 20247 40138 82216 333 56199 59020=  
SIBM20 VBRR 170300

AAXX 17034

48001 32557 20401 10220 20156 40132 82200 333 56560

59024=

48004 31558 10401 10224 20173 70511 81100 333 56900=

48008 31557 41401 10230 20163 40129 70344 82230 333

56430 59026=

48010 32056 00000 10225 20185 40132 333 59017=

48018 31557 23201 10230 20181 40124 70344 82800 333

56700 59030=

48019 32960 03601 10233 20181 40117 333 59030=

48020 31950 00000 10255 20179 70500 333=

48025 31420 11401 10244 20114 40121 70544 81500 333

56900 59021=

48035 31910 00000 10204 20109 40125 70400 333 59024=

48037 31940 00401 10260 20119 40122 70544 333 59015=

48042 31956 00000 10290 20159 40122 70500 333 59020=

48045 32960 11402 10250 20024 80001 333 56009=

48048 32960 00401 10270 20154 40121 333 59032=

48051 31956 03602 10276 20150 70500 333=

48053 31930 01801 10280 20220 40125 70500 333 59028=

48060 31930 00000 10220 20136 40131 74244 333 59044=

48062 32956 03202 10255 20190 40129 333 59018=

48071 31958 00000 10268 20240 40128 71044 333 59018=

48075 31957 00000 10250 20126 40138 70500 333 59042=

48077 31958 02301 10280 20203 40114 70500 333 59028=

48078 32957 11801 10279 20116 40122 80001 333 56009

58034=

48080 32960 00401 10254 20205 40127 333 59024=

48085 31458 51402 10276 20240 40128 70344 85800 333

56300 59018=

48095 31956 00000 10270 20240 70544 333=

48108 31996 40903 10270 20226 40144 70244 80006 333

56009 59019=

48109 32997 00000 10276 20233 40141 333 59023=

48110 31596 31301 10300 20239 40141 70544 82105 333

56909 59015=

48112 32596 60402 10305 20247 40138 82216 333 56199

59020=

48030 31956 02204 10180 20056 70544 333=

48072 31956 02301 10255 20246 71045 333=

48087 32450 40000 10278 20250 84500 333 56900=

48099 31330 42301 10273 20240 40127 74044 84800 333

56500 59017=

48101 32957 00000 10273 20256 333=

48103 31950 03201 10288 20248 40137 70144 333 59021=

48057 32958 01401 10240 20095 333 31005=

48094 32959 03202 10290 20250 40132 333 59014=

48097 31557 42602 10295 20244 40150 70544 84500 333

56900 59005=

48031 31960 01801 10230 20085 70500 333=

48033 32962 00000 10280 20184 40114 333 59020=

48034 32957 00403 10244 20095 333=

48039 31950 30000 10271 20154 70511 80002 333 56009=

48043 32058 03205 10250 20068 333=

48052 32958 00000 10268 20154 333=

48055 31950 01403 10220 20087 40129 70500 333 59036=

48064 32960 01401 10250 20186 40101 333 59038=

48065 32960 00000 10283 20146 333=

48074 32958 01402 10275 20126 40141 333 59018=

48092 31450 40903 10270 20240 40122 70522 84800 333

56900 59017=

48093 32956 91401 10270 20240 333 =

48107 31940 00401 10274 20211 40131 70144 333 59012=  
SIBM20 VBRR 170300



AAXX 17034



48001 32557 20401 10220 20156 40132 82200 333 56560



59024=



48004 31558 10401 10224 20173 70511 81100 333 56900=



48008 31557 41401 10230 20163 40129 70344 82230 333



56430 59026=



48010 32056 00000 10225 20185 40132 333 59017=



48018 31557 23201 10230 20181 40124 70344 82800 333



56700 59030=



48019 32960 03601 10233 20181 40117 333 59030=



48020 31950 00000 10255 20179 70500 333=



48025 31420 11401 10244 20114 40121 70544 81500 333



56900 59021=



48035 31910 00000 10204 20109 40125 70400 333 59024=



48037 31940 00401 10260 20119 40122 70544 333 59015=



48042 31956 00000 10290 20159 40122 70500 333 59020=



48045 32960 11402 10250 20024 80001 333 56009=



48048 32960 00401 10270 20154 40121 333 59032=



48051 31956 03602 10276 20150 70500 333=



48053 31930 01801 10280 20220 40125 70500 333 59028=



48060 31930 00000 10220 20136 40131 74244 333 59044=



48062 32956 03202 10255 20190 40129 333 59018=



48071 31958 00000 10268 20240 40128 71044 333 59018=



48075 31957 00000 10250 20126 40138 70500 333 59042=



48077 31958 02301 10280 20203 40114 70500 333 59028=



48078 32957 11801 10279 20116 40122 80001 333 56009



58034=



48080 32960 00401 10254 20205 40127 333 59024=



48085 31458 51402 10276 20240 40128 70344 85800 333



56300 59018=



48095 31956 00000 10270 20240 70544 333=



48108 31996 40903 10270 20226 40144 70244 80006 333



56009 59019=



48109 32997 00000 10276 20233 40141 333 59023=



48110 31596 31301 10300 20239 40141 70544 82105 333



56909 59015=



48112 32596 60402 10305 20247 40138 82216 333 56199



59020=



48030 31956 02204 10180 20056 70544 333=



48072 31956 02301 10255 20246 71045 333=



48087 32450 40000 10278 20250 84500 333 56900=



48099 31330 42301 10273 20240 40127 74044 84800 333



56500 59017=



48101 32957 00000 10273 20256 333=



48103 31950 03201 10288 20248 40137 70144 333 59021=



48057 32958 01401 10240 20095 333 31005=



48094 32959 03202 10290 20250 40132 333 59014=



48097 31557 42602 10295 20244 40150 70544 84500 333



56900 59005=



48031 31960 01801 10230 20085 70500 333=



48033 32962 00000 10280 20184 40114 333 59020=



48034 32957 00403 10244 20095 333=



48039 31950 30000 10271 20154 70511 80002 333 56009=



48043 32058 03205 10250 20068 333=



48052 32958 00000 10268 20154 333=



48055 31950 01403 10220 20087 40129 70500 333 59036=



48064 32960 01401 10250 20186 40101 333 59038=



48065 32960 00000 10283 20146 333=



48074 32958 01402 10275 20126 40141 333 59018=



48092 31450 40903 10270 20240 40122 70522 84800 333



56900 59017=



48093 32956 91401 10270 20240 333 =



48107 31940 00401 10274 20211 40131 70144 333 59012=  





