



*-*-*


<!--
.style2 {
	font-family:"Courier New", Courier, monospace;
	font-size: 14px;
}
-->






SMBM01 VBRR 171800

NIL=  
SMBM01 VBRR 171800 RRA

AAXX 17184

48008 32510 60000 10280 20233 40031 83970 333 56450 59013=

48010 32510 50000 10272 20256 40040 82431 333 56566 59010=

48018 21520 50000 10255 20233 40054 72196 83870 333 56450 59010=

48025 21405 50000 10255 20235 40075 70196 83870 333 56590 59001=

48042 21450 80000 10275 20275 40044 79622 8597/ 333 56569 58002=

48053 32440 71803 10280 20250 40051 86950 333 56590 59022=

48057 21439 71501 10214 20195 70395 85950 333 56590=

48060 21420 60000 10256 20229 40039 70255 83970 333 56590 59022=

48062 32450 22705 10300 20280 40076 82200 333 56600 59004=

48071 31420 30000 10300 20253 40065 71311 83900 333 56900 58000=

48078 22550 51401 10273 20196 40099 84901 333 56409 58010=

48080 21450 80000 10255 20255 40078 79596 85970 333 56590 58004=

48094 22450 50000 10260 20250 40086 83970 333 56990 59003=

48097 32556 22301 10275 20245 40089 82500 333 56900 59011=

48099 21330 60000 10270 20256 40094 70355 86930 333 56990 59001=

48103 21310 82201 10283 20250 40075 76066 87720 333 56550 58002=

48108 21494 82302 10260 20253 40102 70396 8497/ 333 5699/ 58007=

48109 22495 82302 10282 20250 40074 8697/ 333 5699/ 59004=

48110 22594 63202 10275 20245 40106 83376 333 56999 59000=

48112 21597 82202 10260 20260 40093 71795 84976 333 56599 58010=  





