



*-*-*


<!--
.style2 {
	font-family:"Courier New", Courier, monospace;
	font-size: 14px;
}
-->






SIBM20 VBRR 170300

AAXX 17034

48001 32440 60000 10186 20175 40156 84830 333 56620

58003=

48004 31905 91301 10205 20175 74644 89//0 333 56990=

48008 32558 30000 10220 20185 40152 81131 333 56456

58006=

48010 32556 40000 10205 20185 84700 333 56600 58010=

48018 31557 73201 10220 20205 40141 70344 84870 333

56770 58001=

48019 32458 40402 10220 20185 40142 80035 333 56056

58008=

48020 32256 70402 10220 20205 87800 333 56400=

48025 31108 70401 10217 20205 40153 74244 84770 333

56650 58004=

48035 31/05 90000 10167 20154 40135 74744 333 59004=

48037 32556 23601 10238 20191 40126 81209 333 56509

59008=

48042 32557 20000 10253 20205 40131 81102 333 56909

58001=

48045 32556 52203 10150 20134 83831 333 56569=

48048 32560 43601 10245 20209 40138 84800 333 56800

58003=

48051 32958 03102 10268 20240 333=

48053 32450 40000 10250 20205 40138 83506 333 56409

58005=

48060 32440 40000 10210 20160 40157 83132 333 56566

58008=

48062 32456 20903 10250 20210 40127 82500 333 56900

59001=

48071 32958 00401 10270 20233 40126 333 58002=

48075 32956 20000 10210 20195 40148 80005 333 56009

58010=

48077 32959 33601 10270 20226 40124 80001 333 56009

58002=

48078 32557 22301 10267 20228 40130 81501 333 56909

59000=

48080 32560 31301 10270 20226 40119 82206 333 56909

59006=

48085 32458 20000 10280 20250 40120 81806 333 56909

59005=

48095 32960 20000 10280 20250 80002 333 56009=

48108 22596 41401 10275 20245 40125 83406 333 56909

59002=

48109 32497 30000 10304 20266 40124 83800 333 56900

59004=

48110 21596 21802 10310 20260 40119 70511 81105 333

56909 59005=

48112 31597 80403 10285 20254 40125 70522 83876 333

56199 58002=

48030 31960 12201 10082 20055 70144 81200 333 56500=

48072 32960 01801 10290 20230 333=

48087 32960 30402 10272 20240 80041 333 56099=

48099 31450 30402 10285 20250 40123 70244 83800 333

56900 58000=

48101 32959 23601 10300 20239 80005 333 56009=

48103 31450 43203 10300 20253 40123 70144 83830 333

56770 59005=

48057 32456 51401 10210 20143 81506 333 56903=

48094 32459 30402 10280 20230 40122 82541 333 56909

59003=

48097 31557 23601 10290 20254 40120 70511 80006 333

56009 59014=

48031 31260 32201 10170 20117 70211 83800 333 56400

=

48033 32562 13601 10230 20198 40134 81100 333 56900

58018=

48034 32456 20000 10155 20117 82500 333 56500=

48039 31450 40401 10252 20205 74044 82102 333 56505=

48043 32556 31801 10195 20168 81232 333 56599=

48052 32456 23601 10260 20215 82200 333 56900=

48055 32556 31802 10197 20163 40150 81501 333 56509

58012=

48064 32956 01801 10220 20185 40120 333 58007=

48065 32556 22201 10245 20186 82801 333 56909=

48074 32458 30000 10260 20229 40127 81506 333 56909

59015=

48092 32457 20902 10300 20253 40111 82100 333 56900

58003=

48093 32958 01401 10308 20267 333=

48107 31350 20401 10300 20266 40112 7//44 82900 333

56400 59004=

48096 32457 33603 10290 20259 40124 82140 333 56990

59006=  





