



*-*-*


<!--
.style2 {
	font-family:"Courier New", Courier, monospace;
	font-size: 14px;
}
-->






SMBM01 VBRR 170600

AAXX 17064

48001 32440 63201 10280 20233 40085 84830 333 56320

59007=

48004 32562 30401 10347 20266 83300 333 56500=

48008 NIL=

48010 32560 21801 10330 20275 40074 82800 333 56500

58010=

48018 32560 30401 10345 20270 40061 82840 333 56110

59006=

48019 32460 10402 10350 20266 40055 81200 333 56400

59004=

48020 32460 23604 10355 20287 82200 333 56400=

48025 NIL=

48035 NIL=

48037 NIL=

48042 NIL=

48045 NIL=

48048 NIL=

48051 NIL=

48053 NIL=

48060 NIL=

48062 NIL=

48071 NIL=

48075 NIL=

48077 NIL=

48078 NIL=

48080 NIL=

48085 NIL=

48095 NIL=

48108 NIL=

48109 NIL=

48110 NIL=

48112 NIL=

48030 31130 80408 10204 20204 70144 8692/ 333 56189=

48072 NIL=

48087 NIL=

48099 NIL=

48101 NIL=

48103 NIL=

48057 NIL=

48094 NIL=

48097 NIL=

48031 32260 62201 10245 20205 86800 333 56400=

48033 NIL=

48034 NIL=

48039 NIL=

48043 NIL=

48052 NIL=

48055 NIL=

48064 NIL=

48065 NIL=

48074 NIL=

48092 NIL=

48093 NIL=

48107 NIL=

48096 NIL=  
SMBM01 VBRR 170600 RRA

AAXX 17064

48035 32560 83202 10319 20236 40041 84960 333 56190

59004=

48037 32462 43601 10345 20257 40058 84100 333 56800

59012=

48042 32558 40402 10362 20249 40036 83802 333 56409

59013=

48045 31350 70907 10241 20209 74044 87800 333 56100=

48048 32560 20401 10340 20267 40048 82800 333 56900

59012=

48051 32560 43602 10326 20280 82931 333 56399=

48053 32556 53601 10350 20266 40039 84901 333 56809

59030=

48060 21340 70000 10270 20226 40094 71555 84970 333

56560 58042=

48062 32458 72303 10320 20290 40052 85932 333 56399

59008=

48071 32458 72303 10310 20267 40051 85970 333 56390

59010=

48075 32457 61403 10300 20237 40068 70322 85340 333

56590 59013=

48077 32559 70000 10320 20265 40040 85931 333 56499

59003=

48078 32560 50402 10323 20286 40042 83831 333 56889

59012=

48080 32461 52201 10324 20281 40041 83830 333 56390

59017=

48085 32458 72703 10308 20266 40048 85906 333 56209

59007=

48095 32458 50000 10315 20282 82802 333 56909=

48108 32596 72306 10290 20259 40049 84376 333 56599

59014=

48109 21396 82302 10250 20250 40068 75166 8697/ 333

5699/ 59008=

48110 21493 82301 10265 20258 40063 75165 8632/ 333

5669/ 59006=

48112 21496 80405 10245 20245 40076 8677/ 333 5619/

59004=

48072 32460 42704 10310 20267 83830 333 5659=

48087 32560 50402 10322 20281 82841 333 56999=

48099 32556 62303 10320 20265 40035 84930 333 56590

59027=

48101 32559 72301 10326 20275 84371 333 56299=

48103 32457 40402 10328 20244 40030 83830 333 56110

59013=

48057 32460 40903 10257 20203 83301 333 56209=

48097 32557 62104 10320 20292 40056 83831 333 56499

59019=

48034 32456 40402 10298 20210 84800 333 56500=

48039 32460 10401 10339 20270 81100 333 56400=

48043 32559 32305 10270 20226 83200 333 56300=

48052 32470 23601 10354 20266 82200 333 56900=

48055 32556 60905 10281 20212 40048 86900 333 56300

58010=

48064 32960 10401 10336 20288 40025 80001 333 56009

59010=

48074 32561 20402 10335 20257 40044 81150 333 56110

59020=

48092 32458 70902 10330 20258 40026 85970 333 56990

59011=

48093 32558 82301 10302 20266 86341 333 56999=

48107 32350 42301 10324 20265 40041 84900 333 56600

59023=

48096 32458 60406 10320 20248 40041 84930 333 56990

59013=  
SMBM01 VBRR 170600 RRB

AAXX 17064

48078 32560 50402 10323 20286 40042 83831 333 56889

59012=  





