



*-*-*


<!--
.style2 {
	font-family:"Courier New", Courier, monospace;
	font-size: 14px;
}
-->






SIBM20 VBRR 170900 RRA

AAXX 17094

48020 32460 10404 10362 20286 81200 333 56400=

48074 32461 70000 10350 20266 40010 84360 333 56110

59020=  
SIBM20 VBRR 170900 RRB

AAXX 17094

48001 NIL=

48004 22558 50000 10290 20274 84901 333 10320 56509

60012=

48008 32557 50000 10350 20266 40040 83970 333 56450

58009=

48010 32600 30000 10345 20257 40021 83300 333 56900

59003=

48018 32560 31401 10365 20264 40026 82810 333 56330

59005=

48019 32460 33202 10365 20278 40026 82360 333 56450

59000=

48020 32460 10404 10362 20286 81200 333 56400=

48025 32356 60401 10348 20240 40033 84370 333 56450

59003=

48035 32530 33202 10328 20234 40009 82960 333 56190

59005=

48037 32462 43602 10360 20249 40017 84200 333 56300

59017=

48042 32559 50902 10378 20255 40004 85900 333 56400

59012=

48045 31350 70908 10242 20226 70244 87300 333 56100=

48048 31560 61801 10370 20258 40024 71799 85950 333

56490 59012=

48051 32560 43602 10340 20290 70222 83201 333 56909=

48053 32556 63602 10370 20258 40008 84951 333 56899

59011=

48060 22340 70000 10288 20230 40039 84970 333 56560

58034=

48062 32457 52308 10320 20290 40030 83930 333 56690

59004=

48071 32458 82304 10310 20267 40030 8597/ 333 5699/

59004=

48075 21457 61801 10280 20233 40041 72162 85830 333

56290 58004=

48077 32559 70000 10310 20254 40020 85931 333 56499

59001=

48078 32562 62701 10341 20279 40014 84331 333 56889

59016=

48080 21460 70401 10301 20266 40026 75065 85870 333

56390 59004=

48085 31458 73203 10306 20266 40022 70252 85975 333

56299 59011=

48095 NIL=

48108 21495 62303 10260 20242 40032 75055 8632/ 333

5669/ 59003=

48109 NIL=

48110 21494 81303 10275 20253 40049 70255 86377 333

56699 59003=

48112 21496 82709 10240 20240 40076 75165 8677/ 333

5669/ 58020=

48030 32357 80405 10232 20198 85940 333 56180=

48072 32460 80401 10295 20266 70322 86970 333 56990=

48087 21456 72301 10266 20256 75065 8597/ 333 5649/=

48099 21558 40000 10318 20248 40012 70195 84900 333

56900 59009=

48101 32559 61401 10320 20281 70122 84931 333 56999=

48103 32457 40402 10332 20258 40009 83830 333 56110

59007=

48057 32460 51403 10246 20205 83941 333 56299=

48094 32459 60401 10315 20280 40020 84920 333 56290

59014=

48097 32557 61103 10330 20303 40032 85801 333 56909

59018=

48031 32260 31401 10250 20205 83800 333 56400=

48033 21561 70901 10340 20288 40028 75055 86970 333

56990 59014=

48034 32456 50401 10275 20229 85300 333 56500=

48039 32460 20401 10370 20248 82100 333 56400=

48043 32558 50408 10300 20239 85300 333 56300=

48052 22465 83604 10260 20260 85970 333 56990=

48055 21556 60408 10298 20223 40026 72166 86900 333

56300 58012=

48064 22458 70901 10315 20292 40007 83831 333 56449

59001=

48065 21457 60402 10332 20258 83870 333 56990=

48074 32461 70000 10350 20266 40010 84360 333 56110

59020=

48092 32458 71302 10335 20258 49995 85970 333 56990

59063=

48093 21557 72302 10264 20260 72166 85841 333 56399=

48107 32350 82301 10280 20268 40029 8597/ 333 5666/

59009=

48096 32458 70906 10320 20248 40020 84930 333 56990

59018=  





