



*-*-*


<!--
.style2 {
	font-family:"Courier New", Courier, monospace;
	font-size: 14px;
}
-->






SMBM01 VBRR 180035

AAXX 18004

48001 NIL=

48004 NIL=

48008 31550 30000 10130 20113 40134 70144 82430 333 20120 56190 59012=

48010 31210 30000 10138 20138 40134 74244 83600 333 20130 56800 59008=

48018 32930 01401 10130 20121 40131 333 20125 59022=

48019 32940 00000 10120 20120 40124 333 20115 59010=

48020 NIL=

48025 31110 10000 10164 20123 40130 74044 81600 333 20158 56900 59014=

48030 31150 32204 10050 20050 70544 83700 333 20038 56500=

48031 31950 01801 10105 20056 70500 333 20100=

48033 32960 02301 10163 20144 40112 333 20150 58000=

48034 31948 00000 10072 20060 71000 333 20062=

48035 31910 00000 10066 20046 40163 71000 333 20060 59005=

48037 32910 00000 10164 20123 40117 333 20158 59008=

48039 31450 33201 10160 20123 71011 83400 333 20159 56900=

48042 31940 00000 10164 20123 40116 71000 333 20152 59009=

48043 32010 00000 10090 20068 333 20051=

48045 NIL=

48048 32940 00000 10143 20107 40116 333 20136 59015=

48051 31940 03601 10134 20120 71000 333 20130=

48052 32950 00401 10152 20111 333 20140=

48053 31940 00000 10160 20144 40111 70500 333 20156 59016=

48055 31540 10000 10053 20048 40180 71011 81500 333 20048 56500 58005=

48057 31956 01401 10099 20056 71000 333 20080=

48060 31920 00000 10110 20091 40163 74244 333 20095 59006=

48062 31540 20401 10165 20160 40118 71022 82500 333 20140 56900 58000=

48064 32950 01401 10170 20135 40105 333 20131 58001=

48065 32950 10000 10164 20160 80001 333 20152 56009=

48071 31920 00000 10190 20175 40121 74244 333 20180 58000=

48072 NIL=

48074 32450 11405 10180 20129 40130 81400 333 20165 56900 59005=

48075 31956 00000 10100 20100 40190 71022 333 20095 58001=

48077 31956 00000 10190 20159 40109 71000 333 20160 59005=

48078 NIL=

48080 31950 00000 10140 20124 40120 74044 333 20130 59004=

48085 31930 00000 10148 20146 40121 74244 333 20146 58001=

48087 NIL=

48092 31505 10000 10170 20170 40098 74244 81400 333 20160 56900 58002=

48093 32930 10000 10177 20155 80001 333 20174 56009=

48094 32956 00000 10208 20200 40112 333 20170 59002=

48095 NIL=

48097 31556 22701 10200 20185 40116 71022 81401 333 20187 56909 59012=

48099 31340 40901 10180 20147 40113 70244 82831 333 20170 56199 59006=

48101 NIL=

48103 32440 20401 10178 20165 40114 82500 333 20169 56100 59000=

48107 31340 40902 10182 20165 40118 74144 82806 333 20174 56509 58005=

48108 31594 70000 10200 20193 40118 71022 82537 333 20183 56999 59007=

48109 32496 50000 10230 20214 40120 85500 333 20205 56900 58001=

48110 31593 81303 10245 20221 40114 70522 85857 333 20245 56999 59002=

48112 32597 80403 10260 20229 40102 83876 333 20215 56199 59002=  
SMBM01 VBRR 180000

NIL=  





