



*-*-*


<!--
.style2 {
	font-family:"Courier New", Courier, monospace;
	font-size: 14px;
}
-->






SIBM20 VBRR 180300

AAXX 18034

48001 21430 80000 10245 20228 40046 76166 8477/ 333

56339 58008=

48004 32340 60000 10248 20248 86900 333 56500=

48008 21450 80000 10257 20246 40049 75165 8497/ 333

56569 59002=

48010 21430 80000 10268 20250 40054 72055 887// 333

56599 58002=

48018 32560 71401 10290 20248 40043 83872 333 56559

59014=

48019 22458 80000 10283 20268 40041 85770 333 56560

59007=

48020 22357 70402 10270 20256 85440 333 56440=

48025 22320 73601 10271 20271 40049 84740 333 56550

59003=

48035 32560 73201 10261 20229 40040 85970 333 56790

59016=

48037 32559 41801 10316 20248 40037 82131 333 56549

59001=

48042 32559 51803 10317 20236 40046 83802 333 56409

58005=

48045 21410 81402 10206 20195 74544 887// 333 56599=

48048 32560 61801 10315 20236 40046 85950 333 56490

58006=

48051 22559 41302 10306 20270 84900 333 56400=

48053 32456 61803 10300 20239 40056 83556 333 56599

58006=

48060 22340 50000 10255 20224 40056 70122 84830 333

56590 58013=

48062 22457 61304 10290 20270 40035 84970 333 56390

59003=

48071 22458 41802 10295 20253 40038 84900 333 56900

59005=

48075 32457 51401 10270 20226 40050 83830 333 56590

59005=

48077 32559 72301 10288 20248 40037 85931 333 56499

59008=

48078 22556 41801 10294 20256 40063 83501 333 56409

59003=

48080 22460 61304 10302 20253 40045 83236 333 56999

59025=

48085 32458 71405 10296 20248 40041 83876 333 56499

59012=

48095 22458 80902 10285 20268 70322 84970 333 56990=

48108 21495 81401 10250 20233 40092 75155 8537/ 333

5699/ 58018=

48109 32497 72301 10293 20259 40052 85970 333 56990

59008=

48110 21495 81302 10250 20250 40089 75165 8632/ 333

5659/ 58009=

48112 21496 80401 10235 20235 40101 75055 8477/ 333

5619/ 58012=

48030 21256 62203 10192 20190 70144 85940 333 56560=

48072 22460 41304 10300 20267 83830 333 56590=

48087 22456 72302 10290 20259 8437/ 333 5649/=

48099 21330 80000 10255 20255 40072 76165 8597/ 333

5699/ 59002=

48101 21558 72302 10270 20256 70152 84971 333 56999=

48103 22356 71401 10293 20259 40066 85770 333 56330

58003=

48057 22457 62202 10220 20185 84306 333 56409=

48094 22459 72202 10280 20270 40053 70322 85970 333

56590 58003=

48097 21557 83601 10260 20246 40077 75052 8597/ 333

5699/ 59001=

48031 21/05 91801 10225 20205 74744 89/// 333 56999=

48033 32562 42201 10310 20254 40035 83801 333 56509

59005=

48034 21456 80000 10220 20210 70155 8697/ 333 56599=

48039 32460 61401 10309 20225 83152 333 56444=

48043 32556 61802 10250 20219 84830 333 56590=

48052 32458 51301 10300 20244 85900 333 56900=

48055 22557 52305 10267 20221 40047 85800 333 56300

59007=

48064 32460 50401 10300 20253 40025 83831 333 56449

59000=

48065 32456 70403 10302 20253 85370 333 56490=

48074 32458 60402 10280 20250 40069 84860 333 56440

58000=

48092 32457 71305 10275 20245 40039 84371 333 56399

59003=

48093 22556 62301 10294 20259 84370 333 56590=

48107 21350 62301 10268 20240 40076 70165 84970 333

56550 58010=  





