



*-*-*


<!--
.style2 {
	font-family:"Courier New", Courier, monospace;
	font-size: 14px;
}
-->






SIBM20 VBRR 180300

AAXX 18034

48001 31430 30000 10207 20195 40162 70122 83100 333

56500 58003=

48004 32562 20401 10205 20205 82800 333 56900=

48008 32558 13201 10250 20205 40155 81400 333 56800

58001=

48010 22556 13601 10250 20219 40163 81100 333 56900

58001=

48018 22960 00401 10260 20229 40158 333 58002=

48019 32960 02303 10270 20226 40141 333 59005=

48020 32460 12702 10260 20229 81200 333 56900=

48025 31230 53601 10256 20229 40153 70244 84840 333

56550 59003=

48035 31458 10000 10227 20198 40137 70144 81100 333

56900 59011=

48037 32960 00000 10268 20240 40140 333 59003=

48042 32557 20000 10285 20240 40135 82200 333 56900

58002=

48045 32557 32203 10220 20136 83800 333 56500=

48048 32560 10000 10297 20239 40141 81100 333 56900

58004=

48051 NIL=

48053 32556 23601 10290 20248 40138 82500 333 56900

59001=

48060 22350 30000 10250 20205 40139 83100 333 56200

58001=

48062 NIL=

48071 NIL=

48075 31457 30000 10240 20209 40145 70244 83800 333

56500 59014=

48077 NIL=

48078 NIL=

48080 NIL=

48085 NIL=

48095 NIL=

48108 NIL=

48109 NIL=

48110 21595 42302 10290 20259 40137 70544 81106 333

56909 58010=

48112 NIL=

48030 31256 32202 10140 20140 70144 83800 333 56500=

48072 NIL=

48087 NIL=

48099 NIL=

48101 32659 41401 10290 20259 82711 333 56999=

48103 NIL=

48057 22458 31401 10220 20185 83800 333 56400=

48094 NIL=

48097 NIL=

48031 22258 80401 10210 20175 888// 333 56999=

48033 32962 00901 10280 20233 40114 333 59020=

48034 32956 00000 10218 20179 333=

48039 32458 61401 10285 20233 86960 333 56110=

48043 32057 00000 10220 20205 333=

48052 32960 00000 10312 20267 333=

48055 22557 22303 10243 20209 40140 82800 333 56500

59016=

48064 32956 01401 10275 20250 40132 333 58000=

48065 32958 00401 10290 20248 333=

48074 32960 00401 10280 20250 40142 333 59002=

48092 NIL=

48093 NIL=

48107 NIL=

48096 NIL=  
SIBM20 VBRR 180300

AAXX 18034

48001 31430 30000 10207 20195 40162 70122 83100 333

56500 58003=

48004 32562 20401 10205 20205 82800 333 56900=

48008 32558 13201 10250 20205 40155 81400 333 56800

58001=

48010 22556 13601 10250 20219 40163 81100 333 56900

58001=

48018 22960 00401 10260 20229 40158 333 58002=

48019 32960 02303 10270 20226 40141 333 59005=

48020 32460 12702 10260 20229 81200 333 56900=

48025 31230 53601 10256 20229 40153 70244 84840 333

56550 59003=

48035 31458 10000 10227 20198 40137 70144 81100 333

56900 59011=

48037 32960 00000 10268 20240 40140 333 59003=

48042 32557 20000 10285 20240 40135 82200 333 56900

58002=

48045 32557 32203 10220 20136 83800 333 56500=

48048 32560 10000 10297 20239 40141 81100 333 56900

58004=

48051 NIL=

48053 32556 23601 10290 20248 40138 82500 333 56900

59001=

48060 22350 30000 10250 20205 40139 83100 333 56200

58001=

48062 NIL=

48071 NIL=

48075 31457 30000 10240 20209 40145 70244 83800 333

56500 59014=

48077 NIL=

48078 NIL=

48080 NIL=

48085 NIL=

48095 NIL=

48108 NIL=

48109 NIL=

48110 21595 42302 10290 20259 40137 70544 81106 333

56909 58010=

48112 NIL=

48030 31256 32202 10140 20140 70144 83800 333 56500=

48072 NIL=

48087 NIL=

48099 NIL=

48101 32659 41401 10290 20259 82711 333 56999=

48103 NIL=

48057 22458 31401 10220 20185 83800 333 56400=

48094 NIL=

48097 NIL=

48031 22258 80401 10210 20175 888// 333 56999=

48033 32962 00901 10280 20233 40114 333 59020=

48034 32956 00000 10218 20179 333=

48039 32458 61401 10285 20233 86960 333 56110=

48043 32057 00000 10220 20205 333=

48052 32960 00000 10312 20267 333=

48055 22557 22303 10243 20209 40140 82800 333 56500

59016=

48064 32956 01401 10275 20250 40132 333 58000=

48065 32958 00401 10290 20248 333=

48074 32960 00401 10280 20250 40142 333 59002=

48092 NIL=

48093 NIL=

48107 NIL=

48096 NIL=  
SIBM20 VBRR 180300 RRA

AAXX 18034

48001 31430 30000 10207 20195 40162 70122 83100 333

56500 58003=

48004 32562 20401 10205 20205 82800 333 56900=

48008 32558 13201 10250 20205 40155 81400 333 56800

58001=

48010 22556 13601 10250 20219 40163 81100 333 56900

58001=

48018 22960 00401 10260 20229 40158 333 58002=

48019 32960 02303 10270 20226 40141 333 59005=

48020 32460 12702 10260 20229 81200 333 56900=

48025 31230 53601 10256 20229 40153 70244 84840 333

56550 59003=

48035 31458 10000 10227 20198 40137 70144 81100 333

56900 59011=

48037 32960 00000 10268 20240 40140 333 59003=

48042 32557 20000 10285 20240 40135 82200 333 56900

58002=

48045 32557 32203 10220 20136 83800 333 56500=

48048 32560 10000 10297 20239 40141 81100 333 56900

58004=

48051 32959 03603 10276 20250 333=

48053 32556 23601 10290 20248 40138 82500 333 56900

59001=

48060 22350 30000 10250 20205 40139 83100 333 56200

58001=

48062 32456 20402 10280 20250 40139 82200 333 56900

58001=

48071 32458 43201 10293 20259 40138 84900 333 56700

59005=

48075 31457 30000 10240 20209 40145 70244 83800 333

56500 59014=

48077 32559 20000 10294 20248 40134 81201 333 56909

58004=

48078 32557 33201 10288 20259 40144 82501 333 56109

58004=

48080 32460 11302 10300 20253 40134 81100 333 56900

58003=

48085 32458 21401 10292 20259 40138 81806 333 56909

58005=

48095 32458 61802 10290 20274 83840 333 56990=

48108 22596 51402 10300 20253 40139 83806 333 56409

58011=

48109 32497 30000 10315 20265 40146 83800 333 56900

58004=

48110 21595 42302 10290 20259 40137 70544 81106 333

56909 58010=

48030 31256 32202 10140 20140 70144 83800 333 56500=

48072 32460 20000 10295 20253 82300 333 56600=

48087 32960 10000 10302 20253 80001 333 56009=

48099 22550 32302 10265 20246 40135 83800 333 56500

58007=

48101 32659 41401 10290 20259 82711 333 56999=

48103 22456 31403 10297 20239 40138 82530 333 56330

58010=

48057 22458 31401 10220 20185 83800 333 56400=

48094 32459 30402 10310 20270 40139 82540 333 56990

58006=

48097 32557 60702 10290 20248 40148 84840 333 56990

58005=

48031 22258 80401 10210 20175 888// 333 56999=

48033 32962 00901 10280 20233 40114 333 59020=

48034 32956 00000 10218 20179 333=

48039 32458 61401 10285 20233 86960 333 56110=

48043 32057 00000 10220 20205 333=

48052 32960 00000 10312 20267 333=

48055 22557 22303 10243 20209 40140 82800 333 56500

59016=

48064 32956 01401 10275 20250 40132 333 58000=

48065 32958 00401 10290 20248 333=

48074 32960 00401 10280 20250 40142 333 59002=

48092 32458 61402 10300 20253 40124 84830 333 56990

58007=

48093 32558 72301 10296 20253 86840 333 56390=

48107 22350 20901 10296 20239 40124 82900 333 56100

58001=

48096 32457 70903 10290 20259 40140 84840 333 56990

58002=  
SIBM20 VBRR 180300 RRA

AAXX 18034

48001 31430 30000 10207 20195 40162 70122 83100 333

56500 58003=

48004 32562 20401 10205 20205 82800 333 56900=

48008 32558 13201 10250 20205 40155 81400 333 56800

58001=

48010 22556 13601 10250 20219 40163 81100 333 56900

58001=

48018 22960 00401 10260 20229 40158 333 58002=

48019 32960 02303 10270 20226 40141 333 59005=

48020 32460 12702 10260 20229 81200 333 56900=

48025 31230 53601 10256 20229 40153 70244 84840 333

56550 59003=

48035 31458 10000 10227 20198 40137 70144 81100 333

56900 59011=

48037 32960 00000 10268 20240 40140 333 59003=

48042 32557 20000 10285 20240 40135 82200 333 56900

58002=

48045 32557 32203 10220 20136 83800 333 56500=

48048 32560 10000 10297 20239 40141 81100 333 56900

58004=

48051 32959 03603 10276 20250 333=

48053 32556 23601 10290 20248 40138 82500 333 56900

59001=

48060 22350 30000 10250 20205 40139 83100 333 56200

58001=

48062 32456 20402 10280 20250 40139 82200 333 56900

58001=

48071 32458 43201 10293 20259 40138 84900 333 56700

59005=

48075 31457 30000 10240 20209 40145 70244 83800 333

56500 59014=

48077 32559 20000 10294 20248 40134 81201 333 56909

58004=

48078 32557 33201 10288 20259 40144 82501 333 56109

58004=

48080 32460 11302 10300 20253 40134 81100 333 56900

58003=

48085 32458 21401 10292 20259 40138 81806 333 56909

58005=

48095 32458 61802 10290 20274 83840 333 56990=

48108 22596 51402 10300 20253 40139 83806 333 56409

58011=

48109 32497 30000 10315 20265 40146 83800 333 56900

58004=

48110 21595 42302 10290 20259 40137 70544 81106 333

56909 58010=

48030 31256 32202 10140 20140 70144 83800 333 56500=

48072 32460 20000 10295 20253 82300 333 56600=

48087 32960 10000 10302 20253 80001 333 56009=

48099 22550 32302 10265 20246 40135 83800 333 56500

58007=

48101 32659 41401 10290 20259 82711 333 56999=

48103 22456 31403 10297 20239 40138 82530 333 56330

58010=

48057 22458 31401 10220 20185 83800 333 56400=

48094 32459 30402 10310 20270 40139 82540 333 56990

58006=

48097 32557 60702 10290 20248 40148 84840 333 56990

58005=

48031 22258 80401 10210 20175 888// 333 56999=

48033 32962 00901 10280 20233 40114 333 59020=

48034 32956 00000 10218 20179 333=

48039 32458 61401 10285 20233 86960 333 56110=

48043 32057 00000 10220 20205 333=

48052 32960 00000 10312 20267 333=

48055 22557 22303 10243 20209 40140 82800 333 56500

59016=

48064 32956 01401 10275 20250 40132 333 58000=

48065 32958 00401 10290 20248 333=

48074 32960 00401 10280 20250 40142 333 59002=

48092 32458 61402 10300 20253 40124 84830 333 56990

58007=

48093 32558 72301 10296 20253 86840 333 56390=

48107 22350 20901 10296 20239 40124 82900 333 56100

58001=

48096 32457 70903 10290 20259 40140 84840 333 56990

58002=  





