



*-*-*


<!--
.style2 {
	font-family:"Courier New", Courier, monospace;
	font-size: 14px;
}
-->






SIBM20 VBRR 180900

AAXX 18094

48001 32440 30902 10290 20159 40096 83900 333 56500

59030=

48004 32562 20401 10321 20236 82800 333 56900=

48008 32558 11401 10322 20236 40105 81100 333 56800

58008=

48010 32558 40000 10315 20248 40108 82831 333 56556

58011=

48018 32560 11401 10325 20236 40121 81462 333 56569

58013=

48019 32460 30000 10323 20236 40106 82300 333 56500

58010=

48020 32462 13604 10330 20251 81200 333 56400=

48025 32458 33602 10318 20240 40110 84800 333 56900

58008=

48035 32560 62203 10291 20196 40073 84960 333 56490

58007=

48037 32462 23602 10330 20244 40096 82200 333 56600

59000=

48042 32559 93601 10330 20244 40089 81200 333 56900

58004=

48045 32556 72305 10250 20205 87300 333 56500=

48048 32560 40401 10335 20257 40099 84800 333 56600

58005=

48051 32559 23101 10333 20240 82300 333 56900=

48053 32458 53602 10340 20240 40099 83950 333 56890

58006=

48060 32350 41301 10280 20203 40064 84900 333 56800

58021=

48062 32457 42704 10330 20300 40106 82830 333 56990

58006=

48071 32460 13203 10325 20275 40104 81800 333 56600

58004=

48075 32457 63201 10280 20220 40084 84840 333 56590

58010=

48077 32559 40000 10340 20257 40091 83801 333 56909

58002=

48078 32559 43201 10338 20270 40093 83801 333 56809

58005=

48080 32561 22203 10325 20275 40104 82300 333 56300

58017=

48085 32458 43205 10318 20281 40099 82306 333 56309

58003=

48095 32560 62202 10320 20265 83802 333 56909=

48108 32596 73208 10330 20244 40093 84306 333 56809

58008=

48109 NIL=

48110 31595 63603 10320 20273 40089 70522 83356 333

56999 58004=

48112 NIL=

48030 32256 60401 10227 20181 85940 333 56180=

48072 32560 12704 10325 20275 81200 333 56500=

48087 32560 30000 10340 20270 82241 333 56999=

48099 32558 31802 10340 20257 40086 82301 333 56909

58009=

48101 32559 71402 10302 20239 84970 333 56890=

48103 32457 32202 10340 20257 40086 83800 333 56500

58008=

48057 21458 61401 10240 20174 71795 84952 333 56599=

48094 32460 53202 10340 20270 40093 83940 333 56290

58001=

48097 32557 72701 10305 20266 40113 85306 333 56909

58016=

48031 32360 82201 10220 20185 84840 333 56490=

48033 32563 13601 10320 20248 40067 81100 333 56800

59029=

48034 32457 53602 10260 20179 85800 333 56500=

48039 32460 12201 10330 20258 81100 333 56700=

48043 32657 31803 10265 20226 83300 333 56600=

48052 32458 20000 10365 20258 82200 333 56900=

48055 32557 40204 10288 20196 40069 84800 333 56500

58001=

48064 32560 30000 10335 20257 40090 82830 333 56440

59008=

48065 32560 30302 10345 20240 81830 333 56990=

48074 32562 22303 10340 20257 40092 82300 333 56900

58007=

48092 32458 50000 10330 20275 40074 85900 333 56900

58009=

48093 32558 40401 10335 20270 84800 333 56300=

48107 31350 61301 10310 20267 40087 71799 84970 333

56110 58003=

48096 32458 42504 10300 20253 40099 84900 333 56600

58014=  
SIBM20 VBRR 180900 RRA

AAXX 18094

48092 32458 50000 10330 20275 40074 85900 333 56900

58009=  





