



*-*-*


<!--
.style2 {
	font-family:"Courier New", Courier, monospace;
	font-size: 14px;
}
-->






SMBM01 VBRR 181200

AAXX 18124

48001 32456 40000 10313 20267 40032 84900 333 10350

56200 59008 60002=

48004 32560 42201 10330 20275 84900 333 10381 56500

60002=

48008 32457 60000 10332 20275 40031 82973 333 10374

56456 59005 60002=

48010 21540 50000 10295 20266 40036 70195 83731 333

10372 56556 58014 60062=

48018 32557 50000 10334 20258 40032 83830 333 10381

56330 58013 60002=

48019 31458 73204 10343 20240 40028 71799 83962 333

10374 56879 58001 60002=

48020 22350 60000 10290 20290 40067 86700 333 10365

56300 60032=

48025 21340 63202 10292 20259 40035 83341 333 10335

56899 58012 69902=

48035 32558 60000 10289 20230 40040 84960 333 10324

56220 58008 60002=

48037 32457 60000 10314 20254 40021 84810 333 10363

56220 59013 60002=

48042 32558 71301 10325 20253 40021 84950 333 10355

56440 58028 60002=

48045 21320 50403 10228 20214 75254 883// 333 10251

56199 60992=

48048 31550 82201 10283 20250 40038 72999 8697/ 333

10345 5649/ 58029 60002=

48051 NIL=

48053 21450 81802 10270 20256 40053 75055 84956 333

10350 56399 58036 69902=

48060 22320 71801 10240 20209 40086 70155 84970 333

10273 56550 58033 60022=

48062 32456 72305 10300 20280 40030 85970 333 10330

56590 58005 60002=

48071 21356 81303 10265 20265 40036 79599 8692/ 333

10325 5699/ 58010 60112=

48075 21456 81402 10220 20205 40083 72065 8677/ 333

10270 5639/ 58043 60182=

48077 21456 80000 10260 20246 40048 76166 85970 333

10302 56490 58026 60122=

48078 21440 81803 10252 20242 40072 75096 8632/ 333

10300 56499 58038 60142=

48080 21456 80000 10265 20256 40043 75033 86720 333

10338 56390 58005 60062=

48085 22356 81402 10264 20260 40045 86920 333 10296

56390 58018 60102=

48095 NIL=

48108 21493 81401 10240 20240 40112 75065 8537/ 333

10276 5649/ 58069 60332=

48109 21496 82304 10258 20246 40064 75366 8697/ 333

10200 5699/ 58023 60102=

48110 22495 81302 10270 20256 40106 85377 333 10280

56999 58048 69902=

48112 21496 80403 10245 20245 40118 79595 8697/ 333

10300 5619/ 58035 60022=

48030 21250 70404 10206 20195 70155 86940 333 10217

56180 60012=

48072 21456 81301 10270 20256 75055 86970 333 10315

56590 60022=

48087 21450 80000 10256 20256 75055 8597/ 333 10280

5649/ 60002=

48099 21220 81310 10243 20243 40086 76366 8692/ 333

10298 5699/ 58070 60372=

48101 21450 81802 10252 20252 75065 8697/ 333 10283

5649/ 60092=

48103 21330 81404 10248 20248 40091 75066 8672/ 333

10260 5633/ 58067 60992=

48057 21356 81407 10190 20190 70265 8697/ 333 10245

5639/ 60062=

48094 21450 81301 10254 20250 40050 76166 86920 333

10300 56390 58015 60152=

48097 21456 82406 10240 20240 40081 76366 8697/ 333

10290 5659/ 58037 60222 =

48031 32260 51801 10220 20185 83840 333 10245 56490

60002=

48033 32562 70000 10320 20248 40031 85970 333 10376

56450 58010 60002=

48034 21456 71401 10235 20211 70365 87300 333 10295

56100 60042=

48039 32460 70401 10313 20254 85960 333 10358 56440

60002=

48043 32520 80505 10245 20219 8587/ 333 10290 56399

60002=

48052 22450 80000 10260 20260 85970 333 10335 56990

60002=

48055 22256 80000 10215 20210 40080 70366 8697/ 333

10267 5692/ 58048 60162=

48064 21450 80901 10267 20256 40042 79596 84920 333

10315 56330 58049 60002=

48065 21450 80000 10255 20255 76296 8697/ 333 10305

5699/ 60002=

48074 21356 81603 10250 20250 40076 70295 8692/ 333

10323 56499 58063 60262=

48092 21450 82310 10250 20242 40058 70266 8697/ 333

10267 5659/ 58050 60342=

48093 21440 82302 10251 20251 75165 8697/ 333 10261

56999 60362=

48107 21330 81303 10240 20240 40099 76066 8597/ 333

10270 5655/ 58058 60822=

48096 NIL=  





