



*-*-*


<!--
.style2 {
	font-family:"Courier New", Courier, monospace;
	font-size: 14px;
}
-->






SMBM01 VBRR 180000

AAXX 18004

48001 NIL=

48004 NIL=

48008 21450 80000 10270 20256 40074 70355 8497/ 333

20250 56449 58008 69902=

48010 32540 40000 10275 20268 40065 82830 333 20265

56440 58005=

48018 32556 60000 10280 20268 40061 83870 333 20260

56330 58002=

48019 32456 72301 10272 20256 40061 84660 333 20270

56450 58007=

48020 NIL=

48025 21110 73202 10262 20246 40072 71796 85970 333

20262 56490 58003 60042=

48035 32560 50000 10224 20220 40078 84901 333 20215

56609 58009=

48037 32556 63601 10285 20259 40047 82531 333 20287

56229 59000=

48042 22557 40000 10265 20251 40044 82402 333 20245

56409 58000 60082=

48045 NIL=

48048 21550 63201 10250 20233 40050 72996 84950 333

20245 56490 58003 60322=

48051 21558 73604 10253 20240 75055 84971 333 20249

56899 60052=

48053 22450 60000 10270 20256 40054 83556 333 20261

56599 58002 60012=

48060 22340 80000 10232 20214 40090 85870 333 20213

56560 58008 60002=

48062 21456 70403 10263 20260 40038 70396 85970 333

20230 56190 59008 60112=

48071 21456 73601 10263 20246 40040 72992 85970 333

20235 56990 59006 60182=

48075 21456 80000 10225 20217 40087 70265 84750 333

20218 56250 58007 60032=

48077 21556 80000 10260 20246 40042 70296 85970 333

20235 56490 58003 60402=

48078 21450 62701 10268 20256 40051 70355 84731 333

20250 56899 59002 69902=

48080 22456 60401 10251 20233 40038 84830 333 20245

56390 59008 60032=

48085 22457 80000 10250 20250 40037 85370 333 20248

56990 59007=

48095 NIL=

48108 21494 82303 10250 20233 40082 75165 8632/ 333

20230 5699/ 58040 60562=

48109 22496 62301 10265 20256 40048 86900 333 20198

56900 59001 60242=

48110 21494 81304 10240 20240 40097 75065 8632/ 333

20240 5669/ 58042 60692=

48112 21496 81802 10235 20235 40096 70152 8677/ 333

20180 5649/ 58020 60122=

48030 21/05 90402 10183 20183 79596 89/// 333 10177

56999 60172=

48072 NIL=

48087 NIL=

48099 21330 80000 10260 20260 40050 76165 8697/ 333

20250 5699/ 58012 60152=

48101 21550 80000 10255 20255 70265 8597/ 333 20212

5699/ 60332=

48103 21330 81401 10260 20246 40053 76055 8677/ 333

20257 5633/ 58016 60062=

48057 22456 70405 10206 20175 85950 333 20194 56490=

48094 21456 80000 10252 20252 40042 76066 8592/ 333

20194 5639/ 58003 60082=

48097 21456 81302 10255 20248 40063 75096 8672/ 333

20234 5639/ 58010 60122=

48031 NIL=

48033 22560 50000 10273 20256 40052 83501 333 20260

56409 59007 60002=

48034 22456 60000 10217 20205 86900 333 20205 56500

60022=

48039 21456 60000 10270 20256 70366 82550 333 20247

56440 60152=

48043 22030 30502 10205 20195 80032 333 20175 56099

60032=

48052 22450 60000 10250 20250 85920 333 20242 56990=

48055 NIL=

48064 22450 80000 10250 20250 40042 70195 84870 333

20220 56440 58002=

48065 22456 60000 10250 20250 8497/ 333 20216 5699/=

48074 21357 70000 10260 20246 40054 70296 85910 333

20250 56490 58003 60052=

48092 21440 80000 10250 20250 40034 76166 8597/ 333

20245 5699/ 58010 60072=

48093 21440 82301 10253 20252 76166 8697/ 333 20248

5699/ 60712=

48107 21330 82301 10248 20248 40073 76066 8597/ 333

20240 5655/ 58024 60302=

48096 21456 81002 10260 20260 40058 75165 8597/ 333

20240 5699/ 58018 60132=  





