



*-*-*


<!--
.style2 {
	font-family:"Courier New", Courier, monospace;
	font-size: 14px;
}
-->






SIBM20 VBRR 190300

AAXX 19034

48001 21220 83201 10120 20115 40216 75155 8572/ 333

56349 58006=

48004 31562 30401 10148 20111 70144 83800 333 56500=

48008 31456 53601 10166 20154 40194 70196 83970 333

56450 58020=

48010 31030 00000 10140 20124 40199 74044 333 58027=

48018 31530 93601 10155 20154 40189 74244 89/// 333

56999 58021=

48019 21456 80000 10164 20144 40179 75055 85770 333

56560 58018=

48020 32330 80402 10160 40144 88700 333 56400=

48025 31005 80000 10166 20150 40188 74744 886// 333

56999 58021=

48035 31530 53201 10158 20144 40172 70544 84860 333

56590 58009=

48037 22556 50401 10207 20175 40166 85800 333 56600

58002=

48042 31540 21301 10237 20191 40169 71044 82800 333

56500 58009=

48045 32557 62305 10158 20085 86600 333 56600=

48048 31958 10000 10210 20175 40173 71044 81800 333

56900 58011=

48051 31458 80402 10186 20180 75055 86970 333 56790=

48053 22540 31802 10220 20173 40168 70511 82550 333

56590 58011=

48060 21430 80000 10148 20134 40228 74064 8597/ 333

5659/ 58015=

48062 22456 70905 10280 20200 40175 70122 85970 333

56690 58018=

48071 22458 70401 10250 20205 40176 85870 333 56190

58015=

48075 21456 50000 10180 20147 40220 71055 84830 333

56590 58026=

48077 32558 80000 10230 20198 40170 85931 333 56999

58020=

48078 32557 60000 10222 20179 40188 84531 333 56669

58019=

48080 32459 80000 10211 20175 40172 85870 333 56590

58018=

48085 32458 70902 10230 20214 40174 83870 333 56990

58012=

48095 32458 50401 10235 20198 84602 333 56909=

48108 31596 22301 10270 20172 40179 70144 80005 333

56009 58017=

48109 32497 30000 10288 20230 40178 83900 333 56000

58019=

48110 31996 41302 10270 20191 40177 70522 80006 333

56009 58016=

48112 32597 80406 10270 20256 40140 84876 333 56199

59010=

48030 22256 12207 10114 20069 81200 333 56500=

48072 32458 80000 10250 20219 85930 333 56390=

48087 32458 70403 10240 20174 84870 333 56890=

48099 31440 33201 10253 20186 40180 74044 83800 333

56900 58023=

48101 32958 03601 10248 20205 333=

48103 32956 00410 10265 20160 40186 333 58026=

48057 21456 81403 10120 20120 70365 86330 333 56690=

48094 32458 63202 10235 20205 40180 84940 333 56990

58024=

48097 31557 50402 10260 20229 40183 70544 83850 333

56990 58019=

48031 22260 32701 10150 20073 83800 333 56400=

48033 22562 53601 10210 20160 40170 85900 333 56400

59001=

48034 21456 40000 10130 20113 70155 84300 333 56500=

48039 21440 32201 10230 20183 74044 82102 333 56509=

48043 32056 00000 10160 20144 333=

48052 31456 31803 10233 20181 70511 83800 333 56900=

48055 21440 82303 10147 20137 40218 75055 8697/ 333

5659/ 58032=

48064 32958 00401 10215 20185 40154 70122 333 58002=

48065 22456 20000 10225 20192 70122 82800 333 56900=

48074 32458 70403 10220 20185 40184 85850 333 56550

58018=

48092 31510 21301 10230 20222 40161 74044 82500 333

56900 58021=

48093 32557 40401 10256 20215 83840 333 56390=

48107 31950 00902 10263 20271 40171 7//44 333 58030=

48096 31556 41303 10250 20219 40187 70544 81531 333

56999 58022=  





