



*-*-*


<!--
.style2 {
	font-family:"Courier New", Courier, monospace;
	font-size: 14px;
}
-->






SMBM01 VBRR 191200

AAXX 19124

48001 22440 30000 10150 20146 40187 83800 333 10195

56300 58035 69902=

48004 32558 13201 10190 20159 81100 333 10231 56900

60002=

48008 22540 50000 10170 20154 40172 83970 333 10195

56450 58039 60122=

48010 32020 00000 10195 20168 40154 333 10235 58020

60002=

48018 22556 93201 10180 20165 40173 71044 89/// 333

10220 56999 58035 69902=

48019 22430 80401 10173 20170 40163 85760 333 10220

56990 58028 60062=

48020 32930 00000 10210 20175 333 10240 60002=

48025 32310 30000 10213 20160 40160 83800 333 10235

56900 58011 60002=

48035 31510 20000 10190 20159 40142 71011 82800 333

10230 56900 58013 60002=

48037 32910 03201 10232 20181 40125 333 10292 59010

60002=

48042 32550 53201 10267 20191 40126 83850 333 10315

56550 59012 60002=

48045 32557 11406 10160 20028 81100 333 10217 56900

60002=

48048 31550 21801 10267 20191 40125 71044 82800 333

10312 56900 59007 60002=

48051 32558 30000 10243 20210 83800 333 10279 56900=

48053 32450 51801 10270 20172 40123 82556 333 10305

56599 59003 60002=

48060 22420 70000 10166 20135 40178 84970 333 10180

56550 58007 60022=

48062 32456 40000 10240 20230 40146 83830 333 10260

56990 58004=

48071 21440 50000 10220 40205 40155 72165 84830 333

10272 56990 58017 60032=

48075 NIL=

48077 32556 80000 10260 20203 40138 85931 333 10292

56499 58034=

48078 32550 50000 10272 20201 40147 83831 333 10320

56669 58019=

48080 32456 80000 10250 20233 40150 85870 333 10270

56590 58039=

48085 32356 50901 10256 20215 40144 82876 333 10298

56999 58021=

48095 32450 60401 10260 20229 84840 333 10315 56990=

48108 32595 51401 10260 20215 40147 82406 333 10325

56909 58015=

48109 32496 30000 10290 20259 40149 83900 333 10333

56900 58023=

48110 31995 80000 10275 20215 40142 70522 80007 333

10310 56009 58012=

48112 32597 80409 10270 20240 40129 84876 333 10312

56199 58009=

48030 32958 02202 10124 20030 333 10175 60002=

48072 21456 80000 10225 20225 70355 86970 333 10300

56990 60032=

48087 32430 70000 10268 20240 8437/ 333 10340 5679/=

48099 31330 30000 10276 20203 40143 71011 83700 333

10340 56900 58021=

48101 32550 20000 10262 20229 81201 333 10325 56909=

48103 32430 13201 10268 20240 40149 81500 333 10333

56700 58024=

48057 22440 61401 10164 20144 85340 333 10193 56690

60042=

48094 32956 03301 10270 20230 40146 333 10332 58019=

48097 32556 72301 10270 20218 40150 82550 333 10330

56990 58020=

48031 32956 03201 10120 20059 333 10200 60002=

48033 32958 03602 10250 20167 40118 333 10280 59006

60002=

48034 32456 20000 10165 20129 82500 333 10208 56500

60002=

48039 32440 80000 10255 20203 84402 333 10308 56509

60002=

48043 32510 50000 10160 20144 83830 333 10207 56590

60002=

48052 31450 41304 10270 20172 70522 84600 333 10310

56900 60002=

48055 22556 41802 10181 20173 40149 83301 333 10243

56609 58027 60012=

48064 22450 80000 10229 20214 40118 84870 333 10280

56440 58008 60032=

48065 22450 80000 10232 20214 85870 333 10305 56990

60022=

48074 32457 70000 10270 20226 40140 85870 333 10319

56990 58018 60002=

48092 31440 80000 10280 20220 40123 70522 84356 333

10330 56999 58019=

48093 32530 22301 10282 20220 82100 333 10337 56900=

48107 32930 00901 10270 20191 40136 333 10328 58018=

48096 32457 72803 10270 20215 40156 84846 333 10325

56990 58029=  
SMBM01 VBRR 191200 RRA

AAXX 19124

48077 32556 80000 10260 20203 40138 85931 333 10292

56499 58034=  
SMBM01 VBRR 191200

AAXX 19124

48001 22440 30000 10150 20146 40187 83800 333 10195

56300 58035 69902=

48004 32558 13201 10190 20159 81100 333 10231 56900

60002=

48008 22540 50000 10170 20154 40172 83970 333 10195

56450 58039 60122=

48010 32020 00000 10195 20168 40154 333 10235 58020

60002=

48018 22556 93201 10180 20165 40173 71044 89/// 333

10220 56999 58035 69902=

48019 22430 80401 10173 20170 40163 85760 333 10220

56990 58028 60062=

48020 32930 00000 10210 20175 333 10240 60002=

48025 32310 30000 10213 20160 40160 83800 333 10235

56900 58011 60002=

48035 31510 20000 10190 20159 40142 71011 82800 333

10230 56900 58013 60002=

48037 32910 03201 10232 20181 40125 333 10292 59010

60002=

48042 32550 53201 10267 20191 40126 83850 333 10315

56550 59012 60002=

48045 32557 11406 10160 20028 81100 333 10217 56900

60002=

48048 31550 21801 10267 20191 40125 71044 82800 333

10312 56900 59007 60002=

48051 32558 30000 10243 20210 83800 333 10279 56900=

48053 32450 51801 10270 20172 40123 82556 333 10305

56599 59003 60002=

48060 22420 70000 10166 20135 40178 84970 333 10180

56550 58007 60022=

48062 32456 40000 10240 20230 40146 83830 333 10260

56990 58004=

48071 21440 50000 10220 40205 40155 72165 84830 333

10272 56990 58017 60032=

48075 NIL=

48077 32556 80000 10260 20203 40138 85931 333 10292

56499 58034=

48078 32550 50000 10272 20201 40147 83831 333 10320

56669 58019=

48080 32456 80000 10250 20233 40150 85870 333 10270

56590 58039=

48085 32356 50901 10256 20215 40144 82876 333 10298

56999 58021=

48095 32450 60401 10260 20229 84840 333 10315 56990=

48108 32595 51401 10260 20215 40147 82406 333 10325

56909 58015=

48109 32496 30000 10290 20259 40149 83900 333 10333

56900 58023=

48110 31995 80000 10275 20215 40142 70522 80007 333

10310 56009 58012=

48112 32597 80409 10270 20240 40129 84876 333 10312

56199 58009=

48030 32958 02202 10124 20030 333 10175 60002=

48072 21456 80000 10225 20225 70355 86970 333 10300

56990 60032=

48087 32430 70000 10268 20240 8437/ 333 10340 5679/=

48099 31330 30000 10276 20203 40143 71011 83700 333

10340 56900 58021=

48101 32550 20000 10262 20229 81201 333 10325 56909=

48103 32430 13201 10268 20240 40149 81500 333 10333

56700 58024=

48057 22440 61401 10164 20144 85340 333 10193 56690

60042=

48094 32956 03301 10270 20230 40146 333 10332 58019=

48097 32556 72301 10270 20218 40150 82550 333 10330

56990 58020=

48031 32956 03201 10120 20059 333 10200 60002=

48033 32958 03602 10250 20167 40118 333 10280 59006

60002=

48034 32456 20000 10165 20129 82500 333 10208 56500

60002=

48039 32440 80000 10255 20203 84402 333 10308 56509

60002=

48043 32510 50000 10160 20144 83830 333 10207 56590

60002=

48052 31450 41304 10270 20172 70522 84600 333 10310

56900 60002=

48055 22556 41802 10181 20173 40149 83301 333 10243

56609 58027 60012=

48064 22450 80000 10229 20214 40118 84870 333 10280

56440 58008 60032=

48065 22450 80000 10232 20214 85870 333 10305 56990

60022=

48074 32457 70000 10270 20226 40140 85870 333 10319

56990 58018 60002=

48092 31440 80000 10280 20220 40123 70522 84356 333

10330 56999 58019=

48093 32530 22301 10282 20220 82100 333 10337 56900=

48107 32930 00901 10270 20191 40136 333 10328 58018=

48096 32457 72803 10270 20215 40156 84846 333 10325

56990 58029=  





