



*-*-*


<!--
.style2 {
	font-family:"Courier New", Courier, monospace;
	font-size: 14px;
}
-->






SMBM01 VBRR 190600

AAXX 19064

48001 NIL=

48004 32358 83201 10246 20150 8597/ 333 56559=

48008 32557 40402 10252 20126 40148 81431 333 56566 58006=

48010 31558 60000 10255 20203 40132 70344 84830 333 56550 59002=

48018 32558 71401 10275 20154 40143 84870 333 56550 59021=

48019 32960 00402 10257 20160 40139 333 58005=

48020 32457 23604 10260 20203 82400 333 56500=

48025 32440 13202 10280 20146 40143 81500 333 56900 58002=

48030 31256 22205 10197 20072 70544 81806 333 56509=

48031 31260 30401 10210 20072 70500 83800 333 56400=

48033 32963 01801 10300 20124 40116 333 59031=

48034 32458 11802 10250 20068 81500 333 56500=

48035 31550 12702 10251 20105 40115 70500 81100 333 56900 58000=

48037 32960 03602 10298 20149 40121 333 59002=

48039 31956 20902 10297 20149 70511 80002 333 56005=

48042 31956 02201 10310 20146 40129 70500 333 58020=

48043 32657 23205 10150 20068 82200 333 56600=

48045 32560 21405 10238 20066 82300 333 56500=

48048 32962 00401 10305 20146 40135 333 58005=

48051 32959 03601 10304 20170 70200 333=

48052 32970 00401 10315 20140 333=

48053 31950 02202 10320 20140 40136 70500 333 58016=

48055 31956 02306 10261 20102 40106 70500 333 58000=

48057 32456 11402 10228 20048 81500 333 56900=

48060 32440 12701 10233 20074 40141 81100 333 56500 58014=

48062 32956 00904 10275 20220 40145 333 59010=

48064 32970 01401 10308 20203 40120 333 58013=

48065 32970 00401 10320 20116 333=

48071 32960 03202 10262 20215 40143 333 58010=

48072 32960 02702 10290 20196 70122 333=

48074 32960 03201 10305 20146 40138 333 58014=

48075 31957 01401 10280 20100 40124 70511 333 58002=

48077 31958 02302 10328 20126 40119 70500 333 58005=

48078 32957 11801 10325 20121 40137 80001 333 56009 58013=

48080 32961 20405 10303 20223 40122 80006 333 56009 58011=

48085 31957 12706 10280 20220 40135 70500 80006 333 56009 58015=

48087 32960 32301 10322 20140 80041 333 56099=

48092 31557 62203 10320 20163 40116 70522 82406 333 56909 58010=

48093 32958 13201 10314 20189 70111 80001 333 56009=

48094 32460 43202 10310 20170 40136 83901 333 56909 58019=

48095 32458 60401 10290 20179 70222 83670 333 56990=

48096 32957 41408 10320 20163 40141 80002 333 56009 58021=

48097 32557 62301 10330 20138 40141 70222 82806 333 56909 58021=

48099 32456 42701 10330 20172 40130 82840 333 56990 58013=

48101 32960 40000 10298 20166 70322 80005 333 56009=

48103 32556 42201 10328 20191 40135 83530 333 56550 58022=

48107 32350 63201 10342 20145 40120 84970 333 56550 58017=

48108 32596 73203 10315 20231 40134 83867 333 56999 58019=

48109 32597 10401 10304 20223 40140 70122 81500 333 56900 58008=

48110 21596 81802 10320 20248 40130 70255 82357 333 56999 58014=

48112 32597 83601 10315 20231 40131 70222 83876 333 56899 58019=  
SMBM01 VBRR 190600

AAXX 19064

48001 NIL=

48004 32358 83201 10246 20150 8597/ 333 56559=

48008 32557 40402 10252 20126 40148 81431 333 56566

58006=

48010 31558 60000 10255 20203 40132 70344 84830 333

56550 59002=

48018 32558 71401 10275 20154 40143 84870 333 56550

59021=

48019 32960 00402 10257 20160 40139 333 58005=

48020 32457 23604 10260 20203 82400 333 56500=

48025 32440 13202 10280 20146 40143 81500 333 56900

58002=

48035 31550 12702 10251 20105 40115 70500 81100 333

56900 58000=

48037 32960 03602 10298 20149 40121 333 59002=

48042 31956 02201 10310 20146 40129 70500 333 58020=

48045 32560 21405 10238 20066 82300 333 56500=

48048 32962 00401 10305 20146 40135 333 58005=

48051 32959 03601 10304 20170 70200 333=

48053 31950 02202 10320 20140 40136 70500 333 58016=

48060 32440 12701 10233 20074 40141 81100 333 56500

58014=

48062 32956 00904 10275 20220 40145 333 59010=

48071 32960 03202 10262 20215 40143 333 58010=

48075 31957 01401 10280 20100 40124 70511 333 58002=

48077 31958 02302 10328 20126 40119 70500 333 58005=

48078 32957 11801 10325 20121 40137 80001 333 56009

58013=

48080 32961 20405 10303 20223 40122 80006 333 56009

58011=

48085 31957 12706 10280 20220 40135 70500 80006 333

56009 58015=

48095 32458 60401 10290 20179 70222 83670 333 56990=

48108 32596 73203 10315 20231 40134 83867 333 56999

58019=

48109 32597 10401 10304 20223 40140 70122 81500 333

56900 58008=

48110 21596 81802 10320 20248 40130 70255 82357 333

56999 58014=

48112 32597 83601 10315 20231 40131 70222 83876 333

56899 58019=

48030 31256 22205 10197 20072 70544 81806 333 56509=

48072 32960 02702 10290 20196 70122 333=

48087 32960 32301 10322 20140 80041 333 56099=

48099 32456 42701 10330 20172 40130 82840 333 56990

58013=

48101 32960 40000 10298 20166 70322 80005 333 56009=

48103 32556 42201 10328 20191 40135 83530 333 56550

58022=

48057 32456 11402 10228 20048 81500 333 56900=

48094 32460 43202 10310 20170 40136 83901 333 56909

58019=

48097 32557 62301 10330 20138 40141 70222 82806 333

56909 58021=

48031 31260 30401 10210 20072 70500 83800 333 56400=

48033 32963 01801 10300 20124 40116 333 59031=

48034 32458 11802 10250 20068 81500 333 56500=

48039 31956 20902 10297 20149 70511 80002 333 56005=

48043 32657 23205 10150 20068 82200 333 56600=

48052 32970 00401 10315 20140 333=

48055 31956 02306 10261 20102 40106 70500 333 58000=

48064 32970 01401 10308 20203 40120 333 58013=

48065 32970 00401 10320 20116 333=

48074 32960 03201 10305 20146 40138 333 58014=

48092 31557 62203 10320 20163 40116 70522 82406 333

56909 58010=

48093 32958 13201 10314 20189 70111 80001 333 56009=

48107 32350 63201 10342 20145 40120 84970 333 56550

58017=  





