



*-*-*


<!--
.style2 {
	font-family:"Courier New", Courier, monospace;
	font-size: 14px;
}
-->






SMBM01 VBRR 191800

NIL=  
SMBM01 VBRR 191800 RRA

AAXX 19184

48008 31510 70401 10210 20143 40124 71044 84970 333 56560 58016=

48010 22501 20000 10170 20162 40140 80030 333 56050 58021=

48018 32910 00000 10185 20147 40138 333 59001=

48025 32905 00000 10200 20150 40142 333 58018=

48042 32950 00000 10230 20163 40109 333 59002=

48053 32940 02201 10200 20130 40108 333 59008=

48057 32957 01801 10130 20086 333=

48060 32910 00000 10134 20113 40143 333 59006=

48062 31540 20000 10225 20210 40135 71011 82500 333 56900 58005=

48071 31930 00000 10240 20209 40125 71000 333 58005=

48078 NIL=

48080 31440 40000 10185 20165 40135 71011 82870 333 56990 58000=

48094 32950 00000 10220 20210 40128 333 59001=

48097 32956 02301 10220 20179 40133 333 58000=

48099 32930 00000 10226 20198 40122 333 58004=

48103 32510 40000 10242 20191 40119 82530 333 56790 58013=

48108 21594 80901 10250 20233 40135 75055 83577 333 56999 58005=

48109 32495 30000 10243 20209 40123 83500 333 56900 58002=

48110 22593 83603 10260 20229 40133 82357 333 56999 58006=

48112 32597 80402 10280 20220 40110 83876 333 56199 59016=  





