



*-*-*


<!--
.style2 {
	font-family:"Courier New", Courier, monospace;
	font-size: 14px;
}
-->






SIBM20 VBRR 190900

AAXX 19094

48001 NIL=

48004 32358 40401 10239 20155 84900 333 56500=

48008 21556 83401 10270 20133 40115 70355 8497/ 333 56569 58010=

48010 21556 80000 10250 20186 40119 75055 8577/ 333 56569 58025=

48018 32560 33202 10305 20149 40107 82810 333 56560 59001=

48019 32960 00402 10280 20158 40108 333 58004=

48020 NIL=

48025 32456 63202 10310 20146 40104 83840 333 56550 58006=

48030 31256 62203 10162 20085 70544 85850 333 56560=

48031 31256 80403 10160 20085 70522 88/// 333 56999=

48033 32963 02701 10340 20145 40099 333 58008=

48034 32457 22303 10263 20070 82800 333 56500=

48035 31556 21804 10233 20124 40086 70500 82200 333 56900 58011=

48037 32965 01401 10344 20125 40102 333 58017=

48039 32459 21401 10330 20126 82100 333 56500=

48042 32958 02701 10340 20145 40090 333 58007=

48043 32657 23206 10255 20070 82200 333 56600=

48045 32559 51406 10254 20046 85300 333 56500=

48048 32960 02201 10355 20132 40095 333 58003=

48051 NIL=

48052 32970 00401 10350 20143 333=

48053 31550 31801 10340 20125 40089 70511 83500 333 56500 58005=

48055 32556 22305 10290 20092 40063 82800 333 56500 58014=

48057 32456 41403 10250 20046 84800 333 56300=

48060 32440 22202 10293 20031 40083 81130 333 56560 58007=

48062 31950 02709 10285 20240 40104 70500 333 59010=

48064 32970 01401 10350 20237 40071 333 58006=

48065 32970 00000 10350 20143 333=

48071 32960 03203 10282 20220 40118 333 58010=

48072 32560 02705 10295 20207 333=

48074 32960 01403 10345 20125 40097 333 58004=

48075 31558 13201 10300 20100 40081 70511 81100 333 56500 58027=

48077 31958 02301 10360 20075 40093 70500 333 58013=

48078 NIL=

48080 32960 23206 10302 20239 40108 80006 333 56009 58018=

48085 32958 13205 10290 20215 40112 80006 333 56009 58014=

48087 32960 22302 10346 20143 80041 333 56099=

48092 31557 42305 10335 20158 40085 70522 83801 333 56509 58020=

48093 32958 03201 10327 20151 70111 333=

48094 32560 33202 10335 20210 40104 82801 333 56909 58012=

48095 32958 42202 10330 20172 70122 80002 333 56009=

48097 32557 62301 10335 20148 40114 82806 333 56909 58025=

48099 32457 42701 10348 20182 40097 82230 333 56590 58010=

48101 32960 50000 10325 20200 70222 80015 333 56099=

48103 32556 62201 10340 20206 40105 86800 333 56500 58023=

48107 32350 62302 10316 20184 40100 84970 333 56550 58015=

48108 21595 83204 10310 20237 40110 75055 83877 333 56999 58002=

48109 32497 30401 10307 20237 40119 70322 83500 333 56900 58006=

48110 22596 82304 10305 20260 40101 83357 333 56999 58007=

48112 NIL=  
SIBM20 VBRR 190900

AAXX 19094

48001 NIL=

48004 32358 40401 10239 20155 84900 333 56500=

48008 21556 83401 10270 20133 40115 70355 8497/ 333

56569 58010=

48010 21556 80000 10250 20186 40119 75055 8577/ 333

56569 58025=

48018 32560 33202 10305 20149 40107 82810 333 56560

59001=

48019 32960 00402 10280 20158 40108 333 58004=

48020 NIL=

48025 32456 63202 10310 20146 40104 83840 333 56550

58006=

48035 31556 21804 10233 20124 40086 70500 82200 333

56900 58011=

48037 32965 01401 10344 20125 40102 333 58017=

48042 32958 02701 10340 20145 40090 333 58007=

48045 32559 51406 10254 20046 85300 333 56500=

48048 32960 02201 10355 20132 40095 333 58003=

48051 NIL=

48053 31550 31801 10340 20125 40089 70511 83500 333

56500 58005=

48060 32440 22202 10293 20031 40083 81130 333 56560

58007=

48062 31950 02709 10285 20240 40104 70500 333 59010=

48071 32960 03203 10282 20220 40118 333 58010=

48075 31558 13201 10300 20100 40081 70511 81100 333

56500 58027=

48077 31958 02301 10360 20075 40093 70500 333 58013=

48078 NIL=

48080 32960 23206 10302 20239 40108 80006 333 56009

58018=

48085 32958 13205 10290 20215 40112 80006 333 56009

58014=

48095 32958 42202 10330 20172 70122 80002 333 56009=

48108 21595 83204 10310 20237 40110 75055 83877 333

56999 58002=

48109 32497 30401 10307 20237 40119 70322 83500 333

56900 58006=

48110 22596 82304 10305 20260 40101 83357 333 56999

58007=

48112 NIL=

48030 31256 62203 10162 20085 70544 85850 333 56560=

48072 32560 02705 10295 20207 333=

48087 32960 22302 10346 20143 80041 333 56099=

48099 32457 42701 10348 20182 40097 82230 333 56590

58010=

48101 32960 50000 10325 20200 70222 80015 333 56099=

48103 32556 62201 10340 20206 40105 86800 333 56500

58023=

48057 32456 41403 10250 20046 84800 333 56300=

48094 32560 33202 10335 20210 40104 82801 333 56909

58012=

48097 32557 62301 10335 20148 40114 82806 333 56909

58025=

48031 31256 80403 10160 20085 70522 88/// 333 56999=

48033 32963 02701 10340 20145 40099 333 58008=

48034 32457 22303 10263 20070 82800 333 56500=

48039 32459 21401 10330 20126 82100 333 56500=

48043 32657 23206 10255 20070 82200 333 56600=

48052 32970 00401 10350 20143 333=

48055 32556 22305 10290 20092 40063 82800 333 56500

58014=

48064 32970 01401 10350 20237 40071 333 58006=

48065 32970 00000 10350 20143 333=

48074 32960 01403 10345 20125 40097 333 58004=

48092 31557 42305 10335 20158 40085 70522 83801 333

56509 58020=

48093 32958 03201 10327 20151 70111 333=

48107 32350 62302 10316 20184 40100 84970 333 56550

58015=  
SIBM20 VBRR 190900 RRA

AAXX  19094

48020 32456 63202 10310 20146 40104 83840 333 56550

58006=  





