



*-*-*


<!--
.style2 {
	font-family:"Courier New", Courier, monospace;
	font-size: 14px;
}
-->






SMBM01 VBRR 191800

NIL=  
SMBM01 VBRR 191800 RRA

AAXX 19184

48008 31510 20000 10154 20156 71044 81430 333 56560 58022=  

48018 32910 00000 10180 20165 40170 333 58030=

48010 32501 10000 10145 20145 40178 81400 333 56900 58011=

48025 32905 00000 10180 20165 40161 333 58003=

48042 32550 30000 10174 20154 40149 81450 333 56940 58013=

48053 32440 60000 10190 20175 40153 84850 333 56590 58009=

48057 32439 21401 10144 20107 82800 333 56900=

48060 21410 30000 10160 20144 40168 70155 83800 333 56500 58008=

48062 31440 60000 10170 20150 40160 74044 84840 333 56590 58013=

48071 32920 00000 10182 20155 40155 333 58009=

48078 NIL=

48080 32940 00000 10190 20175 40151 333 58006=

48094 32450 60000 10230 20200 40153 84940 333 56990 58010=

48097 32556 72301 10240 20200 40151 84550 333 56900 59006=

48099 31330 60402 10223 20209 40145 71022 84830 333 56900 58003=

48103 32510 50402 10225 20185 40136 83530 333 56110 58004=

48108 31993 31402 10215 20180 40154 71011 80006 333 56009 58006=

48109 32495 70402 10270 20240 40136 70222 85970 333 56990 58015=

48110 31995 30000 10230 20181 40150 70511 80005 333 56009 58000=

48112 32597 80406 10252 20219 40130 83876 333 56199 58000=  





