



*-*-*


<!--
.style2 {
	font-family:"Courier New", Courier, monospace;
	font-size: 14px;
}
-->






SIBM20 VBRR 190300

AAXX 19034

48001 32440 73601 10234 20209 40084 84850 333 56550 59001=

48004 21460 30401 10268 20226 70166 83344 333 56500=

48008 32457 20000 10266 20226 40055 82800 333 56500 59025=

48010 22556 70000 10266 20240 40081 87500 333 56400 58003=

48018 22558 53201 10270 20226 40055 70122 82872 333 56769 59012=

48019 22456 80000 10270 20240 40059 80060 333 56660 59008=

48020 22357 50402 10270 20240 85200 333 56500=

48025 22320 70000 10256 20229 40076 84970 333 56560 58006=

48030 22150 70402 10180 20165 70344 86940 333 56180=

48031 32/57 82201 10220 20185 888// 333 56499=

48033 22560 70000 10260 20246 40064 86930 333 56190 59002=

48034 21456 70402 10225 20191 70155 87300 333 56500=

48035 31210 80000 10222 20220 40058 76266 8597/ 333 56999 59013=

48037 21440 83601 10256 20256 40065 72065 8537/ 333 56669 59000=

48039 21450 80000 10240 20240 75366 887// 333 56599=

48042 21450 81801 10245 20245 40068 76365 8597/ 333 56499 58000=

48043 21540 81805 10205 20205 76166 8672/ 333 56599=

48045 21/06 91401 10190 20190 75465 333=

48048 22558 72201 10275 20250 40068 85950 333 56490 58007=

48051 21558 83601 10257 20250 75155 86970 333 56390=

48052 22450 83202 10280 20268 85970 333 56990=

48053 22450 71802 10270 20240 40071 84956 333 56599 58004=

48055 22356 72305 10248 20219 40042 85930 333 56660 59025=

48057 22457 72203 10218 20173 85350 333 56590=

48060 22440 70000 10270 20226 40052 71022 84370 333 56590 59013=

48062 21356 51304 10255 20250 40048 76566 8697/ 333 5639/ 59025=

48064 32460 80401 10290 20259 40056 85720 333 56440 58001=

48065 22460 81402 10280 20268 8697/ 333 5699/=

48071 21356 81303 10250 20250 40056 76366 8692/ 333 5699/ 59029=

48072 21459 81306 10270 20256 75065 86970 333 56990=

48074 22458 60901 10285 20250 40089 84860 333 56440 59006=

48075 22457 71401 10260 20230 40078 70222 85340 333 56590 59008=

48077 21458 80000 10260 20246 40060 76166 85970 333 56990 59012=

48078 22556 51801 10282 20259 40088 84501 333 56309 59001=

48080 21458 81303 10252 20233 40070 75065 85720 333 56590 59026=

48085 21358 81407 10270 20256 40067 75065 86920 333 56590 59019=

48087 21450 80000 10264 20246 76365 8537/ 333 5649/=

48092 21558 81802 10280 20259 40070 70255 84376 333 56999 59007=

48093 21557 80401 10283 20268 75055 8637/ 333 56399=

48094 21456 82202 10260 20260 40089 76266 8592/ 333 56699 59001=

48095 22450 80000 10280 20268 70222 84970 333 56990=

48096 21457 82703 10270 20256 40094 70260 8697/ 333 5699/ 59003=

48097 21557 82401 10270 20256 40097 70262 8497/ 333 5659/ 58003=

48099 22330 81301 10265 20246 40091 86930 333 56990 59003=

48101 21557 80000 10278 20268 75155 8497/ 333 5659/=

48103 22456 71401 10298 20253 40090 85770 333 56330 59006=

48107 22350 62301 10290 20259 40093 84970 333 56550 59011=

48108 32595 72302 10310 20237 40103 84336 333 56699 59006=

48109 21396 82301 10272 20270 40085 70366 8697/ 333 5699/ 59014=

48110 22596 41302 10310 20267 40105 82306 333 56609 59003=

48112 32597 82202 10300 20266 40106 70322 83876 333 56599 59005=  
SIBM20 VBRR 190300

AAXX 19034

48001 32440 73601 10234 20209 40084 84850 333 56550

59001=

48004 21460 30401 10268 20226 70166 83344 333 56500=

48008 32457 20000 10266 20226 40055 82800 333 56500

59025=

48010 22556 70000 10266 20240 40081 87500 333 56400

58003=

48018 22558 53201 10270 20226 40055 70122 82872 333

56769 59012=

48019 22456 80000 10270 20240 40059 80060 333 56660

59008=

48020 22357 50402 10270 20240 85200 333 56500=

48025 22320 70000 10256 20229 40076 84970 333 56560

58006=

48035 31210 80000 10222 20220 40058 76266 8597/ 333

56999 59013=

48037 21440 83601 10256 20256 40065 72065 8537/ 333

56669 59000=

48042 21450 81801 10245 20245 40068 76365 8597/ 333

56499 58000=

48045 21/06 91401 10190 20190 75465 333=

48048 22558 72201 10275 20250 40068 85950 333 56490

58007=

48051 21558 83601 10257 20250 75155 86970 333 56390=

48053 22450 71802 10270 20240 40071 84956 333 56599

58004=

48060 22440 70000 10270 20226 40052 71022 84370 333

56590 59013=

48062 21356 51304 10255 20250 40048 76566 8697/ 333

5639/ 59025=

48071 21356 81303 10250 20250 40056 76366 8692/ 333

5699/ 59029=

48075 22457 71401 10260 20230 40078 70222 85340 333

56590 59008=

48077 21458 80000 10260 20246 40060 76166 85970 333

56990 59012=

48078 22556 51801 10282 20259 40088 84501 333 56309 59001=

48080 21458 81303 10252 20233 40070 75065 85720 333

56590 59026=

48085 21358 81407 10270 20256 40067 75065 86920 333

56590 59019=

48095 22450 80000 10280 20268 70222 84970 333 56990=

48108 32595 72302 10310 20237 40103 84336 333 56699

59006=

48109 21396 82301 10272 20270 40085 70366 8697/ 333

5699/ 59014=

48110 22596 41302 10310 20267 40105 82306 333 56609

59003=

48112 32597 82202 10300 20266 40106 70322 83876 333

56599 59005=

48030 22150 70402 10180 20165 70344 86940 333 56180=

48072 21459 81306 10270 20256 75065 86970 333 56990=

48087 21450 80000 10264 20246 76365 8537/ 333 5649/=

48099 22330 81301 10265 20246 40091 86930 333 56990

59003=

48101 21557 80000 10278 20268 75155 8497/ 333 5659/=

48103 22456 71401 10298 20253 40090 85770 333 56330

59006=

48057 22457 72203 10218 20173 85350 333 56590=

48094 21456 82202 10260 20260 40089 76266 8592/ 333

56699 59001=

48097 21557 82401 10270 20256 40097 70262 8497/ 333

5659/ 58003=

48031 32/57 82201 10220 20185 888// 333 56499=

48033 22560 70000 10260 20246 40064 86930 333 56190

59002=

48034 21456 70402 10225 20191 70155 87300 333 56500=

48039 21450 80000 10240 20240 75366 887// 333 56599=

48043 21540 81805 10205 20205 76166 8672/ 333 56599=

48052 22450 83202 10280 20268 85970 333 56990=

48055 22356 72305 10248 20219 40042 85930 333 56660

59025=

48064 32460 80401 10290 20259 40056 85720 333 56440

58001=

48065 22460 81402 10280 20268 8697/ 333 5699/=

48074 22458 60901 10285 20250 40089 84860 333 56440

59006=

48092 21558 81802 10280 20259 40070 70255 84376 333

56999 59007=

48093 21557 80401 10283 20268 75055 8637/ 333 56399=

48107 22350 62301 10290 20259 40093 84970 333 56550

59011=  





