



*-*-*


<!--
.style2 {
	font-family:"Courier New", Courier, monospace;
	font-size: 14px;
}
-->






SIBM20 VBRR 190300

AAXX 19034

48001 32440 23201 10220 20185 40144 82800 333 56300

59018=

48004 32560 20401 10241 20209 82800 333 56900=

48008 32556 10000 10240 20224 40146 81100 333 56900

59010=

48010 32057 00000 10285 20219 40149 80000 333 56000

59014=

48018 32560 11401 10265 20229 40148 81400 333 56900

59010=

48019 32960 03201 10265 20215 40139 333 59002=

48020 32458 23602 10270 20233 82800 333 56400=

48025 31008 63602 10266 20240 40145 74244 86600 333

56600 59009=

48035 NIL=

48037 32957 03201 10264 20246 40137 333 59003=

48042 32557 41301 10287 20248 40127 84800 333 56900

59008=

48045 32556 32203 10220 20173 83830 333 56560=

48048 32560 20901 10300 20239 40136 82800 333 56900

59005=

48051 NIL=

48053 NIL=

48060 22330 60000 10220 20195 40131 86800 333 56400

59008=

48062 NIL=

48071 NIL=

48075 NIL=

48077 NIL=

48078 NIL=

48080 NIL=

48085 NIL=

48095 NIL=

48108 NIL=

48109 NIL=

48110 NIL=

48112 NIL=

48030 31/09 92202 10135 20135 74344 89/// 333 56999=

48072 NIL=

48087 NIL=

48099 NIL=

48101 NIL=

48103 NIL=

48057 22458 32301 10222 20173 83800 333 56400=

48094 NIL=

48097 NIL=

48031 32260 31401 10220 20173 83800 333 56400=

48033 32962 00000 10290 20230 40131 333 59017=

48034 32956 00402 10217 20164 333=

48039 32458 23201 10272 20240 82100 333 56100=

48043 32057 00000 10225 20181 333=

48052 32458 30000 10304 20253 83800 333 56900=

48055 NIL=

48064 32956 01401 10275 20250 40123 333 59009=

48065 32958 01401 10295 20248 333=

48074 32559 13202 10270 20240 40149 81100 333 56900

58007=

48092 NIL=

48093 NIL=

48107 NIL=

48096 NIL=  
SIBM20 VBRR 190300 RRA

AAXX 19034

48008 32556 10000 10240 20224 40146 81100 333 56900

59010=

48051 32559 10402 10268 20230 81200 333 56900=

48062 32456 43602 10280 20250 40133 83830 333 56890

59006=

48071 32458 43203 10295 20266 40133 84900 333 56900

59005=

48075 32457 22201 10240 20209 40139 82100 333 56300

59006=

48077 32959 10000 10290 20248 40112 80001 333 56009

59023=

48078 32556 20901 10289 20254 40135 81201 333 56909

59009=

48080 32560 12201 10300 20253 40128 81100 333 56300

59006=

48085 32958 03203 10292 20259 40127 333 59011=

48095 32960 00401 10300 20253 333=

48108 31596 60502 10285 20255 40129 70344 84806 333

56909 59011=

48112 32597 80403 10287 20259 40130 83876 333 56199

59005=

48072 32460 30402 10300 20266 83800 333 56700=

48087 32960 00402 10308 20254 333=

48099 32550 32701 10297 20253 40127 83800 333 56500

59008=

48101 32959 00401 10310 20267 333=

48103 32346 40403 10307 20254 40130 83830 333 56110

59008=

48097 32557 70401 10305 20266 40143 86330 333 56990

59006=

48092 32450 62302 10305 20266 40108 84330 333 56990

59017=

48093 32558 61401 10317 20281 85801 333 56309=

48107 32350 41301 10300 20239 40119 84900 333 56100

59005=

48096 32458 23303 10300 20266 40133 82300 333 56900

59007=  





