



*-*-*


<!--
.style2 {
	font-family:"Courier New", Courier, monospace;
	font-size: 14px;
}
-->






SMBM01 VBRR 190600

AAXX 19064

48001 21450 70000 10253 20233 40118 71555 8577/ 333

56559 58040=

48004 22356 71301 10283 20250 87900 333 56500=

48008 21450 80000 10260 20246 40117 76166 8497/ 333

56439 58050=

48010 21440 80000 10260 20260 40100 76066 887// 333

56399 58029=

48018 21556 80000 10265 20246 40107 72166 8497/ 333

56999 58037=

48019 21456 80000 10235 20230 40115 75366 8577/ 333

56499 58048=

48020 21356 80402 10270 20263 75055 8571/ 333 56399=

48025 21120 80000 10252 20252 40098 75065 8572/ 333

56999 58020=

48035 32560 81803 10267 20211 40091 8597/ 333 56439

58023=

48037 32560 81802 10279 20250 40092 8587/ 333 56449

58045=

48042 32558 82204 10310 20225 40097 8597/ 333 56449

58046=

48045 21005 91404 10202 20202 75264 89/// 333 56999=

48048 21560 71802 10290 20248 40095 72055 85950 333

56490 58035=

48051 21458 81303 10260 20250 76066 86970 333 56390=

48053 32458 71806 10300 20223 40099 84956 333 56499

58050=

48060 21330 80000 10250 20226 40107 75055 8587/ 333

56699 58018=

48062 22356 81310 10270 20260 40077 70222 83970 333

56490 58024=

48071 21356 82304 10245 20245 40089 76366 8692/ 333

5649/ 58033=

48075 21456 71401 10240 20226 40126 70152 85770 333

56590 58049=

48077 32559 82302 10298 20253 40097 85931 333 56499

58045=

48078 21450 81401 10245 20237 40128 75165 8572/ 333

56499 58065=

48080 21458 80410 10261 20246 40106 75165 86720 333

56390 58054=

48085 31357 81406 10302 20253 40095 70252 86970 333

56490 58035=

48095 32458 80402 10285 20268 70222 83840 333 56990=

48108 32496 72302 10307 20254 40121 83356 333 56559

58015=

48109 NIL=

48110 32596 82302 10315 20259 40117 83357 333 56999

58004=

48112 32597 80403 10320 20265 40108 70222 83876 333

56199 58001=

48030 21/05 90401 10180 20180 76364 89/// 333 56999=

48072 21458 81815 10270 20256 75055 8697/ 333 5699/=

48087 32458 70402 10293 20248 70322 84371 333 56499=

48099 32457 72302 10298 20253 40104 85370 333 56590

58039=

48101 22459 81403 10287 20259 70222 8597/ 333 5649/=

48103 32356 71403 10317 20248 40118 86730 333 56330

58028=

48057 21458 81304 10198 20198 70255 8697/ 333 5649/=

48094 32458 71302 10300 20275 40099 70322 85970 333

56390 58038=

48097 21457 81303 10280 20259 40123 70365 8585/ 333

5699/ 58044=

48031 21/03 91401 10180 20180 76264 89/// 333 56999=

48033 22561 71401 10270 20240 40103 86930 333 56490

58054=

48034 21356 82302 10210 20200 75055 8692/ 333 56599=

48039 21460 82201 10299 20239 70255 887// 333 56499=

48043 32556 81808 10240 20209 8587/ 333 56599=

48052 32465 71303 10294 20248 85930 333 56990=

48055 21256 81403 10245 20214 40116 72165 8597/ 333

56399 58030=

48064 32457 80401 10284 20250 40095 84870 333 56330

58048=

48065 22457 71403 10293 20259 70250 85870 333 56390=

48074 32459 80405 10290 20259 40126 8587/ 333 56449

58069=

48092 32456 81305 10275 20253 40099 8697/ 333 5639/

58045=

48093 21556 81401 10262 20246 70266 8634/ 333 56399=

48107 32350 41301 10308 20267 40117 84900 333 56500

58020=

48096 32457 81406 10270 20256 40123 8697/ 333 5649/

58035=  





