



*-*-*


<!--
.style2 {
	font-family:"Courier New", Courier, monospace;
	font-size: 14px;
}
-->






SMBM01 VBRR 201200

AAXX 20124

48001 NIL=

48004 32460 52201 10311 20203 85900 333 10343 56500=

48008 32556 40000 10320 20200 40073 82970 333 10340

56810 59022=

48010 32540 50000 10295 20239 40078 83830 333 10317

56760 59010=

48018 31550 60000 10325 20212 40067 71044 83870 333

10350 56560 59004=

48019 32456 22301 10330 20234 40067 80060 333 10346

56070 59017=

48020 32456 30403 10320 20248 82830 333 10352 56550=

48025 32456 33203 10356 20177 40061 82840 333 10375

56690 59001=

48035 31558 33202 10287 20140 40060 70522 83800 333

10323 56900 59011=

48037 32556 20000 10371 20207 40094 82100 333 10394

56700 59001=

48042 32958 00000 10363 20214 40058 333 10392 58002=

48045 32558 40402 10262 20119 84300 333 10310 56500=

48048 32950 03601 10374 20207 40054 333 10400 58009=

48051 NIL=

48053 32950 03602 10370 20258 40063 333 10385 58013=

48060 32430 12301 10305 20048 40051 81100 333 10345

56500 59005=

48062 32456 22709 10315 20270 40083 82800 333 10342

56900 59005=

48071 32956 02705 10313 20254 40089 333 10347 58000=

48075 32456 22201 10310 20230 40051 82100 333 10350

56500 59015=

48077 32556 50000 10374 20190 40073 84901 333 10412

56909 59012=

48078 32550 31401 10385 20280 40077 333 81201 10410

56909 59007=

48080 32958 02202 10320 20265 40083 333 10367 59007=

48085 32456 43203 10304 20253 40085 84800 333 10346

56700 59009=

48095 32456 12203 10355 20237 81100 333 10400 56900=

48108 32596 63201 10314 20242 40091 82506 333 10375

56909 58001=

48109 32996 00000 10322 20281 40100 333 10348 59002=

48110 32596 53204 10310 20254 40086 82306 333 10345

56909 58000=

48112 32598 60402 10310 20267 40090 82216 333 10362

56199 58007=

48030 32256 22204 10216 20136 82800 333 10235 56500=

48072 32457 13204 10310 20267 81200 333 10358 56900=

48087 NIL=

48099 32450 21807 10320 20215 40077 82300 333 10383

56900 58004=

48101 32956 12701 10325 20265 80001 333 10368 56009=

48103 32450 22201 10312 20237 40077 82200 333 10382

56500 59002=

48057 32457 21801 10260 20119 82800 333 10296 56600=

48094 32956 02902 10315 20235 40082 333 10385 59009=

48097 32556 22304 10340 20248 40076 82500 333 10396

56900 59008=

48031 31260 31801 10230 20143 70544 83800 333 10260

56400=

48033 32562 33301 10350 20219 40066 83800 333 10402

56600 58038=

48034 32456 60402 10258 20160 86800 333 10295 56500=

48039 32460 20401 10350 20219 82400 333 10378 56900=

48043 32930 03205 10270 20226 333 10310=

48052 32450 22202 10402 20196 82200 333 10415 56900=

48055 32556 23203 10311 20136 40034 82800 333 10359

56500 59007=

48064 32950 01401 10365 20235 40038 333 10418 59001=

48065 32950 00000 10390 20177 333 10414=

48074 32456 30000 10380 20203 40057 83300 333 10401

56600 58001=

48092 31456 32306 10370 20190 40041 70522 83800 333

10410 56900 59018=

48093 32550 22301 10340 20240 82800 333 10398 56300=

48107 32940 02302 10308 20237 40086 333 10366 59004=  
SMBM01 VBRR 201200

AAXX 20124
48001 NIL=
48004 32460 52201 10311 20203 85900 333 10343 56500=
48008 32556 40000 10320 20200 40073 82970 333 10340 56810 59022=
48010 32540 50000 10295 20239 40078 83830 333 10317 56760 59010=
48018 31550 60000 10325 20212 40067 71044 83870 333 10350 56560
 59004=
48019 32456 22301 10330 20234 40067 80060 333 10346 56070 59017=
48020 32456 30403 10320 20248 82830 333 10352 56550=
48025 32456 33203 10356 20177 40061 82840 333 10375 56690 59001=
48030 32256 22204 10216 20136 82800 333 10235 56500=
48031 31260 31801 10230 20143 70544 83800 333 10260 56400=
48033 32562 33301 10350 20219 40066 83800 333 10402 56600 58038=
48034 32456 60402 10258 20160 86800 333 10295 56500=
48035 31558 33202 10287 20140 40060 70522 83800 333 10323 56900
 59011=
48037 32556 20000 10371 20207 40094 82100 333 10394 56700 59001=
48039 32460 20401 10350 20219 82400 333 10378 56900=
48042 32958 00000 10363 20214 40058 333 10392 58002=
48043 32930 03205 10270 20226 333 10310=
48045 32558 40402 10262 20119 84300 333 10310 56500=
48048 32950 03601 10374 20207 40054 333 10400 58009=
48051 NIL=
48052 32450 22202 10402 20196 82200 333 10415 56900=
48053 32950 03602 10370 20258 40063 333 10385 58013=
48055 32556 23203 10311 20136 40034 82800 333 10359 56500 59007=
48057 32457 21801 10260 20119 82800 333 10296 56600=
48060 32430 12301 10305 20048 40051 81100 333 10345 56500 59005=
48062 32456 22709 10315 20270 40083 82800 333 10342 56900 59005=
48064 32950 01401 10365 20235 40038 333 10418 59001=
48065 32950 00000 10390 20177 333 10414=
48071 32956 02705 10313 20254 40089 333 10347 58000=
48072 32457 13204 10310 20267 81200 333 10358 56900=
48074 32456 30000 10380 20203 40057 83300 333 10401 56600 58001=
48075 32456 22201 10310 20230 40051 82100 333 10350 56500 59015=
48077 32556 50000 10374 20190 40073 84901 333 10412 56909 59012=
48078 32550 31401 10385 20280 40077 333 81201 10410 56909 59007=
48080 32958 02202 10320 20265 40083 333 10367 59007=
48085 32456 43203 10304 20253 40085 84800 333 10346 56700 59009=
48087 NIL=
48092 31456 32306 10370 20190 40041 70522 83800 333 10410 56900
 59018=
48093 32550 22301 10340 20240 82800 333 10398 56300=
48094 32956 02902 10315 20235 40082 333 10385 59009=
48095 32456 12203 10355 20237 81100 333 10400 56900=
48096 32558 22206 10350 20237 40066 82800 333 10400 56900 59011=
48097 32556 22304 10340 20248 40076 82500 333 10396 56900 59008=
48099 32450 21807 10320 20215 40077 82300 333 10383 56900 58004=
48101 32956 12701 10325 20265 80001 333 10368 56009=
48103 32450 22201 10312 20237 40077 82200 333 10382 56500 59002=
48107 32940 02302 10308 20237 40086 333 10366 59004=
48108 32596 63201 10314 20242 40091 82506 333 10375 56909 58001=
48109 32996 00000 10322 20281 40100 333 10348 59002=
48110 32596 53204 10310 20254 40086 82306 333 10345 56909 58000=
48112 32598 60402 10310 20267 40090 82216 333 10362 56199 58007=  
SMBM01 VBRR 201200

AAXX 20124
48001 NIL=
48004 32460 52201 10311 20203 85900 333 10343 56500=
48008 32556 40000 10320 20200 40073 82970 333 10340 56810 59022=
48010 32540 50000 10295 20239 40078 83830 333 10317 56760 59010=
48018 31550 60000 10325 20212 40067 71044 83870 333 10350 56560
 59004=
48019 32456 22301 10330 20234 40067 80060 333 10346 56070 59017=
48020 32456 30403 10320 20248 82830 333 10352 56550=
48025 32456 33203 10356 20177 40061 82840 333 10375 56690 59001=
48030 32256 22204 10216 20136 82800 333 10235 56500=
48031 31260 31801 10230 20143 70544 83800 333 10260 56400=
48033 32562 33301 10350 20219 40066 83800 333 10402 56600 58038=
48034 32456 60402 10258 20160 86800 333 10295 56500=
48035 31558 33202 10287 20140 40060 70522 83800 333 10323 56900
 59011=
48037 32556 20000 10371 20207 40094 82100 333 10394 56700 59001=
48039 32460 20401 10350 20219 82400 333 10378 56900=
48042 32958 00000 10363 20214 40058 333 10392 58002=
48043 32930 03205 10270 20226 333 10310=
48045 32558 40402 10262 20119 84300 333 10310 56500=
48048 32950 03601 10374 20207 40054 333 10400 58009=
48051 NIL=
48052 32450 22202 10402 20196 82200 333 10415 56900=
48053 32950 03602 10370 20258 40063 333 10385 58013=
48055 32556 23203 10311 20136 40034 82800 333 10359 56500 59007=
48057 32457 21801 10260 20119 82800 333 10296 56600=
48060 32430 12301 10305 20048 40051 81100 333 10345 56500 59005=
48062 32456 22709 10315 20270 40083 82800 333 10342 56900 59005=
48064 32950 01401 10365 20235 40038 333 10418 59001=
48065 32950 00000 10390 20177 333 10414=
48071 32956 02705 10313 20254 40089 333 10347 58000=
48072 32457 13204 10310 20267 81200 333 10358 56900=
48074 32456 30000 10380 20203 40057 83300 333 10401 56600 58001=
48075 32456 22201 10310 20230 40051 82100 333 10350 56500 59015=
48077 32556 50000 10374 20190 40073 84901 333 10412 56909 59012=
48078 32550 31401 10385 20280 40077 333 81201 10410 56909 59007=
48080 32958 02202 10320 20265 40083 333 10367 59007=
48085 32456 43203 10304 20253 40085 84800 333 10346 56700 59009=
48087 NIL=
48092 31456 32306 10370 20190 40041 70522 83800 333 10410 56900
 59018=
48093 32550 22301 10340 20240 82800 333 10398 56300=
48094 32956 02902 10315 20235 40082 333 10385 59009=
48095 32456 12203 10355 20237 81100 333 10400 56900=
48096 32558 22206 10350 20237 40066 82800 333 10400 56900 59011=
48097 32556 22304 10340 20248 40076 82500 333 10396 56900 59008=
48099 32450 21807 10320 20215 40077 82300 333 10383 56900 58004=
48101 32956 12701 10325 20265 80001 333 10368 56009=
48103 32450 22201 10312 20237 40077 82200 333 10382 56500 59002=
48107 32940 02302 10308 20237 40086 333 10366 59004=
48108 32596 63201 10314 20242 40091 82506 333 10375 56909 58001=
48109 32996 00000 10322 20281 40100 333 10348 59002=
48110 32596 53204 10310 20254 40086 82306 333 10345 56909 58000=
48112 32598 60402 10310 20267 40090 82216 333 10362 56199 58007=  





