



*-*-*


<!--
.style2 {
	font-family:"Courier New", Courier, monospace;
	font-size: 14px;
}
-->






SIBM20 VBRR 200300

AAXX 20034

48001 21220 80000 10238 20230 40034 76366 887// 333

56899 59024=

48004 21110 80000 10255 20255 76065 8697/ 333 56559=

48008 32556 80000 10275 20250 40077 8497/ 333 56459

58006=

48010 32450 80000 10282 20268 40071 8677/ 333 56599

58005=

48018 32558 71401 10305 20223 40065 84870 333 56330

59000=

48019 31458 70000 10289 20259 40067 75022 84770 333

56560 58004=

48020 32358 70903 10292 20259 85730 333 56440=

48025 32380 70401 10307 20254 40080 85840 333 56550

59001=

48035 32560 70000 10259 20229 40070 85960 333 56590

59011=

48037 32559 71801 10292 20259 40074 82130 333 56430

58003=

48042 32558 61305 10310 20237 40063 83850 333 56440

59016=

48045 32450 72209 10220 20173 86330 333 56560=

48048 32560 52201 10305 20237 40067 84850 333 56490

59005=

48051 21458 81301 10262 20250 70365 86970 333 56690=

48053 32458 71803 10280 20233 40085 82556 333 56499

59012=

48060 21330 80000 10237 20226 40097 75365 8597/ 333

5659/ 58040=

48062 21350 80903 10265 20260 40087 75066 86920 333

56590 59013=

48071 21458 81303 10255 20255 40096 72162 8692/ 333

5659/ 59009=

48075 32457 60000 10250 20219 40109 84840 333 56590

58004=

48077 32559 72301 10294 20248 40078 85931 333 56499

59017=

48078 22556 61401 10273 20262 40101 84531 333 56699

59011=

48080 22459 81301 10272 20240 40098 85970 333 56690

59013=

48085 22357 82704 10290 20274 40106 86970 333 56790

59006=

48095 22558 81402 10280 20268 85970 333 56990=

48108 22595 82302 10275 20245 40113 84376 333 56699

59006=

48109 32497 72301 10290 20259 40118 84970 333 56990

59015=

48110 21495 83201 10280 20250 40116 70255 85377 333

56699 59003=

48112 21496 83205 10260 20246 40120 75055 8677/ 333

5679/ 59003=

48030 22357 82202 10190 20175 8684/ 333 56569=

48072 21458 80402 10260 20260 76065 86970 333 56990=

48087 22560 82302 10290 20259 8437/ 333 5649/=

48099 22456 61801 10283 20250 40097 84830 333 56440

59017=

48101 22558 70000 10286 20259 70122 84770 333 56990=

48103 22456 82202 10267 20256 40099 86770 333 56550

59016=

48057 32458 82301 10210 20175 86950 333 56590 59002=

48094 32459 60000 10290 20270 40095 84970 333 56590

59022=

48097 22557 82301 10295 20262 40115 8593/ 333 5699/

59013=

48031 22258 80401 10210 20195 888// 333 56499=

48033 32563 61801 10290 20248 40060 84870 333 56590

59023=

48034 32456 72301 10230 20206 86330 333 56590=

48039 32460 61401 10295 20239 84850 333 56550=

48043 32556 81407 10250 20205 85230 333 56590=

48052 32458 41304 10324 20248 84800 333 56900=

48055 32356 81802 10238 20222 40083 8497/ 333 56359

59002=

48064 32458 73201 10295 20253 40060 83831 333 56449

59014=

48065 32556 70301 10308 20254 83871 333 56999=

48074 22357 82301 10260 20260 40099 8672/ 333 56499

59023=

48092 22456 82604 10290 20261 40088 8537/ 333 5669/

59077=

48093 22556 72301 10291 20274 85970 333 56590=

48107 22350 61301 10280 20250 40100 84970 333 56660

59014=  
SIBM20 VBRR 200300

AAXX 20034

48001 21220 80000 10238 20230 40034 76366 887// 333

56899 59024=

48004 21110 80000 10255 20255 76065 8697/ 333 56559=

48008 32556 80000 10275 20250 40077 8497/ 333 56459

58006=

48010 32450 80000 10282 20268 40071 8677/ 333 56599

58005=

48018 32558 71401 10305 20223 40065 84870 333 56330

59000=

48019 31458 70000 10289 20259 40067 75022 84770 333

56560 58004=

48020 32358 70903 10292 20259 85730 333 56440=

48025 32380 70401 10307 20254 40080 85840 333 56550

59001=

48035 32560 70000 10259 20229 40070 85960 333 56590

59011=

48037 32559 71801 10292 20259 40074 82130 333 56430

58003=

48042 32558 61305 10310 20237 40063 83850 333 56440

59016=

48045 32450 72209 10220 20173 86330 333 56560=

48048 32560 52201 10305 20237 40067 84850 333 56490

59005=

48051 21458 81301 10262 20250 70365 86970 333 56690=

48053 32458 71803 10280 20233 40085 82556 333 56499

59012=

48060 21330 80000 10237 20226 40097 75365 8597/ 333

5659/ 58040=

48062 21350 80903 10265 20260 40087 75066 86920 333

56590 59013=

48071 21458 81303 10255 20255 40096 72162 8692/ 333

5659/ 59009=

48075 32457 60000 10250 20219 40109 84840 333 56590

58004=

48077 32559 72301 10294 20248 40078 85931 333 56499

59017=

48078 22556 61401 10273 20262 40101 84531 333 56699

59011=

48080 22459 81301 10272 20240 40098 85970 333 56690

59013=

48085 22357 82704 10290 20274 40106 86970 333 56790

59006=

48095 22558 81402 10280 20268 85970 333 56990=

48108 22595 82302 10275 20245 40113 84376 333 56699

59006=

48109 32497 72301 10290 20259 40118 84970 333 56990

59015=

48110 21495 83201 10280 20250 40116 70255 85377 333

56699 59003=

48112 21496 83205 10260 20246 40120 75055 8677/ 333

5679/ 59003=

48030 22357 82202 10190 20175 8684/ 333 56569=

48072 21458 80402 10260 20260 76065 86970 333 56990=

48087 22560 82302 10290 20259 8437/ 333 5649/=

48099 22456 61801 10283 20250 40097 84830 333 56440

59017=

48101 22558 70000 10286 20259 70122 84770 333 56990=

48103 22456 82202 10267 20256 40099 86770 333 56550

59016=

48057 32458 82301 10210 20175 86950 333 56590 59002=

48094 32459 60000 10290 20270 40095 84970 333 56590

59022=

48097 22557 82301 10295 20262 40115 8593/ 333 5699/

59013=

48031 22258 80401 10210 20195 888// 333 56499=

48033 32563 61801 10290 20248 40060 84870 333 56590

59023=

48034 32456 72301 10230 20206 86330 333 56590=

48039 32460 61401 10295 20239 84850 333 56550=

48043 32556 81407 10250 20205 85230 333 56590=

48052 32458 41304 10324 20248 84800 333 56900=

48055 32356 81802 10238 20222 40083 8497/ 333 56359

59002=

48064 32458 73201 10295 20253 40060 83831 333 56449

59014=

48065 32556 70301 10308 20254 83871 333 56999=

48074 22357 82301 10260 20260 40099 8672/ 333 56499

59023=

48092 22456 82604 10290 20261 40088 8537/ 333 5669/

59077=

48093 22556 72301 10291 20274 85970 333 56590=

48107 22350 61301 10280 20250 40100 84970 333 56660

59014=  





