



*-*-*


<!--
.style2 {
	font-family:"Courier New", Courier, monospace;
	font-size: 14px;
}
-->






SIBM20 VBRR 200900

AAXX 20094

48001 21340 80000 10255 20246 40065 72166 8477/ 333

56449 58027=

48004 22220 80401 10280 20280 8697/ 333 56559=

48008 31556 70000 10290 20259 40042 76066 84970 333

56450 59012=

48010 32557 71801 10315 20281 40044 84830 333 56550

59002=

48018 32557 60000 10323 20257 40035 83870 333 56450

59019=

48019 32460 72302 10345 20257 40033 84760 333 56560

59015=

48020 32460 61304 10340 20288 84830 333 56440=

48025 32456 60401 10334 20258 40042 83870 333 56450

59012=

48035 32560 70000 10296 20223 40033 85960 333 56790

59006=

48037 32560 61401 10353 20237 40029 82130 333 56520

59040=

48042 32559 61803 10349 20240 40029 83850 333 56440

59022=

48045 32450 71804 10280 20220 86340 333 56550=

48048 32560 52201 10370 20246 40030 84850 333 56490

59018=

48051 22558 71301 10290 20270 70122 86930 333 56490=

48053 32458 61803 10340 20270 40048 83956 333 56499

59018=

48060 21340 80000 10230 20226 40057 76165 8597/ 333

5659/ 58028=

48062 21350 80901 10270 20270 40062 75055 86970 333

56690 59018=

48071 21458 82703 10254 20254 40071 75065 8692/ 333

5659/ 59017=

48075 32457 70000 10310 20225 40049 85360 333 56590

59022=

48077 32559 72301 10330 20244 40042 85931 333 56499

59037=

48078 32558 41801 10314 20274 40055 83801 333 56699

59040=

48080 21459 72204 10300 20266 40075 70165 85870 333

56690 59022=

48085 21458 63205 10292 20259 40068 75065 83336 333

56999 59021=

48095 21458 82202 10250 20250 76166 84970 333 56990=

48108 21494 82303 10270 20256 40089 72055 85377 333

56899 59019=

48109 NIL=

48110 21495 83204 10265 20242 40095 75165 86377 333

56999 59006=

48112 22597 83207 10300 20239 40101 70222 83876 333

56799 59003=

48030 NIL=

48072 21458 80402 10250 20219 76065 8697/ 333 5699/=

48087 32560 60000 10328 20275 83371 333 56999=

48099 22450 82301 10305 20253 40062 8697/ 333 5659/

59034=

48101 21457 80000 10270 20256 76165 8597/ 333 5699/=

48103 21350 82202 10267 20256 40067 75355 85870 333

56550 59029=

48057 31458 82301 10243 20209 71799 85951 333 56599=

48094 32458 72702 10295 20265 40070 85970 333 56990

59022=

48097 21457 71301 10275 20269 40088 72065 86830 333

56990 59011=

48031 NIL=

48033 32563 61801 10330 20258 40034 84800 333 56400

59019=

48034 31456 71801 10270 20218 70399 87300 333 56500=

48039 32460 71401 10330 20244 83852 333 56444=

48043 32558 81805 10270 20226 85430 333 56590=

48052 32468 42201 10385 20253 84800 333 56900=

48055 31356 70404 10272 20226 40037 71799 84931 333

56399 59009=

48064 32960 23201 10365 20264 40025 80031 333 56099

59002=

48065 32558 62202 10360 20278 85301 333 56909=

48074 32459 71402 10320 20265 40064 83372 333 56449

59020=

48092 32457 62705 10320 20256 40051 85330 333 56690

59021=

48093 21456 82301 10263 20260 76066 8697/ 333 56599=

48107 21350 62301 10270 20256 40075 70166 84970 333

56770 59022=  





