



*-*-*


<!--
.style2 {
	font-family:"Courier New", Courier, monospace;
	font-size: 14px;
}
-->






SMBM01 VBRR 200600

AAXX 20064

48001 NIL=

48004 32563 10401 10199 20130 81800 333 56900=

48008 32557 53602 10195 20130 40195 83970 333 56550

59001=

48010 32560 11801 10215 20156 40182 81100 333 56500

58009=

48018 32560 20402 10215 20143 40183 82800 333 56900

59001=

48019 32460 30403 10200 20130 40174 83800 333 56600

59005=

48020 32958 00402 10195 20159 333 56000=

48025 31430 33601 10190 20159 40198 70144 83400 333

56600 58011=

48035 31558 60000 10204 20150 40152 70522 85860 333

56590 58004=

48037 32958 03601 10237 20136 40166 333 58009=

48042 31540 22201 10234 20163 40174 70544 82100 333

56600 58021=

48045 32560 21805 10165 20097 82800 333 56500=

48048 32960 00401 10250 20167 40175 333 58021=

48051 32558 40401 10238 20170 84800 333 56900=

48053 31950 03602 10260 20160 40178 70544 333 58024=

48060 32440 63201 10194 20139 40187 84830 333 56550

59031=

48062 32458 40402 10250 20210 40175 84800 333 56900

58008=

48071 32458 20403 10250 20212 40174 82800 333 56100

58007=

48075 32558 51402 10250 20167 40157 85800 333 56300

59011=

48077 32959 00000 10280 20158 40165 333 58008=

48078 32959 13201 10283 20190 40168 80001 333 56009

58006=

48080 32560 00402 10290 20230 40156 333 59004=

48085 32958 03202 10296 20196 40155 333 59006=

48095 32460 10402 10290 20219 81200 333 56900=

48108 32596 60506 10310 20189 40156 83806 333 56109

59015=

48109 NIL=

48110 31596 83204 10305 20205 40151 70522 81107 333

56909 59009=

48112 32597 80408 10305 20274 40141 83876 333 56199

58007=

48030 32960 02202 10172 29011 333 56000=

48072 NIL=

48087 32960 00407 10287 20179 333=

48099 31450 32301 10304 20185 40153 70511 83800 333

56900 59009=

48101 32960 00401 10305 20207 333=

48103 32456 21403 10317 20163 40150 82800 333 56300

59002=

48057 32457 42203 10212 20091 83801 333 56409=

48094 32960 03202 10305 20195 40164 333 58000=

48097 32557 61301 10305 20216 40162 86800 333 56900

58000=

48031 32259 22201 10200 20033 82800 333 56400=

48033 32563 63601 10210 20160 40170 70122 86900 333

56900 58018=

48034 32457 52301 10200 20130 85300 333 56500=

48039 32456 31401 10235 20226 83100 333 56500=

48043 32557 31806 10210 20143 83200 333 56500=

48052 32458 23602 10268 20172 70111 82800 333 56900=

48055 32556 20402 10212 20160 40158 82400 333 56500

59013=

48064 32960 00401 10238 20174 40152 70211 333 58012=

48065 32956 00000 10260 20169 70222 333 56000=

48074 32959 03602 10260 20160 40168 333 58003=

48092 31458 40000 10300 20207 40141 70522 84800 333

56900 59018=

48093 32658 51401 10315 20215 84801 333 56309=

48107 32350 20401 10302 20185 40133 82900 333 56300

59018=

48096 32458 43405 10300 20207 40161 84900 333 56900

59005=  





