



*-*-*


<!--
.style2 {
	font-family:"Courier New", Courier, monospace;
	font-size: 14px;
}
-->






SIBM20 VBRR 200300

AAXX 20034

48001 31905 90000 10093 20090 40214 74744 333 58034=

48004 31458 13201 10148 20134 71044 81500 333 56900=

48008 32557 41301 10160 20144 40201 82430 333 56330

58015=

48010 31020 00000 10130 20130 40201 74044 333 58006=

48018 31558 11401 10150 20134 40189 70344 81100 333

56900 58010=

48019 32458 20000 10150 20134 40185 82800 333 56400

58017=

48020 31920 93603 10150 20134 74544 333=

48025 31005 83201 10160 20160 40200 74744 886// 333

56699 58006=

48035 31/01 90000 10131 20130 40201 74744 333 58027=

48037 32958 00000 10185 20159 40128 333 59043=

48042 32558 20000 10188 20175 40182 82400 333 56400

58017=

48045 32559 51802 10110 20069 82808 333 56309=

48048 32560 30401 10190 20175 40186 83800 333 56900

58021=

48051 31930 33601 10154 20140 74144 89/// 333 56///=

48053 31430 43601 10200 20168 40174 83850 333 56790

58014=

48060 22420 80000 10160 20150 40200 8587/ 333 5659/

58012=

48062 31450 60402 10170 20150 40171 71044 84860 333

56590 58004=

48071 32958 00502 10220 20173 40175 333 58007=

48075 31458 50000 10180 20180 40204 70144 85800 333

56500 58027=

48077 32559 60401 10230 20163 40169 85930 333 56990

58016=

48078 21550 51801 10222 20185 40176 70355 83531 333

56599 58000=

48080 32459 30401 10193 20159 40177 82206 333 56409

58012=

48085 32458 22701 10216 20195 40166 82800 333 56700

58008=

48095 32458 60000 10230 20198 70322 83840 333 56990=

48108 31996 30901 10235 20168 40168 70144 80006 333

56009 58001=

48109 32497 70404 10265 20240 40160 70222 85970 333

56990 58013=

48110 31996 21301 10270 20172 40165 70511 80005 333

56009 58005=

48112 32598 60407 10260 20215 40154 82216 333 56199

58000=

48030 32150 72202 10082 20055 86850 333 56560=

48072 32458 13603 10225 20181 70222 81200 333 56900=

48087 32556 70000 10222 20185 83841 333 56999=

48099 31440 40402 10248 20186 40174 70511 84800 333

56100 58004=

48101 32758 30000 10247 20205 70111 80035 333 56099=

48103 32458 20402 10236 20191 40170 82500 333 56100

58001=

48057 32450 31401 10144 20124 83800 333 56400=

48094 32459 10402 10240 20190 40169 70111 81500 333

56900 58012=

48097 31557 51401 10250 20205 40175 70544 85500 333

56900 58003=

48031 31/03 91801 10105 20105 74744 333=

48033 32962 03601 10190 20159 40171 333 58020=

48034 31948 02302 10118 20081 71000 333=

48039 31440 20000 10199 20168 74044 81480 333 56770=

48043 32540 31802 10130 20130 82230 333 56590=

48052 32458 40403 10204 20168 82841 333 56909=

48055 31456 42301 10145 20119 40190 70544 83830 333

56560 58000=

48064 32960 02701 10195 20168 40174 333 58019=

48065 32565 11401 10195 20168 81100 333 56900=

48074 22557 23203 10210 20175 40175 82800 333 56200

59007=

48092 31430 20401 10245 20207 40157 71022 82100 333

56900 58007=

48093 32958 02301 10257 20203 70111 333=

48107 32950 03201 10244 20136 40157 7//44 333 58006=  
SIBM20 VBRR 200300

AAXX 20034

48001 31905 90000 10093 20090 40214 74744 333 58034=

48004 31458 13201 10148 20134 71044 81500 333 56900=

48008 32557 41301 10160 20144 40201 82430 333 56330 58015=

48010 31020 00000 10130 20130 40201 74044 333 58006=

48018 31558 11401 10150 20134 40189 70344 81100 333 56900 58010=

48019 32458 20000 10150 20134 40185 82800 333 56400 58017=

48020 31920 93603 10150 20134 74544 333=

48025 31005 83201 10160 20160 40200 74744 886// 333 56699 58006=

48030 32150 72202 10082 20055 86850 333 56560=

48031 31/03 91801 10105 20105 74744 333=

48033 32962 03601 10190 20159 40171 333 58020=

48034 31948 02302 10118 20081 71000 333=

48035 31/01 90000 10131 20130 40201 74744 333 58027=

48037 32958 00000 10185 20159 40128 333 59043=

48039 31440 20000 10199 20168 74044 81480 333 56770=

48042 32558 20000 10188 20175 40182 82400 333 56400 58017=

48043 32540 31802 10130 20130 82230 333 56590=

48045 32559 51802 10110 20069 82808 333 56309=

48048 32560 30401 10190 20175 40186 83800 333 56900 58021=

48051 31930 33601 10154 20140 74144 89/// 333 56///=

48052 32458 40403 10204 20168 82841 333 56909=

48053 31430 43601 10200 20168 40174 83850 333 56790 58014=

48055 31456 42301 10145 20119 40190 70544 83830 333 56560 58000=

48057 32450 31401 10144 20124 83800 333 56400=

48060 22420 80000 10160 20150 40200 8587/ 333 5659/ 58012=

48062 31450 60402 10170 20150 40171 71044 84860 333 56590 58004=

48064 32960 02701 10195 20168 40174 333 58019=

48065 32565 11401 10195 20168 81100 333 56900=

48071 32958 00502 10220 20173 40175 333 58007=

48072 32458 13603 10225 20181 70222 81200 333 56900=

48074 22557 23203 10210 20175 40175 82800 333 56200 59007=

48075 31458 50000 10180 20180 40204 70144 85800 333 56500 58027=

48077 32559 60401 10230 20163 40169 85930 333 56990 58016=

48078 21550 51801 10222 20185 40176 70355 83531 333 56599 58000=

48080 32459 30401 10193 20159 40177 82206 333 56409 58012=

48085 32458 22701 10216 20195 40166 82800 333 56700 58008=

48087 32556 70000 10222 20185 83841 333 56999=

48092 31430 20401 10245 20207 40157 71022 82100 333 56900 58007=

48093 32958 02301 10257 20203 70111 333=

48094 32459 10402 10240 20190 40169 70111 81500 333 56900 58012=

48095 32458 60000 10230 20198 70322 83840 333 56990=

48097 31557 51401 10250 20205 40175 70544 85500 333 56900 58003=

48099 31440 40402 10248 20186 40174 70511 84800 333 56100 58004=

48101 32758 30000 10247 20205 70111 80035 333 56099=

48103 32458 20402 10236 20191 40170 82500 333 56100 58001=

48107 32950 03201 10244 20136 40157 7//44 333 58006=

48108 31996 30901 10235 20168 40168 70144 80006 333 56009 58001=

48109 32497 70404 10265 20240 40160 70222 85970 333 56990 58013=

48110 31996 21301 10270 20172 40165 70511 80005 333 56009 58005=

48112 32598 60407 10260 20215 40154 82216 333 56199 58000=  





