



*-*-*


<!--
.style2 {
	font-family:"Courier New", Courier, monospace;
	font-size: 14px;
}
-->






SIBM20 VBRR 200900

AAXX 20094

48001 32550 60401 10305 20254 40003 84820 333 56540

59012=

48004 21220 80401 10265 20265 70265 8697/ 333 56559=

48008 32457 62301 10307 20267 40015 83970 333 56450

59017=

48010 21558 60000 10265 20253 40023 70166 83831 333

56445 58009=

48018 32560 60000 10312 20254 40020 83870 333 56550

58008=

48019 32460 30401 10308 20267 40009 82260 333 56760

59014=

48020 32360 60403 10305 20260 84330 333 56440=

48025 21356 73601 10290 20259 40009 70255 84770 333

56550 59000=

48035 32560 80000 10287 20230 49986 8597/ 333 56549

59010=

48037 32560 61801 10340 20257 49989 84320 333 56440

59006=

48042 32559 61802 10340 20240 49999 84906 333 56409

58004=

48045 21903 91403 10228 20214 74564 89/// 333 56999=

48048 21558 71802 10350 20237 49999 75055 86950 333

56490 58001=

48051 32559 70401 10298 20250 86930 333 56590=

48053 32456 71803 10330 20203 40008 84956 333 56499

59001=

48060 32340 63201 10306 20225 49994 84930 333 56560

58006=

48062 21456 82308 10290 20270 40015 72055 86970 333

56590 59010=

48071 22458 82303 10275 20268 40023 8692/ 333 5659/

58001=

48075 32457 71401 10270 20226 40016 85870 333 56590

59019=

48077 32559 80000 10310 20267 40021 85970 333 56490

59008=

48078 32558 61801 10298 20260 40036 84831 333 56499

58002=

48080 21459 82205 10282 20268 40031 70355 85870 333

56590 58006=

48085 21457 82201 10275 20268 40029 75065 86970 333

56490 59002=

48095 21458 80000 10280 20280 75155 85970 333 56690=

48108 21495 82305 10280 20250 40064 70255 8537/ 333

5649/ 58003=

48109 21496 82307 10280 20250 40038 70266 8697/ 333

5699/ 59009=

48110 21495 82305 10250 20250 40075 76266 8632/ 333

5699/ 59007=

48112 21597 82205 10250 20233 40082 75055 84876 333

56599 58008=

48030 21250 70402 10226 20198 70155 85920 333 56180=

48072 21458 81804 10270 20256 75055 8697/ 333 5699/=

48087 32560 62301 10300 20253 83371 333 56499=

48099 22457 61302 10295 20253 40040 84930 333 56390

59001=

48101 21457 80000 10272 20256 76165 8597/ 333 5659/=

48103 32456 32204 10311 20254 40040 83800 333 56500

58004=

48057 32458 62202 10242 20191 84950 333 56590=

48094 32459 82203 10307 20270 40026 84970 333 56590

59016=

48097 21557 82301 10240 20240 40056 76166 8697/ 333

5699/ 58018=

48031 31258 81801 10235 20209 70144 888// 333 56499=

48033 32563 41801 10330 20258 49995 84800 333 56400

59012=

48034 32457 62302 10260 20215 86300 333 56500=

48039 21460 71401 10319 20248 70355 85960 333 56770=

48043 32556 81808 10255 20215 8587/ 333 56599=

48052 32468 51301 10378 20240 85900 333 56900=

48055 32556 62305 10300 20228 49983 84330 333 56550

59020=

48064 32560 33201 10326 20275 49987 82101 333 56409

58001=

48065 22560 41401 10320 20265 82101 333 56909=

48074 32460 42301 10320 20265 40035 83960 333 56440

59001=

48092 21457 82306 10270 20240 40021 75055 8597/ 333

5669/ 59004=

48093 21456 82301 10280 20268 75065 8697/ 333 56999=

48107 32350 62702 10298 20253 40053 84970 333 56550

58004=  





