



*-*-*


<!--
.style2 {
	font-family:"Courier New", Courier, monospace;
	font-size: 14px;
}
-->






SIBM20 VBRR 200900

AAXX 20094

48001 NIL=

48004 31558 22201 10341 20145 70511 82800 333 56900=

48008 31557 20401 10348 20158 40086 70544 81430 333 56560 58001=

48010 32460 00000 10350 20182 40085 333 58011=

48018 32960 01402 10365 20156 40096 333 58011=

48019 31958 03601 10337 20206 40087 70500 333 58009=

48020 NIL=

48025 31440 23601 10370 20125 40082 70544 82500 333 56900 59003=

48030 31250 03203 10272 29015 70544 333=

48031 31960 00401 10265 29018 70500 333=

48033 32963 03602 10380 20285 40077 333 59010=

48034 31457 20402 10290 20092 70511 82500 333 56500=

48035 31530 23603 10331 20076 40044 70400 82800 333 56900 58000=

48037 31656 13201 10385 20159 40071 70544 80006 333 56009 59007=

48039 31950 40401 10368 20171 70522 80002 333 56005=

48042 31556 40402 10378 20150 40063 70511 82902 333 56909 59005=

48043 32059 03205 10305 20189 333=

48045 32958 50905 10285 20060 80006 333 56009=

48048 32560 60401 10375 20159 40080 85950 333 56490 58012=

48051 31959 00402 10376 20110 70500 333=

48052 32470 40402 10386 20154 83801 333 56909=

48053 31550 43602 10370 20227 40074 70511 83506 333 56509 58011=

48055 31556 33204 10353 20158 40011 70511 83800 333 56600 59018=

48057 32958 21402 10298 20124 80006 333 56009=

48060 31930 00000 10350 20158 40052 70544 333 58018=

48062 32557 43209 10330 20230 40099 83830 333 56690 58006=

48064 32970 11401 10398 20214 40064 80001 333 56009 58012=

48065 32970 00000 10393 20131 333=

48071 32460 13205 10320 20215 40096 81200 333 56900 58000=

48072 32960 02706 10340 20257 333=

48074 31960 03605 10400 20176 40067 333 59002=

48075 31457 11401 10360 20075 40042 70511 81100 333 56500 59019=

48077 32559 20401 10408 20210 40061 82200 333 56900 59004=

48078 32960 11801 10398 20217 40068 80001 333 56009 59005=

48080 31459 13206 10362 20235 40078 70511 81200 333 56900 58003=

48085 32958 13205 10334 20244 40088 80006 333 56009 59003=

48087 NIL=

48092 31957 02201 10400 20230 40036 70500 333 59018=

48093 32958 03201 10384 20255 333=

48094 32960 03202 10380 20190 40081 333 58002=

48095 32960 00401 10375 20246 333=

48097 32557 40501 10385 20261 40088 84800 333 56900 58010=

48099 32456 63203 10380 20240 40064 84830 333 56590 59006=

48101 32961 03602 10372 20207 333=

48103 32956 03202 10361 20264 40070 333 59018=

48107 32950 02302 10340 20257 40074 333 59013=

48108 32596 83203 10350 20240 40080 84366 333 56699 58000=

48109 32997 00401 10320 20265 40103 333 58002=

48110 31596 83203 10350 20250 40085 70522 82307 333 56909 59002=

48112 NIL=  





