



*-*-*


<!--
.style2 {
	font-family:"Courier New", Courier, monospace;
	font-size: 14px;
}
-->






SMBM01 VBRR 200600

AAXX 20064

48001 32440 30401 10308 20225 40033 83100 333 56500 59011=

48004 32562 41301 10360 20249 84900 333 56500=

48008 32557 40000 10320 20236 40037 82870 333 56450 59011=

48010 32560 40000 10350 20240 40032 84800 333 56500 59023=

48018 32560 40402 10330 20258 40037 82842 333 56129 59026=

48019 32460 32301 10320 20236 40035 81260 333 56440 59015=

48020 32358 40402 10350 20266 84800 333 56500=

48025 32440 60401 10348 20240 40040 84841 333 56559 59021=

48030 32356 60404 10250 20167 85940 333 56180=

48031 32258 51401 10250 20167 84802 333 56409=

48033 32563 63201 10320 20248 40027 86900 333 56700 59007=

48034 32456 60403 10254 20186 86300 333 56500=

48035 31559 82203 10258 20229 40026 75066 8597/ 333 56599 59018=

48037 32560 51801 10311 20254 40027 83202 333 56809 59025=

48039 32460 53201 10301 20253 83801 333 56303=

48042 32458 71801 10295 20262 40035 84950 333 56440 59019=

48043 32540 80502 10235 20209 8587/ 333 56199=

48045 31558 60406 10244 20191 74144 86300 333 56600=

48048 32560 50901 10325 20248 40042 84850 333 56490 59017=

48051 32559 33601 10346 20240 70111 83200 333 56900=

48052 32465 63601 10305 20254 85920 333 56990=

48053 32450 72202 10280 20250 40041 86950 333 56590 59017=

48055 21456 81802 10233 20214 40043 70265 8697/ 333 56499 58001=

48057 21339 81401 10210 20210 75355 8637/ 333 56499=

48060 21440 60000 10287 20230 40027 70255 83970 333 56560 59009=

48062 32558 61802 10320 20290 40043 70322 84930 333 56690 59007=

48064 32470 71401 10310 20267 40026 85831 333 56449 59012=

48065 32570 40000 10325 20265 82831 333 56499=

48071 32460 33203 10290 20259 40053 83900 333 56900 58007=

48072 32460 60902 10310 20247 70222 84830 333 56590=

48074 21458 70902 10285 20268 40084 75055 84960 333 56440 59020=

48075 21457 71401 10250 20250 40065 75065 85770 333 56590 58005=

48077 32559 80000 10320 20248 40042 85931 333 56999 59007=

48078 21556 51401 10300 20260 40062 70155 84301 333 56409 59015=

48080 32460 61305 10311 20267 40061 84870 333 56490 58026=

48085 22458 72702 10300 20266 40059 85976 333 56699 59001=

48087 32456 72302 10310 20254 70322 84371 333 56699=

48092 32458 82310 10330 20251 40051 70322 88300 333 56900 59014=

48093 21557 82301 10312 20267 70255 8637/ 333 56399=

48094 22458 72201 10267 20265 40073 84970 333 56690 58000=

48095 32458 82203 10270 20256 70311 85970 333 56990=

48096 21456 81907 10290 20243 40074 75022 8597/ 333 5699/ 59005=

48097 32557 72304 10280 20250 40080 87800 333 56300 59010=

48099 21230 81302 10255 20255 40082 75155 8697/ 333 5639/ 58001=

48101 21457 82301 10248 20248 76165 8597/ 333 5699/=

48103 21440 81402 10267 20256 40089 75065 8672/ 333 5633/ 58009=

48107 21330 82301 10257 20257 40093 75366 8597/ 333 5655/ 58016=

48108 21494 82305 10250 20242 40109 75165 8537/ 333 5669/ 58016=

48109 NIL=

48110 21496 82302 10295 20270 40111 72065 84357 333 56699 58016=

48112 21597 80403 10300 20253 40108 71795 84976 333 56199 58004=  





