



*-*-*


<!--
.style2 {
	font-family:"Courier New", Courier, monospace;
	font-size: 14px;
}
-->






SMBM01 VBRR 200600

AAXX 20064

48001 NIL=

48004 21110 80000 10248 20248 75365 8697/ 333 56599=

48008 31456 80000 10262 20246 40116 75065 8497/ 333

56459 59001=

48010 21440 80000 10250 20250 40095 75166 88/// 333

56499 59006=

48018 21556 80000 10255 20250 40118 72055 8497/ 333

56339 58011=

48019 22456 83601 10260 20246 40107 8577/ 333 56459

59008=

48020 21357 70402 10270 20256 70155 8577/ 333 56499=

48025 21340 80000 10274 20256 40106 70255 8577/ 333

56559 58007=

48035 32560 82202 10259 20215 40097 8597/ 333 56439

58006=

48037 32460 71401 10299 20253 40101 84370 333 56440

58010=

48042 32558 71303 10335 20237 40098 84950 333 56440

58001=

48045 31120 71403 10231 20205 70244 87600 333 56300=

48048 32562 41802 10310 20237 40108 84800 333 56400

58011=

48051 21458 71303 10288 20260 75055 85970 333 56490=

48053 32456 61804 10310 20225 40102 84956 333 56499

58003=

48060 32350 62201 10292 20215 40084 84930 333 56590

59023=

48062 NIL=

48071 32460 71804 10300 20266 40098 85970 333 56490

59009=

48075 NIL=

48077 32559 80000 10304 20253 40104 85931 333 56499

58007=

48078 32558 51801 10298 20253 40120 84801 333 56409

59008=

48080 32460 52204 10312 20255 40110 83206 333 56390

58004=

48085 32458 41404 10318 20267 40104 83306 333 56409

58009=

48095 32560 41402 10315 20282 82240 333 56990=

48108 32596 63205 10330 20244 40113 83306 333 56709

59008=

48109 NIL=

48110 32596 83203 10330 20275 40114 81307 333 56909

59003=

48112 32597 82202 10317 20274 40113 70222 83876 333

56599 58005=

48030 21256 80401 10198 20185 70255 8694/ 333 56189=

48072 32460 41312 10310 20267 70122 83830 333 56490=

48087 32560 50402 10315 20265 83341 333 56499=

48099 32457 52301 10326 20258 40114 85800 333 56500

59010=

48101 32559 51402 10304 20267 70222 83330 333 56490=

48103 32550 32202 10330 20244 40115 83800 333 56500

59002=

48057 32460 72301 10240 20191 84906 333 56509=

48094 32460 51303 10315 20270 40105 83970 333 56390

58006=

48097 32557 31802 10330 20251 40124 83400 333 56900

58001=

48031 31258 81401 10205 20205 70144 888// 333 56499=

48033 32563 71801 10310 20254 40100 85970 333 56990

58003=

48034 21456 82302 10218 20185 70255 8637/ 333 5659/=

48039 32460 71401 10325 20236 84960 333 56440=

48043 32558 61808 10250 20219 84830 333 56590=

48052 32468 52201 10320 20265 85900 333 56900=

48055 32557 72304 10288 20215 40092 84336 333 56539

59024=

48064 32458 70401 10310 20267 40078 84831 333 56449

59017=

48065 32457 72202 10305 20254 85870 333 56490=

48092 32457 52305 10320 20257 40094 85300 333 56400

59005=

48093 32557 52301 10313 20267 85300 333 56500=

48107 32350 60000 10330 20258 40106 84970 333 56770

59011=

48096 32458 52207 10320 20248 40117 83831 333 56999

59005=  





