



*-*-*


<!--
.style2 {
	font-family:"Courier New", Courier, monospace;
	font-size: 14px;
}
-->






SIBM20 VBRR 200300

AAXX 20034

48001 21220 80000 10230 20228 40122 76166 8672/ 333

56639 58004=

48004 21110 82201 10246 20246 76165 8697/ 333 56549=

48008 21456 80000 10245 20240 40125 76066 8497/ 333

56459 58004=

48010 21410 80000 10245 20245 40113 76366 887// 333

56499 59003=

48018 21550 80000 10243 20240 40119 76166 8497/ 333

56999 58008=

48019 21456 83201 10244 20240 40108 75055 8577/ 333

56499 58006=

48020 21256 80000 10260 20246 70255 887// 333 56499=

48025 22120 80000 10255 20255 40115 8582/ 333 56449

58014=

48035 21458 80000 10229 20214 40121 70255 8597/ 333

56349 58009=

48037 22458 71401 10253 20100 84870 333 56440 58002=

48042 32558 51301 10300 20231 40111 82852 333 56449

58005=

48045 21120 71404 10205 20175 74144 85870 333 56330=

48048 22560 62202 10274 20240 40110 84950 333 56490

58014=

48051 22458 72302 10268 20260 70122 85930 333 56490=

48053 32456 51803 10290 20230 40118 82556 333 56499

58006=

48060 22330 70000 10245 20214 40109 85830 333 56690

59016=

48062 21356 81306 10260 20260 40098 75055 86920 333

56490 58023=

48071 22458 71303 10280 20268 40103 85970 333 56490

58012=

48075 22457 60000 10240 20209 40138 85730 333 56590

59005=

48077 22559 80000 10280 20250 40010 85970 333 56490

58015=

48078 22558 61801 10271 20248 40132 83531 333 56499

58000=

48080 22460 71306 10290 20248 40106 85870 333 56390

58015=

48085 22458 41303 10300 20253 40116 83806 333 56409

58017=

48095 22560 22202 10290 20274 70122 82200 333 56900=

48108 32596 63202 10290 20254 40128 83406 333 56909

59002=

48109 32497 32301 10296 20253 40119 70122 82501 333

56909 58010=

48110 21596 40000 10295 20262 40125 70544 82306 333

56909 59001=

48112 32597 80402 10290 20259 40120 70222 83876 333

56199 58000=

48030 21150 80401 10180 20180 75055 888// 333 56199=

48072 21459 61805 10295 20266 70255 84870 333 56490=

48087 22556 72302 10288 20274 8437/ 333 5649/=

48099 32450 72301 10285 20250 40127 85930 333 56590

58005=

48101 22658 41401 10297 20253 70322 80005 333 56499=

48103 32557 30403 10297 20239 40128 82830 333 56110

58002=

48057 22458 81401 10200 20185 86950 333 56490=

48094 22459 31302 10280 20270 40116 70122 82940 333

56990 58008=

48097 21557 43202 10300 20253 40133 70511 84800 333

56500 58002=

48031 21/03 92201 10185 20185 74764 89/// 333 56999=

48033 22562 71801 10280 20250 40114 85930 333 56990

58012=

48034 21456 81802 10201 20190 75055 8692/ 333 5659/=

48039 22460 61401 10295 20239 84850 333 56550=

48043 32558 51805 10230 20198 83202 333 56509=

48052 22460 61301 10280 20250 85920 333 56390=

48055 22457 62303 10238 20209 40124 85301 333 56509

59009=

48064 22458 50401 10278 20268 40093 83831 333 56449

59004=

48065 22456 60301 10285 20259 85970 333 56490=

48074 32458 71802 10270 20240 40140 82551 333 56449

59001=

48092 21450 71302 10290 20266 40117 70522 85930 333

56390 58006=

48093 22558 82301 10273 20256 70322 8687/ 333 56599=

48107 32950 20000 10285 20248 40122 80006 333 56009

58002=

48096 31457 60503 10290 20259 40135 70522 84831 333

56999 58006=  





