



*-*-*


<!--
.style2 {
	font-family:"Courier New", Courier, monospace;
	font-size: 14px;
}
-->






SMBM01 VBRR 210600

AAXX 21064
48001 NIL=
48004 31356 71301 10261 20215 70165 87900 333 56500=
48008 32557 60401 10323 20189 40086 83970 333 56560 59039=
48010 21458 71801 10250 20219 40087 70165 84770 333 56560 59032=
48018 21559 70402 10290 20215 40084 75055 84870 333 56120 59025=
48019 22458 73201 10275 20220 40087 84760 333 56560 59029=
48020 21357 82704 10250 20219 72196 8597/ 333 56699=
48025 32440 73201 10345 20184 40096 84870 333 56550 59019=
48030 32256 82204 10220 20065 889// 333 56599=
48031 21257 82202 10175 20108 79596 889// 333 56499=
48033 32963 01801 10370 20227 40069 333 59023=
48034 NIL=
48035 31558 30000 10275 20184 40084 70166 83800 333 56700 58009=
48037 32957 00401 10379 20203 40068 333 59034=
48039 32460 11401 10370 20227 81100 333 56500=
48042 32557 11802 10390 20233 40069 81200 333 56900 59030=
48043 32758 23207 10305 20203 82200 333 56600=
48045 32563 21805 10307 20092 82800 333 56600=
48048 32962 03201 10405 20210 40072 333 59031=
48051 32559 51302 10352 20240 84930 333 56590=
48052 32970 03203 10401 20214=
48053 32556 31803 10380 20285 40067 83900 333 56500 59042=
48055 32656 61803 10332 20172 40051 86900 333 56400 59013=
48057 32958 52203 10280 20126 85300 333 56600=
48060 32456 43201 10335 20168 40059 82132 333 56699 59021=
48062 32558 42708 10335 20300 40113 84900 333 56600 59008=
48064 32570 11401 10415 20291 40062 81100 333 56900 59030=
48065 32570 21406 10407 20196 81101 333 56909=
48071 32460 23204 10335 20270 40113 82300 333 56900 59016=
48072 32460 22705 10345 20297 82200 333 56900=
48074 32561 11404 10370 20246 40082 81100 333 56900 59033=
48075 32457 52301 10335 20175 40058 85300 333 56500 59034=
48077 32559 32302 10390 20213 40086 83900 333 56900 59010=
48078 32560 21401 10386 20236 40085 81101 333 56909 59016=
48080 32460 32209 10354 20240 40097 82230 333 56590 59007=
48085 32459 43205 10336 20258 40104 82800 333 56800 59009=
48087 32560 20402 10382 20221 82200 333 56900=
48092 32457 12301 10375 20224 40089 81100 333 56900 58001=
48093 32958 02301 10366 20227=
48094 32460 23202 10370 20250 40104 82500 333 56900 59003=
48095 32560 12203 10370 20246 81100 333 56900=
48096 32459 12408 10360 20249 40099 81100 333 56600 58003=
48097 32557 33402 10370 20248 40104 83300 333 56900 59009=
48099 32456 50402 10352 20240 40094 85900 333 56100 59006=
48101 32660 22703 10346 20237 82200 333 56600=
48103 32556 62201 10358 20249 40101 86800 333 56500 59002=
48107 32350 21302 10344 20240 40098 84900 333 56600 59007=
48108 32596 60508 10360 20257 40112 83306 333 56109 59007=
48109 NIL=
48110 31596 33205 10345 20261 40111 70511 82305 333 56909 59006=
48112 32598 60401 10353 20266 40117 82216 333 56199 58002=  
SMBM01 VBRR 210600

AAXX 21064
48001 NIL=
48004 31356 71301 10261 20215 70165 87900 333 56500=
48008 32557 60401 10323 20189 40086 83970 333 56560 59039=
48010 21458 71801 10250 20219 40087 70165 84770 333 56560 59032=
48018 21559 70402 10290 20215 40084 75055 84870 333 56120 59025=
48019 22458 73201 10275 20220 40087 84760 333 56560 59029=
48020 21357 82704 10250 20219 72196 8597/ 333 56699=
48025 32440 73201 10345 20184 40096 84870 333 56550 59019=
48030 32256 82204 10220 20065 889// 333 56599=
48031 21257 82202 10175 20108 79596 889// 333 56499=
48033 32963 01801 10370 20227 40069 333 59023=
48034 NIL=
48035 31558 30000 10275 20184 40084 70166 83800 333 56700 58009=
48037 32957 00401 10379 20203 40068 333 59034=
48039 32460 11401 10370 20227 81100 333 56500=
48042 32557 11802 10390 20233 40069 81200 333 56900 59030=
48043 32758 23207 10305 20203 82200 333 56600=
48045 32563 21805 10307 20092 82800 333 56600=
48048 32962 03201 10405 20210 40072 333 59031=
48051 32559 51302 10352 20240 84930 333 56590=
48052 32970 03203 10401 20214=
48053 32556 31803 10380 20285 40067 83900 333 56500 59042=
48055 32656 61803 10332 20172 40051 86900 333 56400 59013=
48057 32958 52203 10280 20126 85300 333 56600=
48060 32456 43201 10335 20168 40059 82132 333 56699 59021=
48062 32558 42708 10335 20300 40113 84900 333 56600 59008=
48064 32570 11401 10415 20291 40062 81100 333 56900 59030=
48065 32570 21406 10407 20196 81101 333 56909=
48071 32460 23204 10335 20270 40113 82300 333 56900 59016=
48072 32460 22705 10345 20297 82200 333 56900=
48074 32561 11404 10370 20246 40082 81100 333 56900 59033=
48075 32457 52301 10335 20175 40058 85300 333 56500 59034=
48077 32559 32302 10390 20213 40086 83900 333 56900 59010=
48078 32560 21401 10386 20236 40085 81101 333 56909 59016=
48080 32460 32209 10354 20240 40097 82230 333 56590 59007=
48085 32459 43205 10336 20258 40104 82800 333 56800 59009=
48087 32560 20402 10382 20221 82200 333 56900=
48092 32457 12301 10375 20224 40089 81100 333 56900 58001=
48093 32958 02301 10366 20227=
48094 32460 23202 10370 20250 40104 82500 333 56900 59003=
48095 32560 12203 10370 20246 81100 333 56900=
48096 32459 12408 10360 20249 40099 81100 333 56600 58003=
48097 32557 33402 10370 20248 40104 83300 333 56900 59009=
48099 32456 50402 10352 20240 40094 85900 333 56100 59006=
48101 32660 22703 10346 20237 82200 333 56600=
48103 32556 62201 10358 20249 40101 86800 333 56500 59002=
48107 32350 21302 10344 20240 40098 84900 333 56600 59007=
48108 32596 60508 10360 20257 40112 83306 333 56109 59007=
48109 NIL=
48110 31596 33205 10345 20261 40111 70511 82305 333 56909 59006=
48112 32598 60401 10353 20266 40117 82216 333 56199 58002=  
SMBM01 VBRR 210600

AAXX 21064

48001 NIL=

48004 31356 71301 10261 20215 70165 87900 333 56500=

48008 32557 60401 10323 20189 40086 83970 333 56560

59039=

48010 21458 71801 10250 20219 40087 70165 84770 333

56560 59032=

48018 21559 70402 10290 20215 40084 75055 84870 333

56120 59025=

48019 22458 73201 10275 20220 40087 84760 333 56560

59029=

48020 21357 82704 10250 20219 72196 8597/ 333 56699=

48025 32440 73201 10345 20184 40096 84870 333 56550

59019=

48035 31558 30000 10275 20184 40084 70166 83800 333

56700 58009=

48037 32957 00401 10379 20203 40068 333 59034=

48042 32557 11802 10390 20233 40069 81200 333 56900

59030=

48045 32563 21805 10307 20092 82800 333 56600=

48048 32962 03201 10405 20210 40072 333 59031=

48051 32559 51302 10352 20240 84930 333 56590=

48053 32556 31803 10380 20285 40067 83900 333 56500

59042=

48060 32456 43201 10335 20168 40059 82132 333 56699

59021=

48062 32558 42708 10335 20300 40113 84900 333 56600

59008=

48071 32460 23204 10335 20270 40113 82300 333 56900

59016=

48075 32457 52301 10335 20175 40058 85300 333 56500

59034=

48077 32559 32302 10390 20213 40086 83900 333 56900

59010=

48078 32560 21401 10386 20236 40085 81101 333 56909

59016=

48080 32460 32209 10354 20240 40097 82230 333 56590

59007=

48085 32459 43205 10336 20258 40104 82800 333 56800

59009=

48095 32560 12203 10370 20246 81100 333 56900=

48108 32596 60508 10360 20257 40112 83306 333 56109

59007=

48109 NIL=

48110 31596 33205 10345 20261 40111 70511 82305 333

56909 59006=

48112 32598 60401 10353 20266 40117 82216 333 56199

58002=

48030 32256 82204 10220 20065 889// 333 56599=

48072 32460 22705 10345 20297 82200 333 56900=

48087 32560 20402 10382 20221 82200 333 56900=

48099 32456 50402 10352 20240 40094 85900 333 56100

59006=

48101 32660 22703 10346 20237 82200 333 56600=

48103 32556 62201 10358 20249 40101 86800 333 56500

59002=

48057 32958 52203 10280 20126 85300 333 56600=

48094 32460 23202 10370 20250 40104 82500 333 56900

59003=

48097 32557 33402 10370 20248 40104 83300 333 56900

59009=

48031 21257 82202 10175 20108 79596 889// 333 56499=

48033 32963 01801 10370 20227 40069 333 59023=

48034 NIL=

48039 32460 11401 10370 20227 81100 333 56500=

48043 32758 23207 10305 20203 82200 333 56600=

48052 32970 03203 10401 20214=

48055 32656 61803 10332 20172 40051 86900 333 56400

59013=

48064 32570 11401 10415 20291 40062 81100 333 56900

59030=

48065 32570 21406 10407 20196 81101 333 56909=

48074 32561 11404 10370 20246 40082 81100 333 56900

59033=

48092 32457 12301 10375 20224 40089 81100 333 56900

58001=

48093 32958 02301 10366 20227=

48107 32350 21302 10344 20240 40098 84900 333 56600

59007=  





