



*-*-*


<!--
.style2 {
	font-family:"Courier New", Courier, monospace;
	font-size: 14px;
}
-->






SIBM20 VBRR 210900

AAXX 21094

48001 NIL=

48004 32358 70401 10288 20215 87900 333 56500=

48008 31556 82301 10302 20207 40057 71790 8497/ 333 56569 59029=

48010 22458 70000 10290 20230 40072 84770 333 56560 59014=

48018 21558 83201 10260 20229 40088 72156 8587/ 333 56559 59011=

48019 21456 80000 10256 20229 40069 75155 8577/ 333 56569 59009=

48020 21250 81303 10255 20217 72055 8592/ 333 56699=

48025 21340 82201 10275 20191 40075 75055 85870 333 56550 59004=

48030 21256 82205 10178 20147 79596 889// 333 56599=

48031 21/02 90402 10145 20143 79596 89/// 333 56999=

48033 32563 53601 10360 20214 40028 85800 333 56900 59039=

48034 21148 80405 10185 20185 79596 8692/ 333 5619/=

48035 31530 83203 10266 20172 40055 75095 8597/ 333 56599 58014=

48037 32558 60401 10409 20239 40028 84330 333 56590 59035=

48039 32460 42201 10410 20189 84800 333 56500=

48042 32558 41802 10415 20218 40029 83250 333 56560 59039=

48043 32756 63207 10310 20282 85330 333 56690=

48045 32560 51808 10314 20092 85300 333 56600=

48048 32560 52202 10420 20226 40032 84850 333 56490 59035=

48051 32559 41303 10380 20220 84800 333 56690=

48052 32470 33205 10431 20217 83800 333 56900=

48053 32556 72203 10400 20306 40031 85952 333 56599 59038=

48055 31656 63602 10333 20172 40018 70299 85901 333 56409 59004=

48057 32458 51804 10294 20115 85300 333 56500=

48060 21440 70401 10310 20189 40021 79555 85970 333 56590 59019=

48062 32558 32709 10340 20300 40088 83900 333 56600 59008=

48064 32970 13201 10430 20264 40030 80001 333 56009 59023=

48065 32570 22204 10425 20194 82100 333 56900=

48071 32960 02704 10345 20266 40093 333 59005=

48072 32560 12706 10350 20297 81200 333 56900=

48074 32462 21403 10407 20230 40050 84300 333 56300 59019=

48075 32457 43201 10360 20180 40023 84300 333 56500 59031=

48077 32559 62306 10410 20210 40073 85901 333 56909 59018=

48078 32558 41801 10397 20293 40050 83801 333 56609 59012=

48080 32459 23205 10344 20257 40073 82800 333 56900 59008=

48085 32458 43206 10337 20257 40079 84800 333 56800 59008=

48087 32560 52302 10384 20221 84840 333 56990=

48092 32458 42304 10395 20232 40037 84100 333 56900 59014=

48093 32658 32301 10399 20230 83800 333 56300=

48094 32460 23204 10375 20270 40080 82500 333 56900 59003=

48095 32460 52202 10290 20253 83840 333 56990=

48096 32559 21904 10380 20221 40063 82100 333 56600 59003=

48097 32557 51802 10340 20213 40076 85800 333 56900 58004=

48099 32558 31303 10364 20235 40070 82801 333 56309 58002=

48101 32660 23201 10322 20265 82200 333 56900=

48103 32556 22201 10357 20264 40070 82500 333 56500 59008=

48107 32350 32702 10350 20202 40073 83900 333 56600 59001=

48108 32596 53213 10355 20265 40087 83306 333 56609 59005=

48109 NIL=

48110 32596 33206 10345 20261 40086 82306 333 56909 59006=

48112 32598 60402 10362 20264 40088 82216 333 56199 58005=  
SIBM20 VBRR 210900

AAXX 21094
48001 NIL=
48004 32358 70401 10288 20215 87900 333 56500=
48008 31556 82301 10302 20207 40057 71790 8497/ 333 56569 59029=
48010 22458 70000 10290 20230 40072 84770 333 56560 59014=
48018 21558 83201 10260 20229 40088 72156 8587/ 333 56559 59011=
48019 21456 80000 10256 20229 40069 75155 8577/ 333 56569 59009=
48020 21250 81303 10255 20217 72055 8592/ 333 56699=
48025 21340 82201 10275 20191 40075 75055 85870 333 56550 59004=
48030 21256 82205 10178 20147 79596 889// 333 56599=
48031 21/02 90402 10145 20143 79596 89/// 333 56999=
48033 32563 53601 10360 20214 40028 85800 333 56900 59039=
48034 21148 80405 10185 20185 79596 8692/ 333 5619/=
48035 31530 83203 10266 20172 40055 75095 8597/ 333 56599 58014=
48037 32558 60401 10409 20239 40028 84330 333 56590 59035=
48039 32460 42201 10410 20189 84800 333 56500=
48042 32558 41802 10415 20218 40029 83250 333 56560 59039=
48043 32756 63207 10310 20282 85330 333 56690=
48045 32560 51808 10314 20092 85300 333 56600=
48048 32560 52202 10420 20226 40032 84850 333 56490 59035=
48051 32559 41303 10380 20220 84800 333 56690=
48052 32470 33205 10431 20217 83800 333 56900=
48053 32556 72203 10400 20306 40031 85952 333 56599 59038=
48055 31656 63602 10333 20172 40018 70299 85901 333 56409 59004=
48057 32458 51804 10294 20115 85300 333 56500=
48060 21440 70401 10310 20189 40021 79555 85970 333 56590 59019=
48062 32558 32709 10340 20300 40088 83900 333 56600 59008=
48064 32970 13201 10430 20264 40030 80001 333 56009 59023=
48065 32570 22204 10425 20194 82100 333 56900=
48071 32960 02704 10345 20266 40093 333 59005=
48072 32560 12706 10350 20297 81200 333 56900=
48074 32462 21403 10407 20230 40050 84300 333 56300 59019=
48075 32457 43201 10360 20180 40023 84300 333 56500 59031=
48077 32559 62306 10410 20210 40073 85901 333 56909 59018=
48078 32558 41801 10397 20293 40050 83801 333 56609 59012=
48080 32459 23205 10344 20257 40073 82800 333 56900 59008=
48085 32458 43206 10337 20257 40079 84800 333 56800 59008=
48087 32560 52302 10384 20221 84840 333 56990=
48092 32458 42304 10395 20232 40037 84100 333 56900 59014=
48093 32658 32301 10399 20230 83800 333 56300=
48094 32460 23204 10375 20270 40080 82500 333 56900 59003=
48095 32460 52202 10290 20253 83840 333 56990=
48096 32559 21904 10380 20221 40063 82100 333 56600 59003=
48097 32557 51802 10340 20213 40076 85800 333 56900 58004=
48099 32558 31303 10364 20235 40070 82801 333 56309 58002=
48101 32660 23201 10322 20265 82200 333 56900=
48103 32556 22201 10357 20264 40070 82500 333 56500 59008=
48107 32350 32702 10350 20202 40073 83900 333 56600 59001=
48108 32596 53213 10355 20265 40087 83306 333 56609 59005=
48109 NIL=
48110 32596 33206 10345 20261 40086 82306 333 56909 59006=
48112 32598 60402 10362 20264 40088 82216 333 56199 58005=  
SIBM20 VBRR 210900

AAXX 21094

48001 NIL=

48004 32358 70401 10288 20215 87900 333 56500=

48008 31556 82301 10302 20207 40057 71790 8497/ 333

56569 59029=

48010 22458 70000 10290 20230 40072 84770 333 56560

59014=

48018 21558 83201 10260 20229 40088 72156 8587/ 333

56559 59011=

48019 21456 80000 10256 20229 40069 75155 8577/ 333

56569 59009=

48020 21250 81303 10255 20217 72055 8592/ 333 56699=

48025 21340 82201 10275 20191 40075 75055 85870 333

56550 59004=

48035 31530 83203 10266 20172 40055 75095 8597/ 333

56599 58014=

48037 32558 60401 10409 20239 40028 84330 333 56590

59035=

48042 32558 41802 10415 20218 40029 83250 333 56560

59039=

48045 32560 51808 10314 20092 85300 333 56600=

48048 32560 52202 10420 20226 40032 84850 333 56490

59035=

48051 32559 41303 10380 20220 84800 333 56690=

48053 32556 72203 10400 20306 40031 85952 333 56599

59038=

48060 21440 70401 10310 20189 40021 79555 85970 333

56590 59019=

48062 32558 32709 10340 20300 40088 83900 333 56600

59008=

48071 32960 02704 10345 20266 40093 333 59005=

48075 32457 43201 10360 20180 40023 84300 333 56500

59031=

48077 32559 62306 10410 20210 40073 85901 333 56909

59018=

48078 32558 41801 10397 20293 40050 83801 333 56609

59012=

48080 32459 23205 10344 20257 40073 82800 333 56900

59008=

48085 32458 43206 10337 20257 40079 84800 333 56800

59008=

48095 32460 52202 10290 20253 83840 333 56990=

48108 32596 53213 10355 20265 40087 83306 333 56609

59005=

48109 NIL=

48110 32596 33206 10345 20261 40086 82306 333 56909

59006=

48112 32598 60402 10362 20264 40088 82216 333 56199

58005=

48030 21256 82205 10178 20147 79596 889// 333 56599=

48072 32560 12706 10350 20297 81200 333 56900=

48087 32560 52302 10384 20221 84840 333 56990=

48099 32558 31303 10364 20235 40070 82801 333 56309

58002=

48101 32660 23201 10322 20265 82200 333 56900=

48103 32556 22201 10357 20264 40070 82500 333 56500

59008=

48057 32458 51804 10294 20115 85300 333 56500=

48094 32460 23204 10375 20270 40080 82500 333 56900

59003=

48097 32557 51802 10340 20213 40076 85800 333 56900

58004=

48031 21/02 90402 10145 20143 79596 89/// 333 56999=

48033 32563 53601 10360 20214 40028 85800 333 56900

59039=

48034 21148 80405 10185 20185 79596 8692/ 333 5619/=

48039 32460 42201 10410 20189 84800 333 56500=

48043 32756 63207 10310 20282 85330 333 56690=

48052 32470 33205 10431 20217 83800 333 56900=

48055 31656 63602 10333 20172 40018 70299 85901 333

56409 59004=

48064 32970 13201 10430 20264 40030 80001 333 56009

59023=

48065 32570 22204 10425 20194 82100 333 56900=

48074 32462 21403 10407 20230 40050 84300 333 56300

59019=

48092 32458 42304 10395 20232 40037 84100 333 56900

59014=

48093 32658 32301 10399 20230 83800 333 56300=

48107 32350 32702 10350 20202 40073 83900 333 56600

59001=  





