



*-*-*


<!--
.style2 {
	font-family:"Courier New", Courier, monospace;
	font-size: 14px;
}
-->






SMBM01 VBRR 210000

AAXX 21004
48001 NIL=
48004 NIL=
48008 32556 70000 10238 20209 40080 83970 333 20228 56810 59043=
48010 21540 50000 10210 20202 40082 70396 82430 333 20200 56660 59032
 60052=
48018 21556 83201 10220 20205 40080 79596 8597/ 333 20210 5676/ 59029
 60032=
48019 32440 82701 10238 20209 40091 8577/ 333 20235 5656/ 59020=
48020 NIL=
48025 32420 52702 10242 20209 40077 83841 333 20234 56599 59040=
48030 21256 62209 10174 20097 70396 84840 333 20146 56560 69902=
48031 21260 61801 10175 20108 70566 84840 333 20163 56490 60022=
48033 32560 73301 10270 20226 40075 85906 333 20260 56609 59014=
48034 32456 40000 10163 20149 84500 333 20157 56100=
48035 31520 30000 10181 20165 40091 71000 83800 333 20175 56900
 59027=
48037 32540 50000 10268 20226 40066 80070 333 20210 56060 59050=
48039 32456 63201 10255 20203 83560 333 20253 56550=
48042 32556 61801 10265 20221 40075 83850 333 20254 56990 59018=
48043 32630 20000 10190 20175 82200 333 20155 56600=
48045 NIL=
48048 32950 20000 10255 20179 40071 333 20248 59023=
48051 32958 33601 10251 20230 80006 333 20244 56009=
48052 32450 20000 10272 20211 82200 333 20260 56900=
48053 32550 41802 10270 20226 40080 82556 333 20261 56599 59015=
48055 31556 30000 10152 20142 40127 70511 81531 333 20147 56559
 58001=
48057 32456 40000 10170 20135 81551 333 20160 56599=
48060 32930 20000 10180 20147 40110 80032 333 20155 56099 58018=
48062 31540 30000 10265 20260 40096 71011 85930 333 20230 56990
 59010=
48064 32950 20000 10292 20248 40063 80006 333 20232 56009 59020=
48065 32950 20000 10282 20220 80006 333 20260 56009=
48071 32456 43202 10285 20259 40101 84800 333 20270 56700 59005=
48072 NIL=
48074 32456 41402 10285 20250 40093 82502 333 20268 56507 59008=
48075 32456 60000 10200 20190 40137 84830 333 20190 56590 58003=
48077 32956 02301 10280 20233 40076 333 20255 59016=
48078 32950 81401 10283 20283 40091 80001 333 20265 56009
 59011=
48080 32456 60000 10244 20209 40115 84870 333 20225 56590 59005=
48085 32456 33602 10270 20240 40095 83300 333 20268 56700 59007=
48087 32950 10000 10250 20233 80001 333 20240 56009=
48092 31950 00000 10260 20246 40086 70500 333 20247 59003=
48093 32950 02301 10264 20246 333 20256=
48094 31956 03201 10265 20250 40098 71000 333 20238 59014=
48095 NIL=
48096 32457 12404 10270 20256 40095 81500 333 20255 56900 59011=
48097 32557 12201 10260 20253 40097 81500 333 20253 56900 59001=
48099 32440 21301 10268 20240 40092 83800 333 20245 56900 59009=
48101 NIL=
48103 32540 23201 10272 20240 40097 82500 333 20248 56700 59010=
48107 21330 82701 10233 20233 40098 75196 84970 333 20227 56660 59010
 60052=
48108 32595 60000 10238 20228 40113 83306 333 20220 56409 59002=
48109 32496 80000 10280 20250 40113 8697/ 333 20215 5699/ 59003=
48110 31596 50000 10275 20262 40106 70522 83306 333 20270 56709
 58005=
48112 32597 80401 10290 20248 40108 83876 333 20234 56199 58007=  
SMBM01 VBRR 210000

AAXX 21004
48001 NIL=
48004 NIL=
48008 32556 70000 10238 20209 40080 83970 333 20228 56810 59043=
48010 21540 50000 10210 20202 40082 70396 82430 333 20200 56660 59032
 60052=
48018 21556 83201 10220 20205 40080 79596 8597/ 333 20210 5676/ 59029
 60032=
48019 32440 82701 10238 20209 40091 8577/ 333 20235 5656/ 59020=
48020 NIL=
48025 32420 52702 10242 20209 40077 83841 333 20234 56599 59040=
48030 21256 62209 10174 20097 70396 84840 333 20146 56560 69902=
48031 21260 61801 10175 20108 70566 84840 333 20163 56490 60022=
48033 32560 73301 10270 20226 40075 85906 333 20260 56609 59014=
48034 32456 40000 10163 20149 84500 333 20157 56100=
48035 31520 30000 10181 20165 40091 71000 83800 333 20175 56900
 59027=
48037 32540 50000 10268 20226 40066 80070 333 20210 56060 59050=
48039 32456 63201 10255 20203 83560 333 20253 56550=
48042 32556 61801 10265 20221 40075 83850 333 20254 56990 59018=
48043 32630 20000 10190 20175 82200 333 20155 56600=
48045 NIL=
48048 32950 20000 10255 20179 40071 333 20248 59023=
48051 32958 33601 10251 20230 80006 333 20244 56009=
48052 32450 20000 10272 20211 82200 333 20260 56900=
48053 32550 41802 10270 20226 40080 82556 333 20261 56599 59015=
48055 31556 30000 10152 20142 40127 70511 81531 333 20147 56559
 58001=
48057 32456 40000 10170 20135 81551 333 20160 56599=
48060 32930 20000 10180 20147 40110 80032 333 20155 56099 58018=
48062 31540 30000 10265 20260 40096 71011 85930 333 20230 56990
 59010=
48064 32950 20000 10292 20248 40063 80006 333 20232 56009 59020=
48065 32950 20000 10282 20220 80006 333 20260 56009=
48071 32456 43202 10285 20259 40101 84800 333 20270 56700 59005=
48072 NIL=
48074 32456 41402 10285 20250 40093 82502 333 20268 56507 59008=
48075 32456 60000 10200 20190 40137 84830 333 20190 56590 58003=
48077 32956 02301 10280 20233 40076 333 20255 59016=
48078 32950 81401 10283 20283 40091 80001 333 20265 56009
 59011=
48080 32456 60000 10244 20209 40115 84870 333 20225 56590 59005=
48085 32456 33602 10270 20240 40095 83300 333 20268 56700 59007=
48087 32950 10000 10250 20233 80001 333 20240 56009=
48092 31950 00000 10260 20246 40086 70500 333 20247 59003=
48093 32950 02301 10264 20246 333 20256=
48094 31956 03201 10265 20250 40098 71000 333 20238 59014=
48095 NIL=
48096 32457 12404 10270 20256 40095 81500 333 20255 56900 59011=
48097 32557 12201 10260 20253 40097 81500 333 20253 56900 59001=
48099 32440 21301 10268 20240 40092 83800 333 20245 56900 59009=
48101 NIL=
48103 32540 23201 10272 20240 40097 82500 333 20248 56700 59010=
48107 21330 82701 10233 20233 40098 75196 84970 333 20227 56660 59010
 60052=
48108 32595 60000 10238 20228 40113 83306 333 20220 56409 59002=
48109 32496 80000 10280 20250 40113 8697/ 333 20215 5699/ 59003=
48110 31596 50000 10275 20262 40106 70522 83306 333 20270 56709
 58005=
48112 32597 80401 10290 20248 40108 83876 333 20234 56199 58007=  





