



*-*-*


<!--
.style2 {
	font-family:"Courier New", Courier, monospace;
	font-size: 14px;
}
-->






SMBM01 VBRR 210600

AAXX 21064

48001 32556 23602 10150 20134 40199 82100 333 56200

59003=

48004 32562 13201 10208 20120 70311 81100 333 56900=

48008 32558 10401 10213 20120 40186 81400 333 56400

59009=

48010 32560 11801 10215 20156 40182 81100 333 56900

58001=

48018 32560 11401 10230 20143 40182 70144 81400 333

56900 59001=

48019 32460 50402 10208 20143 40180 85800 333 56500

58006=

48020 32358 30904 10220 20156 83200 333 56400=

48025 31430 33601 10227 20143 40191 70144 83400 333

56900 59007=

48035 31558 32702 10215 20136 40149 70522 83800 333

56900 59002=

48037 32959 03201 10240 20136 40172 70200 333 58006=

48042 31540 10000 10250 20167 40164 70544 81100 333

56900 59010=

48045 NIL=

48048 32960 00901 10250 20167 40174 333 59001=

48051 32959 03602 10240 20140 333=

48053 32950 03603 10260 20160 40152 333 59026=

48060 32440 40401 10212 20143 40175 82132 333 56566

59012=

48062 32957 00903 10250 20210 40160 333 59015=

48071 32958 03203 10250 20186 40162 333 59012=

48075 32457 62202 10240 20155 40156 85801 333 56509

59001=

48077 32959 00000 10270 20172 40156 333 59010=

48078 32958 23201 10271 20172 40161 80002 333 56009

59007=

48080 32961 01303 10280 20184 40158 333 58000=

48085 32458 32702 10273 20211 40145 81106 333 56709

59010=

48095 32458 60402 10260 20179 84602 333 56909=

48108 32596 51402 10320 20192 40143 82406 333 56909

59014=

48109 NIL=

48110 31996 53203 10310 20214 40136 70522 80006 333

56009 59015=

48112 32597 80406 10310 20282 40126 83876 333 56199

59015=

48030 32960 00404 10132 20044 333=

48072 32960 00401 10260 20197 333=

48087 32958 60402 10270 20154 80041 333 56099=

48099 32456 52302 10305 20207 40143 83802 333 56509

59010=

48101 32759 63202 10283 20184 80025 333 56099=

48103 32457 40402 10317 20184 40144 84800 333 56100

59006=

48057 32456 52302 10198 20150 84301 333 56509=

48094 32560 33202 10290 20200 40156 81506 333 56909

59008=

48097 32557 61302 10300 20151 40159 84506 333 56909

59003=

48031 32260 12201 10170 20074 81200 333 56900=

48033 32563 13601 10250 20150 40147 81100 333 56900

59023=

48034 32456 42301 10215 20114 70311 84300 333 56500=

48039 32956 22201 10250 20186 80002 333 56009=

48043 32057 02706 10210 20143 333=

48052 32458 23604 10263 20179 70322 82800 333 56900=

48055 32556 62304 10223 20164 40149 70244 86800 333

56400 59009=

48064 32960 00401 10236 20191 40159 70211 80000 333

56000 58007=

48065 32957 03202 10260 20169 70222 80000 333 56000=

48074 32659 20403 10260 20160 40175 80002 333 56009

58007=

48092 31557 60403 10300 20166 40132 70522 84406 333

56909 59009=

48093 32557 61402 10312 20225 86800 333 56300=

48107 32950 23201 10300 20166 40130 80006 333 56009

59003=

48096 32958 62402 10300 20166 40155 80036 333 56099

59005=  





