



*-*-*


<!--
.style2 {
	font-family:"Courier New", Courier, monospace;
	font-size: 14px;
}
-->






SMBM01 VBRR 211800

NIL=  
SMBM01 VBRR 211800 RRA

AAXX 21184

48008 31510 63201 10220 20156 40115 71044 83970 333 56560 59006=

48010 32901 00000 10190 20182 40110 333 59023=

48018 32910 03201 10190 20159 40106 333 59026=

48025 32905 02701 10225 20171 40116 333 59028=

48042 32950 00000 10215 20150 40102 333 59005=

48053 32930 00000 10220 20168 40092 333 59035=

48057 32958 01801 10128 20086 333=

48060 32910 00000 10110 20091 40152 333 58004=

48062 NIL=

48071 32920 00000 10220 20185 40115 333 59015=

48078 32950 10000 10203 20155 40120 80001 333 56009 59008=

48080 32940 00000 10192 20159 40122 333 59009=

48094 NIL=

48097 32556 32301 10230 20190 40116 83500 333 56900 59012=

48099 32440 20402 10235 20198 40110 82800 333 56900 58004=

48103 32410 32201 10247 20219 40100 83500 333 56500 59007=

48108 32595 51401 10260 20240 40127 82407 333 56909 59002=

48109 32495 20000 10250 20205 40117 82500 333 56900 58000=

48110 21594 63603 10260 20246 40123 70255 84305 333 56209 59005=

48112 32597 60402 10262 20215 40108 83876 333 56199 59002=  





