



*-*-*


<!--
.style2 {
	font-family:"Courier New", Courier, monospace;
	font-size: 14px;
}
-->






SIBM20 VBRR 210300

AAXX 21034

48001 31906 90000 10100 20100 40226 74544 89/// 333 56999 58011=

48004 31560 10401 10132 20086 71044 81500 333 56900=

48008 32558 10000 10177 20129 40231 81400 333 56500 58031=

48010 31520 10000 10145 20124 40232 74044 81600 333 56600 58030=

48018 32558 30401 10153 20134 40229 82810 333 56880 58040=

48019 32960 00000 10162 20123 40222 333 58037=

48020 31940 90000 10160 20144 74344 89/// 333 56///=

48025 32450 50401 10190 20159 40234 83841 333 56559 58034=

48030 32150 72202 10088 20068 85850 333 56560=

48031 31/03 93601 10155 20120 74744 89/// 333 56999=

48033 32562 23601 10210 20143 40180 82500 333 56900 58009=

48034 31456 10000 10122 20081 71011 81500 333 56500=

48035 31/01 90000 10101 20100 40241 74744 333 58040=

48037 32558 23601 10208 20177 40191 81120 333 56560 58065=

48039 31440 32201 10187 20159 74044 81402 333 56505=

48042 32557 33601 10200 20168 40212 81452 333 56999 58030=

48045 32559 71402 10130 20086 87700 333 56200=

48048 32560 40401 10195 20168 40121 84800 333 56400 58025=

48051 32958 30402 10170 20150 70311 80002 333 56009=

48052 32458 40402 10210 20175 84800 333 56900=

48053 32950 13602 10200 20150 40208 80006 333 56009 58035=

48055 31440 40000 10122 20092 40205 71044 82501 333 56509 58045=

48057 32958 32202 10154 20073 80006 333 56009=

48060 31920 90000 10130 20113 40256 74044 333 58057=

48062 31550 50402 10185 20180 40198 71044 83830 333 56590 58027=

48064 32560 21401 10200 20168 40205 81101 333 56909 58031=

48065 32460 50403 10208 20198 84830 333 56990=

48071 32458 30000 10230 20198 40203 83800 333 56900 58028=

48072 31456 70401 10224 20185 70522 85830 333 56590=

48074 32558 30403 10210 20175 40208 81401 333 56409 58033=

48075 31458 53201 10180 20170 40229 70144 85300 333 56500 58025=

48077 32559 30401 10230 20163 40192 82201 333 56909 58023=

48078 32556 33202 10220 20185 40205 82501 333 56609 58029=

48080 32459 40402 10204 20168 40199 84200 333 56400 58022=

48085 31957 10401 10243 20209 40189 70544 80001 333 56009 58023=

48087 32960 20403 10238 20191 80001 333 56009=

48092 31450 20402 10250 20205 40175 70522 82800 333 56900 58018=

48093 32657 12301 10256 20203 70111 81100 333 56500=

48094 32459 20401 10250 20190 40190 81501 333 56909 58021=

48095 32458 40401 10240 20209 83640 333 56990=

48096 32457 40408 10240 20209 40201 84800 333 56900 58025=

48097 21557 30502 10250 20205 40187 70511 81530 333 56990 58012= 

48099 21440 41302 10255 20206 40196 70511 84800 333 56900 58018=

48101 32959 00401 10253 20219 333=

48103 31456 20401 10248 20186 40189 70144 82500 333 56100 58019=

48107 31950 03201 10242 20174 40177 7//44 333 58020=

48108 32996 40902 10240 20174 40187 80006 333 56009 58019=

48109 22497 50403 10280 20233 40191 83970 333 56990 58026=

48110 31596 21302 10270 20191 40187 70511 81105 333 56909 58022=

48112 32598 60403 10265 20215 40172 82216 333 56199 58018=  





