



*-*-*


<!--
.style2 {
	font-family:"Courier New", Courier, monospace;
	font-size: 14px;
}
-->






SMBM01 VBRR 211200

AAXX 21124

48001 21220 80000 10260 20246 40021 76322 8692/ 333

10305 56269 59012 60022=

48004 22458 53201 10284 20268 70265 85900 333 10298

56500 60132=

48008 22556 62301 10324 20265 40001 83970 333 10335

56450 59006 60182=

48010 22440 60000 10280 20268 40015 83731 333 10298

56556 59010 60032=

48018 32560 41401 10325 20236 40009 70122 82870 333

10345 56440 59011 60002=

48019 32556 52702 10332 20258 40008 82103 333 10347

56560 59001=

48020 32356 73202 10325 20259 84840 333 10350 56440=

48025 21340 62201 10302 20266 40011 70155 84770 333

10315 56440 59002 60032=

48035 32560 42205 10284 20220 40003 83960 333 10318

56590 58005=

48037 32558 51803 10340 20240 40004 83831 333 10365

56449 59001=

48042 32559 71803 10344 20225 40004 71803 84950 333

10377 56440 59003=

48045 21450 51403 10211 20175 70164 85300 333 10226

56500 60092=

48048 32550 61801 10317 20248 40014 84950 333 10353

56490 58000 60002=

48051 21458 71303 10270 20270 70252 85970 333 10313

56490 60182=

48053 32456 71805 10290 20248 40003 84956 333 10345

56499 58004=

48060 32330 72204 10302 20185 49988 70322 85370 333

10330 56690 59011=

48062 21450 81809 10260 20260 40022 76566 869// 333

10285 569// 58010 60452=

48071 21356 82304 10255 20255 40037 76366 8692/ 333

10295 5649/ 58015 60622=

48075 22456 62201 10280 20220 40048 70222 83831 333

10300 56569 58019 60072=

48077 22556 72302 10288 20248 40036 85931 333 10310

56499 58005 60092=

48078 21440 81401 10249 20242 40071 75065 8672/ 333

10305 56499 58012 60102=

48080 21456 81302 10265 20240 40048 75065 86720 333

10305 56490 58017 60262=

48085 21356 81401 10268 20256 40052 70265 86920 333

10300 56390 58013 60372=

48095 21450 82201 10250 20250 75155 8497/ 333 10292

5699/ 60142=

48108 22596 82301 10283 20209 40088 84377 333 10316

56599 58013 60992=

48109 32496 72302 10302 20266 40057 86930 333 10323

56990 58003=

48110 21496 80000 10285 20247 40085 75155 84367 333

10300 56599 58005 60022=

48112 21496 82702 10252 20252 40082 71795 8697/ 333

10282 5669/ 58007 60102=

48030 21/03 90403 10180 20180 75055 333 10215 60022=

48072 21356 80000 10250 20250 76065 86970 333 10280

56990 61422=

48087 22450 80000 10252 20252 70365 8597/ 333 10306

5649/ 60152=

48099 21330 81801 10250 20250 40060 76065 8692/ 333

10300 5649/ 59001 60162=

48101 21450 82303 10260 20246 76165 8697/ 333 10306

5659/ 60272=

48103 21330 82201 10277 20268 40064 75055 8677/ 333

10307 5655/ 59002 60244=

48057 32456 61301 10230 20181 85350 333 10256 56590=

48094 21456 82202 10250 20250 40063 76066 8697/ 333

10285 56599 58018 60252=

48097 21457 72302 10260 20253 40071 70165 85336 333

10280 56999 58004 60172=

48031 21/03 92202 10200 20200 74744 333 10210 56000

60042=

48033 32562 51801 10350 20237 40029 85900 333 10360

56500 58006=

48034 21456 52301 10243 20191 70155 85300 333 10265

56500 69902=

48039 32460 72201 10335 20257 84960 333 10351 56110

60002=

48043 32530 41805 10260 20215 82230 333 10275 56590

60002=

48052 22450 51301 10308 20267 85900 333 10340 56900

=

48055 32556 60000 10290 20223 40007 84341 333 10300

56559 58001=

48064 32450 80401 10303 20239 40005 84870 333 10323

56449 59002=

48065 22450 70000 10312 20237 85370 333 10340 56990

60022=

48074 21350 82301 10260 20246 40069 76096 8592/ 333

10330 56499 58018 60082=

48092 21450 80000 10260 20246 40045 70255 8697/ 333

10310 5699/ 58014 60112=

48093 21440 80401 10256 20246 70255 8637/ 333 10310

56999 60292=

48107 32330 62301 10288 20248 40069 84970 333 10318

56550 59008 60002=  





