



*-*-*


<!--
.style2 {
	font-family:"Courier New", Courier, monospace;
	font-size: 14px;
}
-->






SMBM01 VBRR 210600

AAXX 21064

48001 32440 20401 10290 20259 40104 82100 333 56500

58000=

48004 32563 10401 10300 20207 81100 333 56900=

48008 32958 00401 10310 20225 40107 333 58007=

48010 NIL=

48018 32560 21401 10315 20237 40113 82800 333 56800

59004=

48019 32460 12602 10328 20212 40103 81200 333 56700

58005=

48020 32462 23604 10320 20265 82200 333 56400=

48025 32458 30401 10310 20254 40112 82840 333 56340

58002=

48035 32560 11402 10271 20172 40085 81200 333 56900

58007=

48037 32460 53601 10310 20237 40106 85300 333 56200

58012=

48042 32557 22702 10326 20234 40088 82200 333 56900

59005=

48045 32557 52203 10238 20191 84330 333 56560=

48048 32560 22201 10325 20248 40104 82800 333 56900

58001=

48051 32558 33601 10307 20270 83200 333 56700=

48053 32558 33601 10330 20234 40103 83800 333 56800

58007=

48060 32356 12701 10288 20159 40062 81100 333 56400

59009=

48062 32458 30902 10310 20280 40105 83900 333 56900

58001=

48071 32460 23202 10310 20254 40111 82800 333 56900

58005=

48075 32457 21401 10280 20184 40105 82100 333 56300

58012=

48077 32559 40000 10320 20265 40096 84800 333 56900

58003=

48078 32560 23601 10318 20248 40104 81201 333 56909

58005=

48080 32562 42205 10314 20255 40103 83830 333 56390

58005=

48085 32458 22703 10308 20254 40100 82800 333 56900

58002=

48095 32560 30000 10320 20265 83800 333 56900=

48108 32596 63203 10330 20258 40096 84306 333 56709

58003=

48109 32497 40000 10328 20258 40109 84900 333 56900

58005=

48110 31596 43203 10330 20258 40097 70522 83306 333

56909 58001=

48112 32597 80402 10330 20275 40099 83876 333 56199

59005=

48030 31256 60401 10203 20150 70144 86900 333 56100=

48072 32460 10402 10310 20254 81200 333 56900=

48087 32560 30000 10342 20270 83800 333 56100=

48099 32458 43203 10330 20258 40093 84900 333 56900

58007=

48101 32660 20402 10340 20257 82100 333 56800=

48103 32456 53202 10334 20244 40093 85700 333 56700

58004=

48057 32458 32202 10250 20167 83300 333 56400=

48094 32460 23202 10325 20265 40098 82800 333 56900

58004=

48097 32557 61303 10330 20251 40099 86300 333 56900

59005=

48031 32260 41801 10250 20167 84800 333 56400=

48033 32563 23601 10320 20248 40109 82500 333 56900

58019=

48034 32457 41802 10288 20179 84800 333 56500=

48039 32460 20000 10310 20237 82100 333 56100=

48043 32658 33205 10270 20211 83200 333 56500=

48052 32458 20000 10338 20257 82200 333 56900=

48055 31557 30903 10279 20194 40084 70244 83800 333

56500 58005=

48064 32557 20401 10320 20281 40084 82800 333 56800

59007=

48065 32560 12201 10328 20234 81100 333 56900=

48074 32961 03202 10310 20254 40117 333 58019=

48092 32459 50000 10323 20248 40077 85900 333 56900

58005=

48093 32558 41401 11026 20258 84800 333 56300=

48107 32350 61301 10318 20265 40091 84970 333 56660

58002=

48096 32459 33601 10320 20248 40099 83300 333 56200

58007=  





