



*-*-*


<!--
.style2 {
	font-family:"Courier New", Courier, monospace;
	font-size: 14px;
}
-->






SIBM20 VBRR 220300

AAXX 22034
48001 21440 80000 10205 20195 40126 75355 8672/ 333 56439 58018=
48004 21220 83201 10228 20214 75052 8697/ 333 56559=
48008 22556 80000 10240 20209 40102 83970 333 56110 58003=
48010 22440 83601 10240 20209 40109 887// 333 56599 58011=
48018 22558 63301 10245 20219 40100 83870 333 56560 58012=
48019 22456 82701 10250 20219 40096 8577/ 333 56459 59005=
48020 21256 80000 10230 20212 72055 8477/ 333 56669=
48025 21330 61401 10254 20186 40100 70295 84970 333 56560 58002=
48030 21250 52201 10167 20117 70196 85900 333 56500=
48031 21260 63201 10150 20130 70195 86800 333 56400=
48033 32562 73302 10280 20233 40119 85970 333 56660 58043=
48034 22456 62301 10208 20160 84530 333 56550=
48035 31556 50000 10204 20122 40166 70596 84960 333 56590 58027=
48037 22456 83802 10289 20179 40116 8487/ 333 56659 58034=
48039 32459 61401 10301 20207 84850 333 56550=
48042 32557 41303 10320 20215 40096 82850 333 56660 58005=
48043 32056 33206 10240 20209 80030 333 56090=
48045 22560 73204 10211 20091 85820 333 56590=
48048 22558 70401 10314 20225 40105 85950 333 56590 58023=
48051 22559 43620 10268 20240 333 56790=
48052 22460 72203 10282 20203 333 56590=
48053 31540 71803 10293 20248 40104 71799 85950 333 56590 58012=
48055 22556 23602 10238 20174 40108 82800 333 56600 58018=
48057 21457 81403 10200 20168 79595 86970 333 56690=
48060 22440 10000 10238 20174 40126 81100 333 56500 58034=
48062 NIL=
48064 32460 83201 10330 20244 40083 84800 333 56500 58009=
48065 32460 70000 10334 20212 83831 333 56999=
48071 22458 62301 10272 20240 40120 86900 333 56900 58001=
48072 22459 30402 10325 20256 82330 333 56790=
48074 32458 31402 10310 20254 40116 81351 333 56149 58002=
48075 32557 20000 10290 20230 40109 82200 333 56500 58012=
48077 22559 20000 10324 20236 40097 81201 333 56909 58001=
48078 32557 32301 10313 20260 40122 82501 333 56509 58015=
48080 32459 53202 10320 20281 40124 83870 333 56590 58008=
48085 32958 03205 10328 20248 40115 333 58002=
48087 32960 00402 10334 20224 333 56000=
48092 31456 32302 10310 20246 40094 70522 83800 333 56500 58003=
48093 32958 03201 10323 20248=
48094 32459 23203 10320 20260 40118 82500 333 56900 58008=
48095 32958 00000 10325 20248=
48096 32558 11804 10300 20253 40121 81100 333 56600 58008=
48097 32557 22402 10315 20242 40130 82500 333 56900 58009=
48099 32456 41302 10312 20254 40119 84900 333 56300 58008=
48101 32559 53203 10307 20254 84230 333 56690=
48103 32456 52201 10323 20265 40118 85800 333 56500 58005=
48107 32350 42301 10296 20239 40116 84900 333 56500 58001=
48108 32596 60503 10321 20256 40123 83866 333 56139 59016=
48109 32497 50401 10315 20265 40133 84930 333 56990 59000=
48110 31596 43204 10325 20261 40119 70522 83306 333 56909 59002=
48112 32598 60401 10325 20248 40116 82216 333 56199 59010=  
SIBM20 VBRR 220300

AAXX 22034
48001 21440 80000 10205 20195 40126 75355 8672/ 333 56439 58018=
48004 21220 83201 10228 20214 75052 8697/ 333 56559=
48008 22556 80000 10240 20209 40102 83970 333 56110 58003=
48010 22440 83601 10240 20209 40109 887// 333 56599 58011=
48018 22558 63301 10245 20219 40100 83870 333 56560 58012=
48019 22456 82701 10250 20219 40096 8577/ 333 56459 59005=
48020 21256 80000 10230 20212 72055 8477/ 333 56669=
48025 21330 61401 10254 20186 40100 70295 84970 333 56560 58002=
48030 21250 52201 10167 20117 70196 85900 333 56500=
48031 21260 63201 10150 20130 70195 86800 333 56400=
48033 32562 73302 10280 20233 40119 85970 333 56660 58043=
48034 22456 62301 10208 20160 84530 333 56550=
48035 31556 50000 10204 20122 40166 70596 84960 333 56590 58027=
48037 22456 83802 10289 20179 40116 8487/ 333 56659 58034=
48039 32459 61401 10301 20207 84850 333 56550=
48042 32557 41303 10320 20215 40096 82850 333 56660 58005=
48043 32056 33206 10240 20209 80030 333 56090=
48045 22560 73204 10211 20091 85820 333 56590=
48048 22558 70401 10314 20225 40105 85950 333 56590 58023=
48051 22559 43620 10268 20240 333 56790=
48052 22460 72203 10282 20203 333 56590=
48053 31540 71803 10293 20248 40104 71799 85950 333 56590 58012=
48055 22556 23602 10238 20174 40108 82800 333 56600 58018=
48057 21457 81403 10200 20168 79595 86970 333 56690=
48060 22440 10000 10238 20174 40126 81100 333 56500 58034=
48062 NIL=
48064 32460 83201 10330 20244 40083 84800 333 56500 58009=
48065 32460 70000 10334 20212 83831 333 56999=
48071 22458 62301 10272 20240 40120 86900 333 56900 58001=
48072 22459 30402 10325 20256 82330 333 56790=
48074 32458 31402 10310 20254 40116 81351 333 56149 58002=
48075 32557 20000 10290 20230 40109 82200 333 56500 58012=
48077 22559 20000 10324 20236 40097 81201 333 56909 58001=
48078 32557 32301 10313 20260 40122 82501 333 56509 58015=
48080 32459 53202 10320 20281 40124 83870 333 56590 58008=
48085 32958 03205 10328 20248 40115 333 58002=
48087 32960 00402 10334 20224 333 56000=
48092 31456 32302 10310 20246 40094 70522 83800 333 56500 58003=
48093 32958 03201 10323 20248=
48094 32459 23203 10320 20260 40118 82500 333 56900 58008=
48095 32958 00000 10325 20248=
48096 32558 11804 10300 20253 40121 81100 333 56600 58008=
48097 32557 22402 10315 20242 40130 82500 333 56900 58009=
48099 32456 41302 10312 20254 40119 84900 333 56300 58008=
48101 32559 53203 10307 20254 84230 333 56690=
48103 32456 52201 10323 20265 40118 85800 333 56500 58005=
48107 32350 42301 10296 20239 40116 84900 333 56500 58001=
48108 32596 60503 10321 20256 40123 83866 333 56139 59016=
48109 32497 50401 10315 20265 40133 84930 333 56990 59000=
48110 31596 43204 10325 20261 40119 70522 83306 333 56909 59002=
48112 32598 60401 10325 20248 40116 82216 333 56199 59010=  





