



*-*-*


<!--
.style2 {
	font-family:"Courier New", Courier, monospace;
	font-size: 14px;
}
-->






SMBM01 VBRR 221200

AAXX 22124

48001 NIL=

48004 21110 80402 10256 20256 79596 8697/ 333 10214

56549 60202=

48008 22557 60000 10298 20266 40010 83970 333 10316

56450 59004 60312=

48010 32540 70000 10280 20268 40011 85970 333 10306

56550 59017 60002=

48018 NIL=

48019 22450 50000 10316 20265 40000 83260 333 10334

56450 59008 60022=

48020 22350 80000 10280 20268 84530 333 10290 56440

60212=

48025 22340 53201 10292 20259 40002 82841 333 10305

56899 59011 60012=

48035 NIL=

48037 NIL=

48042 NIL=

48045 NIL=

48048 NIL=

48051 NIL=

48053 NIL=

48060 NIL=

48062 NIL=

48071 NIL=

48075 NIL=

48077 NIL=

48078 NIL=

48080 NIL=

48085 NIL=

48095 NIL=

48108 NIL=

48109 NIL=

48110 NIL=

48112 NIL=

48030 NIL=

48072 NIL=

48087 NIL=

48099 NIL=

48101 NIL=

48103 NIL=

48057 NIL=

48094 NIL=

48097 NIL=

48031 NIL=

48033 NIL=

48034 NIL=

48039 NIL=

48043 NIL=

48052 NIL=

48055 NIL=

48064 NIL=

48065 NIL=

48074 NIL=

48092 NIL=

48093 NIL=

48107 NIL=  
SMBM01 VBRR 221200 RRA

AAXX 22124

48035 32560 62702 10280 20220 49992 84960 333 10305

56490 59012 60002=

48037 32558 61801 10340 20257 49986 83822 333 10360

56449 59015 60002=

48042 32558 71302 10327 20258 49987 85950 333 10350

56440 59013 60002=

48045 21002 91404 10214 20214 74564 89/// 333 10248

56999 60052=

48048 32550 42201 10327 20234 49991 84800 333 10343

56400 59021 60002=

48051 32558 51303 10298 20250 84930 333 10332 56490

60002=

48053 32458 71802 10310 20254 40009 84956 333 10355

56599 59001 60002=

48060 32430 51301 10275 20207 40000 70322 83806 333

10312 56609 59033 60002=

48062 22456 71804 10273 20260 40012 85970 333 10300

56490 59016 60052=

48071 22458 72302 10270 20256 40025 85970 333 10288

56990 59005 60012=

48075 21456 70000 10250 20219 40047 70296 85840 333

10290 56590 58004 60032=

48077 32556 80000 10290 20248 40021 85931 333 10322

56499 59007 60002=

48078 21450 81802 10261 20253 40044 75096 8672/ 333

10279 56499 58004 60162=

48080 21456 80404 10250 20250 40036 75265 86720 333

10305 56590 59002 60222=

48085 21356 82203 10284 20250 40035 75055 85976 333

10292 56699 59003 60002=

48095 22456 80000 10250 20250 84870 333 10295 56990

60172=

48108 21495 71801 10267 20243 40075 70255 84377 333

10272 56599 59008 60112=

48109 21396 82302 10265 20256 40063 75065 8697/ 333

10295 5699/ 59008 60032=

48110 21495 83202 10250 20233 40080 70255 84377 333

10290 56599 59010 60152=

48112 32597 82202 10285 20240 40078 76022 84876 333

10295 56599 59011 60002=

48030 21250 80401 10194 20194 72055 8694/ 333 10215

56189 60062=

48072 21456 82701 10260 20260 70365 86970 333 10295

56590 60102=

48099 21330 82303 10250 20250 40092 75165 8697/ 333

10270 5659/ 58004 60282=

48101 21556 72702 10267 20240 70152 84770 333 10302

56990 60012=

48103 21330 82201 10260 20260 40049 76066 8672/ 333

10283 5655/ 59000 60782=

48057 22456 72202 10228 20198 85950 333 10257 56390

60022=

48094 22456 80000 10275 20245 40045 8597/ 333 10305

5659/ 59004 60012=

48097 21557 81502 10245 20236 40048 75065 8695/ 333

10305 5699/ 59000 60042=

48031 21/02 90000 10198 20198 74744 89/// 333 10215

56999 60022=

48033 32562 71301 10310 20254 49998 85906 333 10340

56409 59024 60002=

48034 21356 82301 10230 20206 75096 8692/ 333 10275

5659/ 60052=

48039 32460 70000 10319 20265 84960 333 10345 56440

60002=

48052 32450 51301 10348 20266 85900 333 10368 56900

60002=

48055 22456 62201 10278 20233 40002 70166 84901 333

10292 56309 59021 60082=

48064 21450 71401 10280 20268 49994 79596 86901 333

10360 56409 58002 60082=

48065 21450 80402 10270 20270 70365 86370 333 10360

56990 60242=

48074 22456 71601 10260 20246 40037 85971 333 10314

56499 58001 60012=

48092 21456 82302 10250 20250 40023 75155 8597/ 333

10315 5659/ 58002 60032=

48093 21440 82701 10256 20246 75065 8697/ 333 10212

56999 60112=

48107 21330 82301 10252 20252 40069 76066 8597/ 333

10271 5655/ 59002 60442=  
SMBM01 VBRR 221200

AAXX 22124

48001 NIL=

48004 21110 80402 10256 20256 79596 8697/ 333 10214

56549 60202=

48008 22557 60000 10298 20266 40010 83970 333 10316

56450 59004 60312=

48010 32540 70000 10280 20268 40011 85970 333 10306

56550 59017 60002=

48018 NIL=

48019 22450 50000 10316 20265 40000 83260 333 10334

56450 59008 60022=

48020 22350 80000 10280 20268 84530 333 10290 56440

60212=

48025 22340 53201 10292 20259 40002 82841 333 10305

56899 59011 60012=

48035 NIL=

48037 NIL=

48042 NIL=

48045 NIL=

48048 NIL=

48051 NIL=

48053 NIL=

48060 NIL=

48062 NIL=

48071 NIL=

48075 NIL=

48077 NIL=

48078 NIL=

48080 NIL=

48085 NIL=

48095 NIL=

48108 NIL=

48109 NIL=

48110 NIL=

48112 NIL=

48030 NIL=

48072 NIL=

48087 NIL=

48099 NIL=

48101 NIL=

48103 NIL=

48057 NIL=

48094 NIL=

48097 NIL=

48031 NIL=

48033 NIL=

48034 NIL=

48039 NIL=

48043 NIL=

48052 NIL=

48055 NIL=

48064 NIL=

48065 NIL=

48074 NIL=

48092 NIL=

48093 NIL=

48107 NIL=  
SMBM01 VBRR 221200 RRA

AAXX 22124

48035 32560 62702 10280 20220 49992 84960 333 10305

56490 59012 60002=

48037 32558 61801 10340 20257 49986 83822 333 10360

56449 59015 60002=

48042 32558 71302 10327 20258 49987 85950 333 10350

56440 59013 60002=

48045 21002 91404 10214 20214 74564 89/// 333 10248

56999 60052=

48048 32550 42201 10327 20234 49991 84800 333 10343

56400 59021 60002=

48051 32558 51303 10298 20250 84930 333 10332 56490

60002=

48053 32458 71802 10310 20254 40009 84956 333 10355

56599 59001 60002=

48060 32430 51301 10275 20207 40000 70322 83806 333

10312 56609 59033 60002=

48062 22456 71804 10273 20260 40012 85970 333 10300

56490 59016 60052=

48071 22458 72302 10270 20256 40025 85970 333 10288

56990 59005 60012=

48075 21456 70000 10250 20219 40047 70296 85840 333

10290 56590 58004 60032=

48077 32556 80000 10290 20248 40021 85931 333 10322

56499 59007 60002=

48078 21450 81802 10261 20253 40044 75096 8672/ 333

10279 56499 58004 60162=

48080 21456 80404 10250 20250 40036 75265 86720 333

10305 56590 59002 60222=

48085 21356 82203 10284 20250 40035 75055 85976 333

10292 56699 59003 60002=

48095 22456 80000 10250 20250 84870 333 10295 56990

60172=

48108 21495 71801 10267 20243 40075 70255 84377 333

10272 56599 59008 60112=

48109 21396 82302 10265 20256 40063 75065 8697/ 333

10295 5699/ 59008 60032=

48110 21495 83202 10250 20233 40080 70255 84377 333

10290 56599 59010 60152=

48112 32597 82202 10285 20240 40078 76022 84876 333

10295 56599 59011 60002=

48030 21250 80401 10194 20194 72055 8694/ 333 10215

56189 60062=

48072 21456 82701 10260 20260 70365 86970 333 10295

56590 60102=

48099 21330 82303 10250 20250 40092 75165 8697/ 333

10270 5659/ 58004 60282=

48101 21556 72702 10267 20240 70152 84770 333 10302

56990 60012=

48103 21330 82201 10260 20260 40049 76066 8672/ 333

10283 5655/ 59000 60782=

48057 22456 72202 10228 20198 85950 333 10257 56390

60022=

48094 22456 80000 10275 20245 40045 8597/ 333 10305

5659/ 59004 60012=

48097 21557 81502 10245 20236 40048 75065 8695/ 333

10305 5699/ 59000 60042=

48031 21/02 90000 10198 20198 74744 89/// 333 10215

56999 60022=

48033 32562 71301 10310 20254 49998 85906 333 10340

56409 59024 60002=

48034 21356 82301 10230 20206 75096 8692/ 333 10275

5659/ 60052=

48039 32460 70000 10319 20265 84960 333 10345 56440

60002=

48052 32450 51301 10348 20266 85900 333 10368 56900

60002=

48055 22456 62201 10278 20233 40002 70166 84901 333

10292 56309 59021 60082=

48064 21450 71401 10280 20268 49994 79596 86901 333

10360 56409 58002 60082=

48065 21450 80402 10270 20270 70365 86370 333 10360

56990 60242=

48074 22456 71601 10260 20246 40037 85971 333 10314

56499 58001 60012=

48092 21456 82302 10250 20250 40023 75155 8597/ 333

10315 5659/ 58002 60032=

48093 21440 82701 10256 20246 75065 8697/ 333 10212

56999 60112=

48107 21330 82301 10252 20252 40069 76066 8597/ 333

10271 5655/ 59002 60442=  





