



*-*-*


<!--
.style2 {
	font-family:"Courier New", Courier, monospace;
	font-size: 14px;
}
-->






SIBM20 VBRR 220900

AAXX 22094

48001 NIL=

48004 31230 70000 10271 20271 75096 87900 333 56500=

48008 32557 60000 10310 20254 40013 83970 333 56450

59007=

48010 31556 71801 10295 20266 40018 71799 85970 333

56550 59023=

48018 32557 61401 10320 20220 40018 83870 333 56330

59002=

48019 22460 43201 10320 20265 40003 81202 333 56407

59007=

48020 21358 70903 10270 20256 72065 85730 333 56490=

48025 21130 70401 10280 20268 40020 72055 84770 333

56880 59014=

48035 32560 72703 10279 20220 40000 85970 333 56560

59004=

48037 32560 61802 10359 20264 40003 83270 333 56440

59015=

48042 32559 62201 10346 20240 49985 84950 333 56440

59031=

48045 21005 91402 10225 20214 76064 89/// 333 56999=

48048 32560 62201 10337 20257 40002 85950 333 56490

59013=

48051 32559 41303 10328 20260 84900 333 56900=

48053 32458 61805 10350 20280 40002 84956 333 56599

59019=

48060 32350 42202 10300 20207 49981 83302 333 56509

59043=

48062 22457 81806 10290 20270 40017 86970 333 56490

59017=

48071 22450 72304 10280 20250 40028 85970 333 56590

59010=

48075 21457 71401 10280 20233 40013 72162 85360 333

56590 59002=

48077 32559 80000 10300 20239 40024 85931 333 56499

59004=

48078 21560 61801 10257 20247 40039 72096 84371 333

56499 59001=

48080 21458 82203 10270 20255 40034 75055 85770 333

56590 59010=

48085 32458 72705 10290 20259 40034 85376 333 56999

59005=

48095 21458 82203 10250 20250 75155 84970 333 56990=

48108 21494 82302 10265 20258 40082 75155 8537/ 333

5649/ 58001=

48109 NIL=

48110 21495 82702 10250 20250 40088 75165 8632/ 333

5699/ 59000=

48112 32597 81801 10290 20259 40083 84876 333 56499

59018=

48030 21/05 90402 10202 20202 75054 89/// 333 56999=

48072 21459 82701 10290 20259 75055 86970 333 56590=

48087 22458 82301 10290 20259 70355 8497/ 333 5649/=

48099 21330 81301 10256 20256 40052 76165 8697/ 333

5639/ 58014=

48101 21457 82704 10262 20229 75065 8597/ 333 5699/=

48103 21356 82204 10272 20256 40051 70255 8772/ 333

5655/ 58009=

48057 21458 51401 10250 20205 70163 83931 333 56499=

48094 22456 82202 10285 20255 40045 8597/ 333 5659/

59002=

48097 21557 82402 10255 20255 40054 75096 8695/ 333

5669/ 59001=

48031 21/03 92201 10210 20195 74764 89/// 333 56999=

48033 32563 31801 10330 20258 49994 82501 333 56409

59004=

48034 21456 72301 10270 20233 70155 87300 333 56500=

48039 32460 61401 10340 20257 84902 333 56505=

48043 32556 81805 10250 20219 8587/ 333 56999=

48052 32468 42201 10366 20258 84800 333 56900=

48055 22356 72203 10272 20226 40007 70266 85930 333

56390 59033=

48064 32560 60401 10357 20264 49982 84831 333 56449

59010=

48065 32557 60000 10348 20290 85330 333 56990=

48074 21460 61402 10280 20280 40034 72055 84962 333

56549 59001=

48092 21496 82308 10270 20240 40026 76055 8597/ 333

5659/ 58006=

48093 21456 83201 10270 20256 75165 8697/ 333 56999=

48107 21350 72301 10263 20263 40071 70166 85970 333

5655/ 58007=  





