



*-*-*


<!--
.style2 {
	font-family:"Courier New", Courier, monospace;
	font-size: 14px;
}
-->






SIBM20 VBRR 220300

AAXX 22034

48001 31902 90000 10080 20073 40217 74544 333 59019=

48004 31905 92201 10106 20091 74644 333=

48008 32557 30000 10158 20123 40204 81430 333 56550

59000=

48010 31030 00000 10135 20113 40214 74044 333 58008=

48018 31556 53201 10143 20142 40193 71044 83870 333

56560 58001=

48019 32456 40401 10142 20140 40193 82850 333 56560

58009=

48020 31920 90000 10135 20124 74344 333=

48025 31003 83602 10142 20124 40213 74744 886// 333

56899 58018=

48035 31/01 90000 10139 20124 40192 74744 333 58013=

48037 32956 03601 10168 20150 40176 333 58013=

48042 31920 00000 10197 20168 40192 71044 333 58016=

48045 32960 01403 10111 20045 333=

48048 32958 00901 10180 20147 40201 333 58019=

48051 NIL=

48053 31940 03601 10190 20159 40194 71000 333 58019=

48060 31420 80402 10160 20144 40214 71044 8487/ 333

5659/ 59004=

48062 NIL=

48071 NIL=

48075 NIL=

48077 NIL=

48078 NIL=

48080 NIL=

48085 NIL=

48095 NIL=

48108 NIL=

48109 NIL=

48110 NIL=

48112 NIL=

48030 32957 02202 10112 20018 333=

48072 NIL=

48087 NIL=

48099 NIL=

48101 NIL=

48103 NIL=

48057 32456 21401 10190 20096 81501 333 56409=

48094 NIL=

48097 NIL=

48031 32258 21401 10140 20029 82800 333 56400=

48033 32962 03601 10180 20147 40195 333 58040=

48034 31956 02301 10105 20085 71000 333=

48039 31940 30000 10183 20165 74044 80002 333 56009=

48043 32056 00000 10130 20113 333=

48052 31956 03201 10193 20159 70522 333=

48055 31248 10000 10131 20113 40204 74044 81100 333

56500 59003=

48064 32956 11401 10178 20147 40196 80001 333 56009

58028=

48065 32957 13202 10185 20147 80030 333 56090=

48074 32958 03204 10190 20159 40191 333 58013=

48092 NIL=

48093 NIL=

48107 NIL=

48096 NIL=  
SIBM20 VBRR 220300 RRA

AAXX 22034

48051 32958 03603 10179 20150 333=

48071 32958 03202 10232 20198 40186 333 58013=

48075 31956 20401 10160 20144 40217 70144 80005 333

56009 58025=

48077 32959 00402 10214 20160 40178 333 58017=

48078 32950 10401 10198 20159 40177 80001 333 56009

58003=

48080 31959 00401 10172 20154 40173 70244 333 58008=

48085 31958 00000 10215 20195 40175 70144 333 58010=

48095 32458 50404 10220 20173 83602 333 56909=

48108 32595 60501 10250 20196 40162 83536 333 56999

58001=

48109 32497 20000 10286 20215 40170 81501 333 56909

58004=

48110 21596 83602 10285 20209 40155 70522 81357 333

56999 58003=

48112 32597 80405 10265 20251 40152 83876 333 56199

58010=

48072 31959 03201 10235 20191 70500 333=

48087 32956 00403 10222 20156 333=

48099 31440 21302 10258 20203 40166 71011 82800 333

56900 58006=

48101 32958 23602 10243 20191 80005 333 56099=

48103 32450 20406 10255 20203 40172 82500 333 56100

58007=

48094 32958 03201 10230 20180 40175 333 58003=

48097 31557 50402 10250 20176 40175 70522 82506 333

56909 58003=

48092 32457 13201 10220 20173 40166 81500 333 56900

58022=

48093 32557 30401 10252 20205 82801 333 56109=

48107 31950 20902 10250 20219 40148 7//44 80006 333

56009 58003=

48096 32957 33607 10240 20174 40179 80004 333 56009

58006=  





