



*-*-*


<!--
.style2 {
	font-family:"Courier New", Courier, monospace;
	font-size: 14px;
}
-->






SIBM20 VBRR 220900

AAXX 22094

48001 32556 60401 10208 20175 40173 82100 333 56100

58013=

48004 32562 31301 10219 20136 70211 83800 333 56500=

48008 32557 10000 10140 20114 40167 81400 333 56900

58013=

48010 32560 10000 10255 20160 40165 81100 333 56900

58008=

48018 32560 21401 10260 20160 40164 82800 333 56500

58008=

48019 32960 03201 10247 20167 40162 333 58013=

48020 32358 23602 10240 20174 82200 333 56400=

48025 32440 30401 10235 20124 40179 82440 333 56590

58018=

48035 31958 02203 10246 20046 40137 70511 333 58020=

48037 32960 00401 10270 20154 40156 333 58015=

48042 32956 00000 10280 20152 40147 333 58012=

48045 32561 11404 10190 20118 81100 333 56900=

48048 32960 00901 10280 20158 40155 333 58012=

48051 32959 03102 10277 20150 70200 333 56000=

48053 32956 01801 10290 20159 40152 333 58025=

48060 32440 40000 10248 20167 40145 82130 333 56550

58002=

48062 32957 00403 10300 20250 40142 333 58007=

48071 32958 03204 10272 20191 40147 333 58014=

48075 32457 53203 10270 20154 40123 85800 333 56100

59009=

48077 32959 00401 10300 20166 40143 333 58024=

48078 32958 13202 10298 20158 40147 80001 333 56009

58024=

48080 32960 02206 10292 20196 40143 333 58013=

48085 32958 03203 10296 20207 40138 333 58013=

48095 32960 00402 10300 20185 333=

48108 32495 73203 10320 20215 40117 84336 333 56899

58002=

48109 NIL=

48110 32496 83203 10300 20215 40118 85377 333 56999

58006=

48112 32597 80407 10312 20282 40114 70222 83876 333

56199 58012=

48030 32960 02204 10167 29027 333=

48072 32960 03604 10290 20215 70122 333=

48087 32960 20403 10298 20166 80001 333 56009=

48099 32557 23202 10340 20184 40119 81801 333 56909

58006=

48101 32960 03603 10300 20185 333=

48103 32456 60402 10334 20291 40119 83830 333 56110

58009=

48057 32457 22202 10232 20074 82800 333 56500=

48094 32960 03201 10320 20200 40137 333 58012=

48097 32557 23601 10315 20176 40131 70211 82500 333

56900 59003=

48031 32960 01801 10185 20056 333=

48033 32963 03601 10270 20133 40152 70200 333 58030=

48034 32956 01801 10230 20110 333=

48039 32958 21401 10272 20172 80002 333 56009=

48043 32057 03206 10215 20156 333=

48052 32958 03202 10314 20189 333=

48055 32556 22505 10273 20133 40112 82800 333 56500

59003=

48064 32960 21401 10242 20191 40144 80006 333 56009

58026=

48065 32960 00402 10282 20146 333=

48074 32958 00402 10310 20169 40144 333 58002=

48092 32958 02702 10315 20184 40109 333 58005=

48093 32958 10401 10318 20215 70111 80001 333 56009=

48107 32350 50401 10323 20215 40115 84930 333 56330

58007=

48096 32959 13405 10320 20200 40132 333 80001 56009

58008=  





