



*-*-*


<!--
.style2 {
	font-family:"Courier New", Courier, monospace;
	font-size: 14px;
}
-->






SMBM01 VBRR 220050

AAXX 22004

48001 NIL=

48004 NIL=

48008 31550 63201 10168 20135 40134 71044 83970 333 20145 56560 59001 60002=

48010 31210 20000 10162 20160 40128 74044 82600 333 20155 56800 58001 60002=

48018 32520 10000 10165 20144 40122 81100 333 20150 56900 59011 60002=

48019 32940 00000 10148 20124 40119 333 20142 59005 60002=

48020 NIL=

48025 31110 12201 10166 20154 40124 74044 81200 333 20160 56900 59017 60002=

48030 31950 02201 10087 20008 70544 333 20034 60002=

48031 31950 00000 10110 20091 70500 333 20105 60002=

48033 32960 00000 10160 20154 40118 333 20160 58000 60002=

48034 31940 00000 10078 20055 71000 333 20065 60002=

48035 31903 90000 10081 20080 40154 74744 333 20075 59013 60002=

48037 32910 03601 10180 20147 40106 333 20172 58002 60002=

48039 31450 30000 10176 20147 71011 83400 333 20175 56900 60002=

48042 31940 00000 10180 20147 40109 71000 333 20170 59003 60002=

48043 32020 00000 10110 20091 333 20070 60002=

48045 NIL=

48048 32940 00000 10145 20140 40112 333 20145 59007 60002=

48051 32940 03102 10150 20130 70200 333 20140 56000 60002=

48052 32950 00000 10160 20123 333 20150 60002=

48053 32930 00000 10170 20117 40102 333 20127 59012 60002=

48055 31940 00000 10055 20050 40178 71011 333 20052 58000 60002=

48057 32956 00000 10112 20069 333 20092 60002=

48060 32920 00000 10100 20079 40071 333 20086 56005 60002=

48062 NIL=

48064 32950 01401 10163 20123 40089 333 20123 59014 60002=

48065 32950 00000 10167 20154 333 20153 60002=

48071 31910 00000 10250 20195 40121 74444 333 20180 58000 60002=

48072 NIL=

48074 32950 00000 10186 20154 40127 333 20171 58004 60002=

48075 31956 00000 10110 20110 40172 71022 333 20100 59012 60002=

48077 31956 00000 10184 20147 40103 71000 333 20158 59013 60002=

48078 32950 10000 10182 20129 40120 80001 333 20150 56009 58001 60002=

48080 31950 00000 10132 20113 40121 71044 333 20120 58000 60002=

48085 NIL=

48087 31310 60000 10146 20134 74244 866// 333 20134 569// 60002=

48092 NIL=

48093 NIL=

48094 NIL=

48095 NIL=

48097 31550 10000 10210 20195 40124 71011 81100 333 20206 56900 58022 60002=

48099 32330 30000 10220 20205 40116 82830 333 20210 56990 58000 60002=

48101 31950 10000 10195 20185 74044 80001 333 20169 56009 60002=

48103 31440 30401 10216 20205 40112 74044 83500 333 20204 56100 59001 60002=

48107 31930 00902 10210 20195 40106 74144 333 20196 59005 60002=

48108 31593 70000 10220 20213 40122 71022 83567 333 20200 56999 58003 60002=

48109 31996 00000 10220 20205 40125 71022 333 20210 58008 60002=

48110 21594 51302 10245 20229 40126 70522 83306 333 20245 56909 58011 60012=

48112 32597 70401 10252 20219 40116 83876 333 20206 56199 58004 60002=  





