



*-*-*


<!--
.style2 {
	font-family:"Courier New", Courier, monospace;
	font-size: 14px;
}
-->






SIBM20 VBRR 220900

AAXX 22094

48001 NIL=

48004 32460 43202 10261 20179 84900 333 56500=

48008 32557 70402 10273 20133 40121 83970 333 56560

58020=

48010 22560 30000 10275 20184 40109 81401 333 56609

58018=

48018 32560 71401 10270 20154 40119 84870 333 56550

58013=

48019 32458 70402 10278 20172 40116 85770 333 56560

58001=

48020 NIL=

48025 31456 43201 10308 20146 40114 70544 82540 333

56550 59022=

48035 31560 52203 10280 20043 40068 70500 83860 333

56790 59005=

48037 32558 23601 10337 20145 40092 82100 333 56600

58010=

48042 32958 02702 10348 20143 40080 333 59013=

48045 32560 21404 10256 20039 82800 333 56500=

48048 32962 03601 10340 20164 40102 333 58006=

48051 32559 13605 10332 20150 81200 333 56900=

48053 31950 02702 10350 20143 40091 70522 333 58002=

48060 32450 22303 10322 20124 40076 82100 333 56500

58009=

48062 32950 02701 10300 20220 40116 333 58006=

48071 32960 03203 10280 20220 40121 333 58010=

48075 31957 02201 10310 20070 40084 70511 333 59019=

48077 32959 00000 10350 20132 40093 333 58007=

48078 32556 21801 10357 20139 40091 81201 333 56909

58001=

48080 32960 02203 10330 20258 40107 333 58010=

48085 32958 03203 10295 20215 40111 333 58013=

48095 32960 12202 10345 20164 80002 333 56009=

48108 32596 72306 10330 20244 40113 84366 333 56699

58020=

48109 32997 00401 10310 20237 40125 333 58015=

48110 31596 43205 10350 20250 40107 70522 83305 333

56909 58018=

48112 NIL=

48030 31256 62205 10184 20086 70544 86800 333 56500=

48072 32960 02705 10295 20185 333=

48087 NIL=

48099 32458 52301 10348 20219 40101 84301 333 56509

58005=

48101 32960 12702 10325 20162 80001 333 56009=

48103 32457 30401 10347 20202 40104 83800 333 56100

58018=

48057 32458 23203 10242 20095 82800 333 56500=

48094 32460 33203 10345 20190 40111 82840 333 56990

58021=

48097 32557 42404 10345 20161 40108 82130 333 56490

58010=

48031 31257 51801 10214 20072 70522 85800 333 56400=

48033 32963 03601 10330 20172 40098 333 58010=

48034 NIL=

48039 32457 22201 10333 20151 82100 333 56500=

48043 32958 03206 10260 20119 333=

48052 32970 03202 10260 20156 333=

48055 31556 42203 10291 20076 40061 70511 84800 333

56500 59001=

48064 32970 01401 10350 20202 40086 333 58018=

48065 32970 00000 10350 20158 333=

48074 32960 02303 10355 20132 40099 333 58015=

48092 32558 32303 10350 20143 40092 81430 333 56990

58021=

48093 32958 11401 10346 20182 80001 333 56009=

48107 32350 22302 10340 20184 40102 82900 333 56500

58015=  
SIBM20 VBRR 220900 RRA

AAXX 22094

48034 32457 31804 10253 20046 83800 333 56500=  





