



*-*-*


<!--
.style2 {
	font-family:"Courier New", Courier, monospace;
	font-size: 14px;
}
-->






SMBM01 VBRR 221800

NIL=  
SMBM01 VBRR 221800 RRA

AAXX 22184

48008 31510 40000 10200 20150 40135 71044 82430 333 56560 58019=

48010 22501 20000 10175 20172 40125 50030 333 56070 58015=

48018 32910 00000 10190 20159 40138 333 58032=

48025 32905 03201 10220 20171 40146 333 58030=

48042 32950 00000 10217 20156 40116 333 58014=

48053 32940 00000 10200 20130 40136 333 58046=

48057 32939 01401 10160 20106 333=

48060 32910 00000 10120 20102 40150 333 59002=

48062 32550 23202 10232 20200 40147 82500 333 56900 58018=

48071 32920 00000 10230 20214 40125 333 58010=

48078 NIL=

48080 32940 00000 10182 20147 40137 333 58015=

48094 32950 00000 10220 20210 40126 333 58008=

48097 32956 22301 10230 20198 40126 80001 333 56009 58010=

48099 32930 00000 10240 20209 40123 333 58014=

48103 32510 23201 10248 20205 40116 82500 333 56700 58016=

48108 31594 50901 10250 20219 40138 71022 82406 333 56909 58012=

48109 32495 30000 10260 20229 40129 83500 333 56900 58012=

48110 31594 33602 10265 20227 40133 70511 81305 333 56909 58010=

48112 32597 70403 10252 20219 40118 83876 333 56199 58010=  





