



*-*-*


<!--
.style2 {
	font-family:"Courier New", Courier, monospace;
	font-size: 14px;
}
-->






SIBM20 VBRR 220300

AAXX 22034

48001 31450 80901 10150 20143 40167 70322 8497/ 333

56439 58007=

48004 32358 70402 10189 20159 87900 333 56500=

48008 31556 31401 10200 20130 40158 71044 82430 333

56560 58011=

48010 21430 83601 10170 20170 40154 75196 8592/ 333

56779 58003=

48018 31556 30401 10200 20168 40158 70344 82810 333

56550 58015=

48019 32960 03603 10218 20143 40143 333 59001=

48020 32358 60402 10180 20165 84740 333 56550=

48025 31120 33202 10188 20159 40149 74044 83800 333

56500 58007=

48035 31560 61202 10159 20106 40165 70544 84860 333

56590 58012=

48037 32956 03601 10221 20136 40137 333 58010=

48042 31956 01401 10237 20136 40125 70500 333 59008=

48045 32961 00403 10175 20031 333=

48048 32560 10401 10210 20143 40143 81500 333 56900

58003=

48051 32958 00402 10228 20140 70200 333=

48053 31950 01801 10220 20136 40131 70500 333 59005=

48060 32430 10000 10160 20106 40168 81100 333 56500

58002=

48062 32956 00902 10225 20192 40137 333 58005=

48071 31456 30000 10234 20214 40146 71040 83800 333

56900 58010=

48075 31957 03601 10180 20130 40152 70511 333 59017=

48077 32959 00000 10220 20156 40122 333 59002=

48078 32956 11801 10237 20159 40142 80001 333 56009

58002=

48080 31959 00402 10203 20168 40142 70244 333 58003=

48085 31957 10000 10234 20198 40129 71044 80030 333

56090 59003=

48095 32958 20401 10240 20226 80002 333 56009=

48108 32596 61402 10265 20227 40145 83866 333 56499

58013=

48109 32997 00401 10280 20233 40141 70222 333 58005=

48110 21595 21802 10295 20242 40146 70511 81305 333

56909 58012=

48112 32598 60401 10280 20220 40135 82216 333 56199

58009=

48030 31956 02201 10127 20044 70544 333=

48072 31957 40000 10240 20226 71044 82330 333 56690=

48087 32956 00000 10230 20181 333=

48099 32450 20401 10265 20203 40140 70111 82800 333

56900 58003=

48101 32959 03201 10252 20215 333=

48103 31456 20402 10260 20229 40139 70144 82500 333

56100 58010=

48057 32958 01402 10200 20085 333 56000=

48094 32459 33201 10255 20230 40133 82540 333 56990

59001=

48097 31557 22301 10275 20188 40142 70511 82500 333

56900 58002=

48031 32957 03601 10145 20056 70500 333=

48033 32962 00901 10230 20168 40134 333 58020=

48034 32456 60000 10124 20081 84530 333 56550=

48039 31956 20402 10222 20136 70511 80002 333 56005=

48043 32056 00000 10185 20096 333=

48052 32960 03201 10220 20136 333=

48055 31948 00000 10169 20097 40155 70500 333 59007=

48064 32960 01401 10200 20150 40123 333 58002=

48065 32960 00000 10232 20143 333=

48074 32958 01403 10230 20143 40142 333 58008=

48092 31950 11301 10255 20204 40119 70511 80030 333

56090 59001=

48093 32957 10401 10240 20191 70111 80001 333 56009=

48107 31340 41301 10256 20215 40133 70144 84800 333

56500 58011=  
SIBM20 VBRR 220300

AAXX 22034

48001 31450 80901 10150 20143 40167 70322 8497/ 333 56439 58007=

48004 32358 70402 10189 20159 87900 333 56500=

48008 31556 31401 10200 20130 40158 71044 82430 333 56560 58011=

48010 21430 83601 10170 20170 40154 75196 8592/ 333 56779 58003=

48018 31556 30401 10200 20168 40158 70344 82810 333 56550 58015=

48019 32960 03603 10218 20143 40143 333 59001=

48020 32358 60402 10180 20165 84740 333 56550=

48025 31120 33202 10188 20159 40149 74044 83800 333 56500 58007=

48030 31956 02201 10127 20044 70544 333=

48031 32957 03601 10145 20056 70500 333=

48033 32962 00901 10230 20168 40134 333 58020=

48034 32456 60000 10124 20081 84530 333 56550=

48035 31560 61202 10159 20106 40165 70544 84860 333 56590 58012=

48037 32956 03601 10221 20136 40137 333 58010=

48039 31956 20402 10222 20136 70511 80002 333 56005=

48042 31956 01401 10237 20136 40125 70500 333 59008=

48043 32056 00000 10185 20096 333=

48045 32961 00403 10175 20031 333=

48048 32560 10401 10210 20143 40143 81500 333 56900 58003=

48051 32958 00402 10228 20140 70200 333=

48052 32960 03201 10220 20136 333=

48053 31950 01801 10220 20136 40131 70500 333 59005=

48055 31948 00000 10169 20097 40155 70500 333 59007=

48057 32958 01402 10200 20085 333 56000=

48060 32430 10000 10160 20106 40168 81100 333 56500 58002=

48062 32956 00902 10225 20192 40137 333 58005=

48064 32960 01401 10200 20150 40123 333 58002=

48065 32960 00000 10232 20143 333=

48071 31456 30000 10234 20214 40146 71040 83800 333 56900 58010=

48072 31957 40000 10240 20226 71044 82330 333 56690=

48074 32958 01403 10230 20143 40142 333 58008=

48075 31957 03601 10180 20130 40152 70511 333 59017=

48077 32959 00000 10220 20156 40122 333 59002=

48078 32956 11801 10237 20159 40142 80001 333 56009 58002=

48080 31959 00402 10203 20168 40142 70244 333 58003=

48085 31957 10000 10234 20198 40129 71044 80030 333 56090 59003=

48087 32956 00000 10230 20181 333=

48092 31950 11301 10255 20204 40119 70511 80030 333 56090 59001=

48093 32957 10401 10240 20191 70111 80001 333 56009=

48094 32459 33201 10255 20230 40133 82540 333 56990 59001=

48095 32958 20401 10240 20226 80002 333 56009=

48097 31557 22301 10275 20188 40142 70511 82500 333 56900 58002=

48099 32450 20401 10265 20203 40140 70111 82800 333 56900 58003=

48101 32959 03201 10252 20215 333=

48103 31456 20402 10260 20229 40139 70144 82500 333 56100 58010=

48107 31340 41301 10256 20215 40133 70144 84800 333 56500 58011=

48108 32596 61402 10265 20227 40145 83866 333 56499 58013=

48109 32997 00401 10280 20233 40141 70222 333 58005=

48110 21595 21802 10295 20242 40146 70511 81305 333 56909 58012=

48112 32598 60401 10280 20220 40135 82216 333 56199 58009=  





