



*-*-*


<!--
.style2 {
	font-family:"Courier New", Courier, monospace;
	font-size: 14px;
}
-->






SMBM01 VBRR 221800

NIL=  
SMBM01 VBRR 221800 RRA

AAXX 22184

48008 31510 30000 10170 20154 40162 71044 82430 333 56190 59034=

48010 32501 20000 10170 20162 40186 82400 333 56900 59019=

48018 32910 00000 10150 20134 40182 333 59030=

48025 32905 03201 10190 20175 40188 333 59010=

48042 32950 00000 10190 20159 40156 333 59020=

48053 32540 40000 10180 20165 40164 82550 333 56690 59025=

48057 31939 21401 10132 20086 71011 80006 333 56009=

48062 31450 23202 10200 20200 40176 71011 82500 333 56900 58006=

48071 32930 03202 10240 20209 40146 333 59015=

48078 32950 10000 10193 20164 40163 80001 333 56009 59021=

48094 32450 20000 10221 20190 40158 82500 333 56900 59018=

48097 32556 32201 10200 20185 40174 83500 333 56900 59008=

48099 31940 00000 10216 20205 40145 71044 333 59012=

48103 32510 32201 10235 20174 40141 83500 333 56500 59019=

48108 32996 30504 10200 20168 40158 80007 333 56009 59018=

48109 32495 30000 10230 20198 40153 82501 333 56909 59013=

48110 31994 20000 10230 20198 40155 70511 80005 333 56009 59021=

48112 32597 70403 10231 20214 40140 83876 333 56199 59010=  





