



*-*-*


<!--
.style2 {
	font-family:"Courier New", Courier, monospace;
	font-size: 14px;
}
-->






SIBM20 VBRR 220900

AAXX 22094

48001 32456 30401 10223 20126 40171 83305 333 56509 58000=

48004 32562 32201 10253 20126 83800 333 56500=

48008 32557 10000 10268 20123 40169 81200 333 56300 59014=

48010 32562 21802 10280 20158 40160 82800 333 56900 59022=

48018 32560 20401 10265 20138 40185 82800 333 56500 58013=

48019 32960 01401 10268 20172 40169 333 59017=

48020 NIL=

48025 32558 53201 10278 20146 40161 83840 333 56550 59021=

48030 32956 02204 10200 20033 333=

48031 32268 12201 10190 20096 81200 333 56900=

48033 32563 12201 10310 20146 40144 81100 333 56900 59010=

48034 32457 31802 10234 20097 83500 333 56500=

48035 32560 32202 10241 20114 40144 83800 333 56900 58001=

48037 32662 23601 10314 20146 40145 81102 333 56809 59024=

48039 32460 22201 10285 20184 81102 333 56505=

48042 32559 23201 10300 20124 40157 81202 333 56909 59008=

48043 32657 33205 10220 20136 82202 333 56909=

48045 32560 41408 10208 20120 83801 333 56509=

48048 32560 20401 10310 20169 40159 82800 333 56900 59013=

48051 32559 13601 10304 20190 70111 81200 333 56900=

48052 32470 23201 10322 20184 82200 333 56900=

48053 32556 43602 10290 20140 40152 83501 333 56709 59022=

48055 32557 22305 10258 20119 40133 81101 333 56509 59012=

48057 32958 42702 10213 20072 80006 333 56009=

48060 NIL=

48062 31550 33203 10285 20230 40161 70511 83500 333 56900 59012=

48064 32970 01401 10270 20211 40141 333 59019=

48065 32970 00000 10312 20169 333=

48071 32960 03202 10280 20203 40161 333 59007=

48072 32460 23202 10285 20259 70122 82200 333 56900=

48074 32560 30000 10315 20163 40152 81101 333 56404 59024=

48075 32558 40000 10270 20130 40135 82506 333 56509 59014=

48077 32559 30000 10338 20145 40144 82201 333 56909 59012=

48078 32558 22701 10325 20109 40155 81101 333 56909 59010=

48080 32459 32203 10314 20237 40144 82230 333 56590 58001=

48085 32458 23205 10300 20207 40149 81806 333 56909 59009=

48087 32960 00402 10318 20184 333=

48092 32458 43202 10330 20172 40135 70322 83830 333 56990 58001=

48093 32658 10401 10314 20169 70311 81100 333 56500=

48094 32459 60401 10330 20230 40150 86900 333 56900 59007=

48095 32960 00901 10310 20189 333=

48097 32557 53303 10330 20138 40156 70222 85800 333 56900 59003=

48099 32558 33202 10330 20191 40139 83800 333 56700 59012=

48101 32960 03201 10307 20189 333=

48103 32556 43201 10332 20244 40139 84800 333 56700 59008=

48107 32350 23202 10326 20172 40124 82900 333 56300 59007=

48108 32596 50506 10335 20157 40142 82407 333 56909 59002=

48109 32497 40401 10306 20237 40158 83901 333 56909 59007=

48110 31996 23203 10330 20201 40136 70511 80005 333 56009 59003=

48112 32598 60403 10315 20260 40132 82216 333 56199 59014=  





