



*-*-*


<!--
.style2 {
	font-family:"Courier New", Courier, monospace;
	font-size: 14px;
}
-->






SMBM01 VBRR 220000 RRA

AAXX 22004

48001 NIL=

48004 21110 82201 10244 20244 70396 8697/ 333 20207 56559 60072=

48008 21440 80000 10245 20240 40034 79596 8497/ 333 20235 56569 58015

 60142=

48010 21430 80000 10255 20255 40027 70399 887// 333 20245 56799 58003

 69902=

48018 21440 83201 10260 20246 40038 71795 8597/ 333 20250 56559 58004

 60002=

48019 22450 80000 10263 20246 40025 8577/ 333 20260 56459 58000

 60002=

48020 NIL=

48025 32420 53202 10280 20250 40027 83841 333 20274 56899 58006=

48030 22256 72201 10177 20165 86940 333 20170 56560 60002=

48031 21258 71401 10184 20165 70644 85830 333 20175 56460 60002=

48033 32561 41801 10270 20240 40024 81506 333 20260 56909 59017=

48034 21356 80000 10214 20195 70365 8692/ 333 20205 5659/ 60032=

48035 21530 80000 10231 20214 40037 71096 8597/ 333 20225 56459 58003

 60022=

48037 32550 71401 10280 20250 40015 83521 333 20267 56659 59002=

48039 32456 71402 10268 20240 82552 333 20265 56555=

48042 32558 41801 10270 20240 40029 81452 333 20255 56449 59011=

48043 22030 30000 10205 20195 80032 333 20173 56099 60012=

48045 NIL=

48048 32550 30000 10283 20250 40018 83800 333 20278 56900 59016=

48051 32558 50401 10271 20260 83230 333 20267 56790 60002=

48052 32450 41802 10280 20250 83801 333 20275 56909 60002=

48053 32456 61802 10260 20246 40032 83556 333 20250 56599 58002=

48055 21230 70000 10217 20212 40050 71022 85970 333 20208 56590 59001

 60032=

48057 22456 51401 10196 20185 84350 333 20190 56490 60142=

48060 21330 80000 10227 20214 40048 75155 85970 333 20210 56590 59012

 60092=

48062 32556 60904 10290 20270 40031 83970 333 20250 56990 59006

 60002=

48064 32950 20401 10279 20250 40006 80031 333 20245 56499 59013

 60002=

48065 32450 40000 10272 20256 83101 333 20249 56509 60002=

48071 22450 70000 10275 20268 40033 85970 333 20265 56590 58000=

48072 NIL=

48074 32456 61401 10256 20246 40043 84760 333 20238 56550 59013=

48075 21456 60000 10220 20220 40065 70255 84830 333 20170 56590 59023

 60032=

48077 32556 80000 10258 20246 40037 85931 333 20240 56499 59005

 60002=

48078 NIL=

48080 21456 83201 10253 20233 40051 75165 85920 333 20240 56690 59008

 60132=

48085 21340 83203 10256 20254 40045 76396 86920 333 20255 56990 58001

 60342=

48087 22450 72301 10254 20254 84970 333 20240 56990 60162=

48092 21440 82301 10250 20250 40037 76166 889// 333 20240 565// 59014

 60582=

48093 21540 82301 10251 20250 75065 8697/ 333 20241 5699/ 60532=

48094 21350 80000 10245 20245 40052 79596 8592/ 333 20190 56699 58002

 60852=

48095 NIL=

48096 31450 81203 10250 20250 40065 75051 8597/ 333 20230 5659/

 58007=

48097 21456 80401 10245 20245 40058 75055 8597/ 333 20230 5669/

 59002=

48099 21330 80000 10250 20250 40061 79596 8697/ 333 20220 5699/ 59010

 60512=

48101 21556 72302 10277 20250 70265 84970 333 20215 56590 60082=

48103 21340 81401 10258 20246 40052 70296 8692/ 333 20245 5633/ 59012

 60202=

48107 21330 82301 10253 20253 40080 70166 8697/ 333 20244 5655/ 58002

 60232=

48108 21494 82301 10255 20255 40085 79596 8697/ 333 20240 5699/ 59006

 60552=

48109 NIL=

48110 21495 81803 10250 20250 40099 75199 8632/ 333 20245 5659/ 58002

 60512=

48112 21496 80402 10255 20255 40113 79595 8697/ 333 20205 5619/ 58017

 60112=  
SMBM01 VBRR 220000

AAXX 22004

48001 NIL=

48004 21110 82201 10244 20244 70396 8697/ 333 20207

56559 60072=

48008 21440 80000 10245 20240 40034 79596 8497/ 333

20235 56569 58015 60142=

48010 21430 80000 10255 20255 40027 70399 887// 333

20245 56799 58003 69902=

48018 21440 83201 10260 20246 40038 71795 8597/ 333

20250 56559 58004 60002=

48019 22450 80000 10263 20246 40025 8577/ 333 20260

56459 58000 60002=

48020 NIL=

48025 32420 53202 10280 20250 40027 83841 333 20274

56899 58006=

48035 21530 80000 10231 20214 40037 71096 8597/ 333

20225 56459 58003 60022=

48037 32550 71401 10280 20250 40015 83521 333 20267

56659 59002=

48042 32558 41801 10270 20240 40029 81452 333 20255

56449 59011=

48045 NIL=

48048 32550 30000 10283 20250 40018 83800 333 20278

56900 59016=

48051 32558 50401 10271 20260 83230 333 20267 56790

60002=

48053 32456 61802 10260 20246 40032 83556 333 20250

56599 58002=

48060 21330 80000 10227 20214 40048 75155 85970 333

20210 56590 59012 60092=

48062 32556 60904 10290 20270 40031 83970 333 20250

56990 59006 60002=

48071 22450 70000 10275 20268 40033 85970 333 20265

56590 58000=

48075 21456 60000 10220 20220 40065 70255 84830 333

20170 56590 59023 60032=

48077 32556 80000 10258 20246 40037 85931 333 20240

56499 59005 60002=

48078 NIL=

48080 21456 83201 10253 20233 40051 75165 85920 333

20240 56690 59008 60132=

48085 21340 83203 10256 20254 40045 76396 86920 333

20255 56990 58001 60342=

48095 NIL=

48108 21494 82301 10255 20255 40085 79596 8697/ 333

20240 5699/ 59006 60552=

48109 NIL=

48110 21495 81803 10250 20250 40099 75199 8632/ 333

20245 5659/ 58002 60512=

48112 21496 80402 10255 20255 40113 79595 8697/ 333

20205 5619/ 58017 60112=

48030 22256 72201 10177 20165 86940 333 20170 56560

60002=

48072 NIL=

48087 22450 72301 10254 20254 84970 333 20240 56990

60162=

48099 21330 80000 10250 20250 40061 79596 8697/ 333

20220 5699/ 59010 60512=

48101 21556 72302 10277 20250 70265 84970 333 20215

56590 60082=

48103 21340 81401 10258 20246 40052 70296 8692/ 333

20245 5633/ 59012 60202=

48057 22456 51401 10196 20185 84350 333 20190 56490

60142=

48094 21350 80000 10245 20245 40052 79596 8592/ 333

20190 56699 58002 60852=

48097 21456 80401 10245 20245 40058 75055 8597/ 333

20230 5669/ 59002=

48031 21258 71401 10184 20165 70644 85830 333 20175

56460 60002=

48033 32561 41801 10270 20240 40024 81506 333 20260

56909 59017=

48034 21356 80000 10214 20195 70365 8692/ 333 20205

5659/ 60032=

48039 32456 71402 10268 20240 82552 333 20265 56555=

48043 NIL=

48052 32450 41802 10280 20250 83801 333 20275 56909

60002=

48055 21230 70000 10217 20212 40050 71022 85970 333

20208 56590 59001 60032=

48064 32950 20401 10279 20250 40006 80031 333 20245

56499 59013 60002=

48065 32450 40000 10272 20256 83101 333 20249 56509

60002=

48074 32456 61401 10256 20246 40043 84760 333 20238

56550 59013=

48092 21440 82301 10250 20250 40037 76166 889// 333

20240 565// 59014 60582=

48093 21540 82301 10251 20250 75065 8697/ 333 20241

5699/ 60532=

48107 21330 82301 10253 20253 40080 70166 8697/ 333

20244 5655/ 58002 60232=  





