



*-*-*


<!--
.style2 {
	font-family:"Courier New", Courier, monospace;
	font-size: 14px;
}
-->






SMBM01 VBRR 221800

AAXX 22184

48008 31510 40000 10250 20186 40077 71044 82430 333 56450 59013=

48010 31001 00000 10220 20185 40088 70544 333 59020=

48025 31905 03201 10260 20138 40081 70544 333 59008=

48042 32950 00000 10287 20215 40073 333 59006=

48053 32940 00000 10260 20215 40093 333 59002=

48057 32957 01402 10212 20175 333=

48060 32910 00000 10193 20159 40125 333 59002=

48062 31940 03204 10252 20230 40096 71000 333 59010=

48071 32920 00000 10230 20214 40093 333 58002=

48078 32950 11403 10298 20223 40097 80001 333 56009 59011=

48080 31950 00000 10210 20175 40110 70500 333 59016=

48094 32950 00000 10230 20210 40115 333 58002=

48097 32956 01501 102602 0229 40108 333 59009=

48099 32330 40000 10284 20250 40105 84800 333 56900 59013=

48103 32510 42201 10281 20268 40092 84500 333 56500 59004=

48108 32595 41401 10270 20233 40123 82406 333 56909 59002=

48109 32995 00000 10258 20215 40102 333 59011=

48110 31595 50000 10270 20240 40117 70522 82306 333 56909 59011=

48112 32597 80402 10281 20250 40106 83876 333 56199 59012=  





