



*-*-*


<!--
.style2 {
	font-family:"Courier New", Courier, monospace;
	font-size: 14px;
}
-->






SIBM20 VBRR 220900

AAXX 22094

48001 32440 13601 10235 20209 40141 81100 333 56500

58000=

48004 32563 23201 10260 20160 81102 333 56909=

48008 32558 30000 10285 20179 40131 81830 333 56910

59000=

48010 32560 20000 10290 20196 40129 82800 333 56900

59001=

48018 32559 30000 10298 20185 40127 81865 333 56776

58004=

48019 32960 01402 10299 20179 40123 333 58010=

48020 32460 10403 10282 20203 81200 333 56400=

48025 32456 33601 10280 20184 40139 82140 333 56990

58004=

48035 32560 23202 10266 20154 40103 82100 333 56900

58000=

48037 32060 03601 10312 20169 40136 333 58026=

48042 32559 23202 10310 20189 40105 82200 333 56900

59011=

48045 32556 61405 10220 20173 86800 333 56300=

48048 32962 00401 10322 20200 40118 333 58000=

48051 32960 03103 10317 20220 70200 80000 333 56000=

48053 32456 23602 10320 20184 40112 82500 333 56900

58008=

48060 32450 10000 10282 20098 40110 81100 333 56500

58004=

48062 32958 02703 10340 20290 40102 333 58006=

48071 32960 03204 10318 20236 40099 333 58000=

48075 32558 30401 10290 20179 40103 83200 333 56500

58015=

48077 32959 00401 10330 20212 40103 333 58014=

48078 32560 33202 10327 20212 40102 82201 333 56909

58009=

48080 32460 12704 10340 20240 40106 81200 333 56900

58015=

48085 32458 23203 10328 20244 40096 82800 333 56300

58010=

48095 32960 03602 10315 20237 333=

48108 32596 62303 10340 20257 40088 84306 333 56609

58010=

48109 NIL=

48110 31596 33204 10330 20275 40080 70511 82305 333

56209 58005=

48112 32598 60409 10322 20240 40070 70122 82216 333

56199 58000=

48030 32960 02202 10216 20035 333=

48072 32961 03601 10320 20248 70122 333=

48087 32960 00403 10334 20224 333=

48099 32560 12702 10360 20249 40088 81800 333 56900

58013=

48101 32660 20901 10342 20257 70311 82100 333 56200=

48103 32457 20403 10357 20214 40086 82800 333 56100

58010=

48057 32458 32301 10243 20114 83300 333 56600=

48094 32960 00403 10340 20230 40098 333 58014=

48097 32557 30401 10340 20225 40097 70211 83800 333

56900 58006=

48031 32960 00401 10215 20087 333=

48033 32963 03601 10300 20207 40112 333 59009=

48034 32456 11801 10275 20119 81500 333 56500=

48039 32460 00401 10310 20230 333=

48043 32059 00505 10270 20191 333=

48052 32960 00401 10344 20225 333=

48055 32557 20903 10275 20167 40094 82800 333 56500

58003=

48064 32960 01401 10290 20215 40105 333 58015=

48065 32960 00000 10323 20200 333=

48074 32559 13601 10330 20191 40097 81500 333 56900

58008=

48092 32459 20901 10340 20240 40073 82100 333 56900

58011=

48093 NIL=

48107 32350 43201 10330 20244 40084 84900 333 56200

58009=

48096 32458 53304 10330 20224 40096 83840 333 56990

58010=  





