



*-*-*


<!--
.style2 {
	font-family:"Courier New", Courier, monospace;
	font-size: 14px;
}
-->






SMBM01 VBRR 220600

AAXX 22064

48001 32450 72701 10280 20250 40042 85630 333 56250

59034=

48004 32460 61301 10307 20267 84900 333 56500=

48008 21456 81401 10282 20268 40068 75055 8497/ 333

56439 59017=

48010 32558 71801 10295 20266 40069 85830 333 56550

59011=

48018 32560 61401 10315 20267 40065 83870 333 56330

59021=

48019 32458 63201 10312 20254 40063 83660 333 56450

59016=

48020 32458 70403 10330 20275 85830 333 56550=

48025 32458 60401 10320 20248 40067 84840 333 56550

59011=

48035 32560 62203 10297 20207 40053 84960 333 56190

59002=

48037 32560 41801 10336 20270 40055 82102 333 56409

59026=

48042 32558 41304 10352 20240 40069 83802 333 56409

59008=

48045 32556 52212 10263 20179 83831 333 56569=

48048 32560 42201 10333 20244 40069 84800 333 56400

59015=

48051 22559 81302 10296 20270 70122 85930 333 56490=

48053 32458 51802 10320 20248 40083 83956 333 56599

59008=

48060 32450 72202 10302 20185 40046 84970 333 56560

59012=

48062 32458 72306 10320 20280 40094 85970 333 56690

58003=

48071 32458 52704 10302 20282 40096 85900 333 56600

59004=

48075 32457 72201 10290 20215 40081 70322 85750 333

56690 59007=

48077 32558 82301 10300 20253 40086 85970 333 56490

59006=

48078 32558 51801 10323 20270 40091 84801 333 56409

59009=

48080 21460 72201 10282 20250 40099 70165 85870 333

56590 59001=

48085 32458 32704 10308 20266 40096 83900 333 56600

59007=

48095 32460 52202 10340 20288 82840 333 56990=

48108 32596 63207 10330 20267 40102 84366 333 56769

58003=

48109 32497 42301 10314 20267 40111 70122 84900 333

56900 59004=

48110 31595 83204 10320 20273 40107 70522 83357 333

56999 58000=

48112 31597 82703 10325 20270 40106 70522 83876 333

56699 58003=

48030 32357 62204 10212 20160 85840 333 56560=

48072 32460 62704 10310 20267 84830 333 56490=

48087 32560 51803 10325 20265 83841 333 56699=

48099 32556 61802 10315 20265 40094 85830 333 56490

59003=

48101 32558 62202 10327 20258 70222 84931 333 56599=

48103 21457 61402 10276 20268 40101 70196 84870 333

56330 59002=

48057 32458 72301 10237 20191 86301 333 56609=

48094 32560 53203 10320 20280 40095 84901 333 56609

59008=

48097 32557 63202 10320 20265 40099 84301 333 56909

58006=

48031 32260 50401 10230 20181 85800 333 56400=

48033 32563 31801 10330 20258 40066 83500 333 56900

59011=

48034 32457 61802 10272 20226 86300 333 56500=

48039 32460 61401 10330 20258 84960 333 56440=

48043 32559 41808 10265 20226 83230 333 56590=

48052 32468 31801 10340 20257 83800 333 56900=

48055 32556 71805 10296 20227 40043 85930 333 56550

59016=

48064 32560 61401 10321 20281 40073 84831 333 56669

58001=

48065 32457 60401 10325 20275 83831 333 56699=

48074 32459 71403 10300 20253 40090 84870 333 56440

59012=

48092 NIL=

48093 21557 61401 10316 20265 72055 86800 333 56300=

48107 21330 81301 10260 20260 40110 70166 8597/ 333

5655/ 58013=

48096 32458 42702 10310 20254 40099 70211 83330 333

56990 59009=  





