



*-*-*


<!--
.style2 {
	font-family:"Courier New", Courier, monospace;
	font-size: 14px;
}
-->






SIBM20 VBRR 230300

AAXX 23034

48001 21440 80000 10198 20185 40144 75055 8572/ 333 56619 58018=

48004 32110 81201 10225 20214 8697/ 333 56559=

48008 32556 60000 10250 20205 40136 83970 333 56560 58034=

48010 22456 70000 10230 20198 40112 84770 333 56660 58003=

48018 22558 62202 10248 20205 40120 83870 333 56560 58020=

48019 21456 73202 10239 20214 40131 79555 84770 333 56560 58035=

48020 21256 80000 10228 20196 70255 8562/ 333 56599=

48025 21220 80000 10230 20181 40130 70295 8597/ 333 56659 58030=

48030 21150 82209 10136 20107 79596 889// 333 56599=

48031 31257 83201 10135 20107 70196 889// 333 56499=

48033 22560 70402 10230 20198 40163 8597/ 333 56699 58043=

48034 21456 80402 10202 20168 75055 8637/ 333 5619/=

48035 31550 20000 10257 20203 40108 70500 82800 333 56400 59014 =

48037 32550 63602 10252 20186 40139 84370 333 56660 58023=

48039 21450 70402 10264 20203 75159 84960 333 56550=

48042 31456 73605 10255 20195 40148 70299 85950 333 56790 58052=

48043 32656 63206 10235 20174 84830 333 56990=

48045 31560 82303 10198 20085 76099 887// 333 56599=

48048 22558 73602 10295 20207 40140 85950 333 56490 58035=

48051 31558 73607 10237 20210 85930 333 56590=

48052 32458 33205 10300 20207 83800 333 56600=

48053 31550 61801 10300 20253 40127 70399 84950 333 56590 58023=

48055 21556 50903 10250 20167 40133 71799 85900 333 56500 58025=

48057 22457 61402 10210 20160 84350 333 56590=

48060 21440 70000 10217 20185 40152 74144 83972 333 56599 58026=

48062 32456 80903 10290 20270 40128 70222 8697/ 333 5639/=

48064 32960 13201 10340 20240 40105 80001 333 56009 58022=

48065 32460 40406 10350 20219 84800 333 56900=

48071 21458 33202 10310 20267 40126 72162 83800 333 56900 58006=

48072 32460 40402 10320 20265 70122 82930 333 56590=

48074 22458 51401 10283 20220 40130 83860 333 56330 58014=

48075 22457 21401 10260 20200 40138 70111 82100 333 56300 58029=

48077 32959 00001 10320 20236 40117 333 58020=

48078 32556 31801 10336 20244 40118 82501 333 56409 59003=

48080 32459 73203 10303 20266 40144 85870 333 56590 58010=

48085 32458 33205 10318 20265 40129 83800 333 56700 58014=

48087 32556 62302 10319 20265 84840 333 56990=

48092 31456 51302 10320 20256 40106 70522 85800 333 56300 58012=

48093 32660 60401 10320 20265 70322 84801 333 56509=

48094 32459 23203 10320 20270 40126 70111 82500 333 56900 58008=

48095 22458 50000 10315 20267 70211 83840 333 56990=

48097 32557 50502 10320 20248 40133 85800 333 56900 58003=

48099 32450 31302 10310 20237 40117 83800 333 56300 59002=

48101 32559 53202 10310 20267 70322 84330 333 56790=

48103 32457 11401 10313 20237 40127 81500 333 56300 58009=

48107 32950 02701 10310 20259 40113 333 59003=

48108 32596 73203 10315 20260 40133 83366 333 56659 58010=

48109 32997 00401 10318 20265 40131 56900 59002=

48110 31596 81302 10315 20266 40127 70522 82307 333 56909 58008=

48112 32597 80401 10305 20253 40121 83876 333 56199 58005=  
SIBM20 VBRR 230300

AAXX 23034
48001 21440 80000 10198 20185 40144 75055 8572/ 333 56619 58018=
48004 32110 81201 10225 20214 8697/ 333 56559=
48008 32556 60000 10250 20205 40136 83970 333 56560 58034=
48010 22456 70000 10230 20198 40112 84770 333 56660 58003=
48018 22558 62202 10248 20205 40120 83870 333 56560 58020=
48019 21456 73202 10239 20214 40131 79555 84770 333 56560 58035=
48020 21256 80000 10228 20196 70255 8562/ 333 56599=
48025 21220 80000 10230 20181 40130 70295 8597/ 333 56659 58030=
48030 21150 82209 10136 20107 79596 889// 333 56599=
48031 31257 83201 10135 20107 70196 889// 333 56499=
48033 22560 70402 10230 20198 40163 8597/ 333 56699 58043=
48034 21456 80402 10202 20168 75055 8637/ 333 5619/=
48035 31550 20000 10257 20203 40108 70500 82800 333 56400 59014 =
48037 32550 63602 10252 20186 40139 84370 333 56660 58023=
48039 21450 70402 10264 20203 75159 84960 333 56550=
48042 31456 73605 10255 20195 40148 70299 85950 333 56790 58052=
48043 32656 63206 10235 20174 84830 333 56990=
48045 31560 82303 10198 20085 76099 887// 333 56599=
48048 22558 73602 10295 20207 40140 85950 333 56490 58035=
48051 31558 73607 10237 20210 85930 333 56590=
48052 32458 33205 10300 20207 83800 333 56600=
48053 31550 61801 10300 20253 40127 70399 84950 333 56590 58023=
48055 21556 50903 10250 20167 40133 71799 85900 333 56500 58025=
48057 22457 61402 10210 20160 84350 333 56590=
48060 21440 70000 10217 20185 40152 74144 83972 333 56599 58026=
48062 32456 80903 10290 20270 40128 70222 8697/ 333 5639/=
48064 32960 13201 10340 20240 40105 80001 333 56009 58022=
48065 32460 40406 10350 20219 84800 333 56900=
48071 21458 33202 10310 20267 40126 72162 83800 333 56900 58006=
48072 32460 40402 10320 20265 70122 82930 333 56590=
48074 22458 51401 10283 20220 40130 83860 333 56330 58014=
48075 22457 21401 10260 20200 40138 70111 82100 333 56300 58029=
48077 32959 00001 10320 20236 40117 333 58020=
48078 32556 31801 10336 20244 40118 82501 333 56409 59003=
48080 32459 73203 10303 20266 40144 85870 333 56590 58010=
48085 32458 33205 10318 20265 40129 83800 333 56700 58014=
48087 32556 62302 10319 20265 84840 333 56990=
48092 31456 51302 10320 20256 40106 70522 85800 333 56300 58012=
48093 32660 60401 10320 20265 70322 84801 333 56509=
48094 32459 23203 10320 20270 40126 70111 82500 333 56900 58008=
48095 22458 50000 10315 20267 70211 83840 333 56990=
48097 32557 50502 10320 20248 40133 85800 333 56900 58003=
48099 32450 31302 10310 20237 40117 83800 333 56300 59002=
48101 32559 53202 10310 20267 70322 84330 333 56790=
48103 32457 11401 10313 20237 40127 81500 333 56300 58009=
48107 32950 02701 10310 20259 40113 333 59003=
48108 32596 73203 10315 20260 40133 83366 333 56659 58010=
48109 32997 00401 10318 20265 40131 56900 59002=
48110 31596 81302 10315 20266 40127 70522 82307 333 56909 58008=
48112 32597 80401 10305 20253 40121 83876 333 56199 58005=  





