



*-*-*


<!--
.style2 {
	font-family:"Courier New", Courier, monospace;
	font-size: 14px;
}
-->






SIBM20 VBRR 230300

AAXX 23034

48001 31902 90000 10075 20055 40220 74744 89/// 333

56999 58003=

48004 31905 90401 10110 20091 74644 89/// 333 56999=

48008 31556 10401 10155 20123 40211 70244 81400 333

56400 59003=

48010 31030 00000 10135 20124 40218 74044 333 58004=

48018 32956 01401 10140 20137 40181 70244 333 59012=

48019 32958 00401 10142 20124 40196 333 58003=

48020 32/50 03602 10145 20124 333=

48025 31008 33201 10168 20135 40207 74244 83600 333

56600 59006=

48035 31/01 90000 10106 20091 40211 74744 333 58022=

48037 32950 00401 10175 20147 40178 333 58002=

48042 31940 00000 10192 20159 40184 71044 333 59008=

48045 32558 11402 10130 20067 81100 333 56600=

48048 32958 00401 10190 20139 40190 333 59011=

48051 NIL=

48053 31940 03602 10200 20130 40189 70500 333 59005=

48060 31/10 90000 10133 20130 40217 74544 333 58004=

48062 NIL=

48071 NIL=

48075 NIL=

48077 NIL=

48078 NIL=

48080 NIL=

48085 NIL=

48095 NIL=

48108 NIL=

48109 NIL=

48110 NIL=

48112 NIL=

48030 32960 02202 10080 20035 333=

48072 NIL=

48087 NIL=

48099 NIL=

48101 NIL=

48103 NIL=

48057 32957 01301 10203 20085 333=

48094 NIL=

48097 NIL=

48031 32260 10401 10145 20029 81200 333 56590=

48033 32962 03601 10170 20135 40186 333 59009=

48034 31956 01801 10095 20093 71000 333 =

48039 31950 33201 10185 20129 74044 80002 333 56009=

48043 32056 00000 10130 20113 333=

48052 NIL=

48055 31948 01301 10135 20096 40202 71044 333 59002=

48064 32956 00901 10178 20165 40179 70211 333 59017=

48065 31956 00402 10190 20159 70522 333=

48074 32958 00404 10190 20139 40179 333 59012=

48092 NIL=

48093 NIL=

48107 NIL=

48096 NIL=  
SIBM20 VBRR 230300 RRA

AAXX 23034

48062 32956 00403 10195 20170 40169 333 59012=

48071 32958 03203 10247 20205 40169 333 59017=

48075 31956 01401 10160 20123 40212 70144 333 59005=

48077 32959 00402 10220 20173 40170 333 59008=

48078 32956 10402 10245 20206 40175 80001 333 56009

59002=

48080 31959 00401 10180 20147 40162 70244 333 59011=

48085 31958 00000 10210 20195 40161 70144 333 59014=

48095 32960 00403 10225 20173 333=

48108 32495 80501 10280 20227 40150 83876 333 56499

59012=

48109 32497 20402 10298 20226 40163 82900 333 56900

59007=

48110 31596 71303 10290 20215 40148 70522 81156 333

56999 59007=

48112 21496 80403 10250 20250 40142 79595 8697/ 333

5619/ 59010=

48072 31959 00401 10235 20191 70500 333=

48087 32956 00404 10222 20173 333=

48099 31450 32302 10272 20191 40153 74044 83800 333

56500 59013=

48101 32958 23602 10250 20167 80001 333 56009=

48103 32456 30403 10273 20191 40153 83800 333 56100

59020=

48094 32959 03202 10225 20195 40167 333 59008=

48097 31957 00403 10260 20160 40164 70500 333 59011=

48092 32556 12701 10228 20181 40143 81500 333 56900

59023=

48093 32958 10401 10251 20205 80001 333 56009=

48107 32350 70401 10270 20226 40133 84970 333 56330

59015=

48096 32958 13505 10240 20174 40164 80001 333 56009

59014=  





