



*-*-*


<!--
.style2 {
	font-family:"Courier New", Courier, monospace;
	font-size: 14px;
}
-->






SMBM01 VBRR 231200

AAXX 23124

48001 32960 22701 10145 20134 40168 82500 333 10207

56200 58000=

48004 32458 50000 10181 20147 85900 333 10223 56500=

48008 32556 10000 10200 20130 40155 81400 333 10252

56400 59019=

48010 32020 00000 10205 20168 40154 333 10257 59010=

48018 31940 00000 10215 20160 40158 71044 333 10270

59011=

48019 32930 00000 10190 20159 40153 333 10252 58004=

48020 32330 20000 10190 20159 82200 333 10245 56500=

48025 32410 10000 10210 20175 40158 81500 333 10243

56900 59015=

48035 31910 00000 10190 20150 40129 71000 333 10250

59018=

48037 32910 00000 10235 20155 40133 333 10275 59019=

48042 31540 10000 10244 20174 40133 70511 81400 333

10273 56900 59017=

48045 32556 32302 10143 20124 83800 333 10206 56500=

48048 31950 00401 10246 20167 40135 71044 333 10285

59017=

48051 32958 00000 10250 20190 333 10290=

48053 32940 03602 10240 20155 40146 333 10285 59007=

48060 32420 10000 10182 20147 40140 81100 333 10234

56500 59014=

48062 32950 03201 10260 20250 40133 333 10310 59020=

48071 32940 03203 10255 20215 40133 333 10280 59020=

48075 32956 00000 10220 20156 40132 333 10290 59035=

48077 32956 00000 10264 20179 40122 333 10302 59022=

48078 32956 12701 10262 20179 40128 80001 333 10310

56009 59018=

48080 32956 00000 10251 20205 40130 333 10312 59014=

48085 32956 11401 10252 20205 40125 80006 333 10300

56008 59014=

48095 32950 00401 10250 20205 333 10305=

48108 32495 72301 10300 20231 40118 84376 333 10353

56999 59001=

48109 32496 10000 10288 20230 40128 81500 333 10337

56900 59007=

48110 32959 81302 10290 20248 40113 81347 333 10320

56999 59011=

48112 21597 80406 10255 20240 40115 70152 84876 333

10275 56199 59004=

48030 32257 42201 10136 20082 84800 333 10180 56500=

48072 32956 02301 10260 20215 333 10310=

48087 32930 00401 10224 20185 333 10308=

48099 32440 20000 10300 20223 40102 82800 333 10366

56900 59027=

48101 32550 70000 10273 20191 83770 333 10317 56990=

48103 32440 32201 10291 20230 40109 83700 333 10366

56500 59025=

48057 32940 00000 10186 20096 333 10255 56000=

48094 32456 10000 10280 20220 40128 81500 333 10335

56900 59011=

48097 32556 41201 10280 20184 40132 84500 333 10335

56900 59009=

48031 32260 23601 10150 20092 82800 333 10195 56900=

48033 32958 03601 10240 20155 40112 333 10280 59032=

48034 32956 00000 10170 20135 333 10240 56000=

48039 32450 30401 10232 20183 83400 333 10290 56900=

48043 32010 00000 10180 20129 333 10230 56000=

48052 31950 00000 10263 20179 70522 333 10306 56000=

48055 32956 01303 10222 20179 40118 333 10290 59032=

48064 32950 01401 10232 20181 40119 70211 333 10265

56000 59027=

48065 31950 00000 10243 20174 70522 333 10295 56000=

48074 32957 00000 10250 20205 40128 333 10310 59019=

48092 31556 23101 10275 20188 40105 70522 82500 333

10330 56900 59016=

48093 32930 00402 10273 20211 333 10337=

48107 32330 40401 10285 20215 40111 84900 333 10332

56300 59010=

48096 32957 13004 10280 20203 40129 80050 333 10335

56090 59012=  





