



*-*-*


<!--
.style2 {
	font-family:"Courier New", Courier, monospace;
	font-size: 14px;
}
-->






SMBM01 VBRR 231800

NIL=  
SMBM01 VBRR 231800 RRA

AAXX 23184

48008 31510 20000 10220 20185 40124 71044 81430 333 56560 59012=

48010 32001 00000 10195 20185 40144 333 58019=

48018 32910 00000 10195 20159 40138 333 58000=

48025 32905 03601 10215 20160 40133 333 59013=

48042 32950 00000 10218 20173 40113 333 59003=

48053 32940 00000 10240 20136 40125 333 59012=

48057 32957 01801 10126 20086 333=

48060 32910 00000 10125 20094 40090 333 58010=

48071 32920 00000 10240 20226 40133 333 58008=

48080 32940 00000 10212 20165 40138 333 58001=

48094 32950 03201 10225 20210 40128 333 58001=

48097 32956 02701 10225 20210 40130 333 58004=

48099 32930 00401 10242 20209 40128 333 58004=

48103 32510 22201 10242 20191 40118 82500 333 56500 58002=

48108 31956 31401 10240 20209 40133 71011 82407 333 56909 59001=

48109 32995 00000 10202 20209 40147 333 59001=

48110 31594 43602 10270 20240 40128 70522 83305 333 56209 59005=

48112 32597 70403 10261 20215 40120 83876 333 56199 58002=  





