



*-*-*


<!--
.style2 {
	font-family:"Courier New", Courier, monospace;
	font-size: 14px;
}
-->






SMBM01 VBRR 231200

NIL=  
SMBM01 VBRR 231200

NIL=  
SMBM01 VBRR 231201

AAXX 23124

48001 32450 80000 10235 20214 40134 8497/ 333 10260 56459 59002

 60002=

48004 32560 40000 10260 20215 84900 333 10293 56500 60002=

48008 31556 20000 10277 20158 40111 71044 81400 333 10302 56500

 60002=

48010 32040 00000 10270 20226 40101 333 10312 59017 60002=

48018 32596 00000 10270 20172 40118 333 10305 59001 60002=

48019 32940 00000 10253 20219 40109 333 10305 59020 60002=

48020 32950 00000 10285 20219 333 10325 60002=

48025 31456 10000 10308 20169 40097 70544 81500 333 10326 56900 59010

 60002=

48030 31956 00402 10200 20060 70544 333 10237 60002=

48031 31950 02201 10190 20072 333 10243 60002=

48033 32962 03303 10310 20169 40105 333 10340 58002 60002=

48034 32956 03604 10208 20091 333 10285 60002=

48035 31950 00000 10245 20150 40088 70500 333 10287 58005 60002=

48037 32920 00000 10312 20189 40070 333 10338 58005 60002=

48039 32460 20000 10302 20166 82400 333 10347 56900 60002=

48042 32958 00000 10317 20184 40095 333 10350 58003 60002=

48043 32020 00000 10220 20111 333 10260 60002=

48045 32558 11402 10219 20087 81100 333 10262 56500 60002=

48048 32950 03601 10293 20215 40109 333 10345 58016 60002=

48051 32959 00404 10310 20170 70200 333 10355 60002=

48052 32950 03201 10350 20182 333 10365 60002=

48053 32950 00000 10310 20169 40088 333 10340 59002 60002=

48055 31956 00402 10250 20126 40088 70500 333 10307 58006 60002=

48057 NIL=

48060 32920 02203 10250 20105 40106 333 10300 58007 60002=

48062 32956 02705 10270 20240 40115 70500 333 10302 58002 60002=

48064 32950 00000 10305 20207 40084 333 10360 58001 60002=

48065 32950 00000 10315 20184 333 10357 60002=

48071 32956 03204 10270 20226 40116 333 10298 58003 60002=

48072 32957 03202 10260 20215 333 10316 60002=

48074 32957 00000 10294 20159 40099 333 10348 59006 60002=

48075 31456 12201 10262 20100 40099 70511 81100 333 10310 56500 59021

 60002=

48077 32956 00000 10310 20124 40092 333 10364 58001 60002=

48078 32956 10000 10307 20159 40102 80001 333 10358 56009=

48080 32957 01301 10290 20248 40114 333 10345 59002 60002=

48085 32956 03203 10264 20215 40111 333 10303 59003 60002=

48087 32940 00000 10280 20258 333 10355 60002=

48092 32956 00000 10310 20169 40081 333 10355 59005 60002=

48093 NIL=

48094 32957 03201 10295 20210 40117 333 10358 58000 60002=

48095 NIL=

48097 NIL=

48099 32440 20000 10300 20185 40162 82500 333 10351 56900 58007

 60002=

48101 32950 00000 10290 20196 333 10335 60002=

48103 32540 22201 10293  20215 40109 82500 333 10357 56500 58001

 60002=

48107 32940 22201 10293 20215 40109 82500 333 10357 56500 59005

 60002=

48108 32596 23201 10295 20227 40114 82807 333 10352 56909 59006

 60002=

48109 NIL=

48110 31596 33204 10295 20226 40111 70511 81305 333 10350 56909 59000

 60002=

48112 NIL=  





