



*-*-*


<!--
.style2 {
	font-family:"Courier New", Courier, monospace;
	font-size: 14px;
}
-->






SMBM01 VBRR 231200

AAXX 23124

48001 31450 72301 10180 20147 40154 70322 84770 333 10235 56560 59024=

48004 32560 30000 10213 20175 83800 333 10260 56500=

48008 32556 20000 10222 20173 40128 81430 333 10270 56560 59035=

48010 32540 30000 10240 20191 40122 82440 333 10288 56990 59085=

48018 32556 30000 10225 20163 40123 83800 333 10280 56900 59040=

48019 32940 00000 10202 20185 40124 333 10267 59041=

48020 31230 20000 10230 20181 70522 82800 333 10260 56500=

48025 32658 32701 10260 20160 40121 82840 333 10284 56890 59038=

48030 32957 00401 10148 20092 333 10205=

48031 32950 02201 10140 20107 333 10200=

48033 32962 00000 10270 20172 40125 333 10303 59029=

48034 32456 40000 10172 20117 84500 333 10230 56500=

48035 32550 30000 10207 20091 40104 83800 333 10247 56900 59051=

48037 32930 00000 10264 20179 40110 333 10315 59028=

48039 32460 20000 10257 20179 82800 333 10307 56700=

48042 32556 20000 10275 20184 40106 81450 333 10307 56590 59041=

48043 32010 00000 10160 20129 333 10230=

48045 32958 11401 10178 20108 80001 333 10223 56009= 

48048 32950 00401 10266 20226 40113 333 10315 59041=

48051 32959 10000 10238 20170 70311 80001 333 10297 56009=

48052 32950 00000 10304 20207 333 10330=

48053 32950 00000 10250 20167 40114 333 10295 59038=

48055 32956 00000 10223 20111 40098 333 10262 59047=

48057 32956 21401 10177 20108 80006 333 10225 56009=

48060 32920 02702 10205 20100 40123 333 10260 59045=

48062 31550 43202 10240 20210 40130 71011 83530 333 10270 56990 59028=

48064 32950 00000 10245 20174 40098 333 10295 59033=

48065 32950 00000 10246 20186 333 10311=

48071 32956 03203 10238 20174 40130 333 10270 59029=

48072 32956 03201 10245 20219 70122 333 10295=

48074 32556 20000 10264 20179 40124 81401 333 10320 56909 59021=

48075 32456 20000 10230 20160 40123 82500 333 10270 56500 59028=

48077 32556 22302 10280 20146 40111 81201 333 10332 56909 59027=

48078 32950 20000 10278 20158 40113 80001 333 10325 56009 59034=

48080 32456 32201 10253 20219 40130 83500 333 10320 56900 59021=

48085 32956 03603 10260 20230 40113 333 10305 59034=

48087 32930 00000 10260 20243 333 10330=

48092 31556 20000 10260 20160 40101 70522 81401 333 10325 56909 59027=

48093 32930 10401 10272 20191 80001 333 10314 56009=

48094 32556 10000 10270 20190 40127 70211 81500 333 10340 56900 59020=

48095 32956 00000 10270 20172 333 10315=

48096 32058 02704 10280 20158 40125 333 10322 59027=

48097 32556 23301 10270 20163 40130 70211 81501 333 10332 56909 59029=

48099 32450 41802 10268 20172 40113 83830 333 10327 56990 59003=

48101 32950 10000 10257 20203 70111 80001 333 10313 56009=

48103 32550 20000 10266 20172 40116 82500 333 10330 56500 59027= 

48107 32930 00402 10264 20179 40113 333 10325 59030=

48108 32996 50000 10270 20211 40120 80006 333 10325 56009 59025=

48109 32496 10401 10278 20233 40132 70122 85100 333 10315 56900 59022=

48110 31595 40000 10275 20197 40114 70511 81106 333 10340 56909 59021=

48112 32597 80401 10280 20220 40114 70322 83876 333 10311 56199 59020=  





