



*-*-*


<!--
.style2 {
	font-family:"Courier New", Courier, monospace;
	font-size: 14px;
}
-->






SIBM20 VBRR 230900

AAXX 23094
48001 32456 63601 10310 20169 40057 84830 333 56430 58002=
48004 31556 10401 10334 20214 70511 81100 333 56900=
48008 31556 71401 10323 20140 40068 70500 83550 333 565/0 59011=
48010 32060 00000 10225 20225 40058 333 59004=
48018 31956 92201 10340 20164 40071 71044 89/// 333 59008=
48019 31957 00406 10322 20184 40064 70500 333 59001=
48020 NIL=
48025 31430 30000 10353 20158 40056 70544 83500 333 56900 59013=
48030 31940 00401 10266 20057 70544=
48031 31956 02201 10260 20070 70544=
48033 32963 01801 10380 20221 40064 333 58016=
48034 31457 22304 10310 20135 70511 82800 333 56500=
48035 31960 02204 10338 20063 40016 70400 333 59015=
48037 31950 01802 10390 20131 40043 70544 333 59042=
48039 32959 31401 10383 20150 80002 333 56009=
48042 32958 01304 10397 20145 40049 333 59002=
48043 32060 03206 10300 20166=
48045 31957 00404 10288 20060 70400=
48048 31960 02203 10395 20145 40048 71044 333 59003=
48051 31959 00402 10358 20213 70500=
48052 32970 02202 10400 20120=
48053 31550 32202 10380 20275 40044 70511 83500 333 56500 59005=
48055 31556 12302 10354 20120 40015 70511 81100 333 56500 58011=
48057 32460 22304 10298 20069 82800 333 56900=
48060 31940 11402 10332 20172 40038  70222 81100 333 56500 59015=
48062 31450 22308 10300 20270 40080 82500 333 59000=
48064 32970 01401 10398 20214 40049 333 58005=
48065 32970 00000 10400 20120=
48071 31960 03204 10325 20244 40086 70500 333 59002=
48072 32470 11302 10310 20254 81200 333 56800=
48074 31559 22302 10380 20240 40073 70500 82100 333 56400 58001=
48075 31557 22203 10360 20106 40050 70511 82100 333 56500 58011=
48077 32959 02304 10394 20177 40059 333 59002=
48078 32558 31802 10382 20212 40073 82501 333 56409 58005=
48080 31958 02203 10333 20234 40076 70500 333 59005=
48085 31958 03203 10312 20237 40091 70500 333 58004=
48087 NIL=
48092 31457 51305 10350 20297 40062 70522 85800 333 56300 58000=
48093 32557 51402 10352 20240 84801 333 56509=
48094 32960 03201 10365 20245 40081 333 59005=
48095 32460 32201 10365 20264 70200 83800 333 56900=
48097 32557 72302 10340 20206 40093 87300 333 56900 58006=
48099 32558 53202 10365 20249 40070 84330 333 56550 59002=
48101 32960 01804 10322 20236 333 56000=
48103 32556 12202 10348 20240 40076 81500 333 56500 59004=
48107 32350 42702 10330 20258 40074 84900 333 56500 59008=
48108 32596 73202 10352 20244 40083 70399 84966 333 56539 59003=
48109 NIL=
48110 31596 83204 10365 20246 40081 71722 85307 333 56909 59004=
48112 32597 82201 10335 20256 40090 83876 333 56599 58000=  





