



*-*-*


<!--
.style2 {
	font-family:"Courier New", Courier, monospace;
	font-size: 14px;
}
-->






SIBM20 VBRR 230900

AAXX 23094

48001 32440 73202 10280 20250 40029 87700 333 56300

58006=

48004 22560 41301 10299 20266 84900 333 56500=

48008 31557 81801 10277 20268 40053 71796 8497/ 333

56449 58006=

48010 32560 51801 10335 20288 40035 84830 333 56559

59003=

48018 31560 42202 10345 20257 40050 70122 82870 333

56560 58010=

48019 32458 71402 10308 20267 40037 84860 333 56560

59005=

48020 32460 72703 10330 20275 85730 333 56550=

48025 32456 80401 10313 20267 40019 8587/ 333 5655/

59021=

48035 32560 63202 10318 20215 40003 84960 333 56590

59021=

48037 NIL=

48042 32560 31303 10365 20221 40026 82202 333 56409

59010=

48045 32556 62304 10269 20191 84831 333 56559=

48048 32560 41802 10350 20240 40037 84800 333 56400

59005=

48051 22559 63103 10313 20270 70122 85930 333 56490=

48053 32556 61802 10350 20237 40038 84951 333 56599

59012=

48060 32450 62201 10280 20212 40009 84832 333 56669

59018=

48062 32458 62308 10320 20290 40067 70122 84930 333

56690 59002=

48071 21458 62704 10295 20266 40075 76066 85930 333

56690 58001=

48075 32558 72201 10310 20225 40041 85360 333 56590

59014=

48077 32559 70000 10340 20257 40049 85931 333 56499

58000=

48078 32558 61801 10310 20260 40060 83802 333 56509

58001=

48080 22459 72207 10302 20266 40076 85870 333 56590

58006=

48085 32458 62706 10306 20266 40071 85806 333 56609

58001=

48095 21458 70902 10315 20282 72022 84940 333 56990=

48108 32596 62305 10295 20263 40078 72165 83356 333

56799 59005=

48109 NIL=

48110 21493 82302 10280 20259 40090 79559 8632/ 333

56999 58009=

48112 21496 80401 10270 20256 40098 79595 8697/ 333

5619/ 58016=

48030 21256 82204 10200 20185 75055 8694/ 333 56569=

48072 21460 62704 10295 20266 75055 84970 333 56490=

48087 32560 42301 10328 20258 82841 333 56999=

48099 21330 81301 10270 20270 40068 79596 8697/ 333

5639/ 59002=

48101 21558 82701 10292 20259 70355 8597/ 333 5669/=

48103 21456 81302 10276 20268 40065 75099 8697/ 333

5655/ 59008=

48057 32458 72302 10258 20203 84906 333 56609=

48094 21559 62703 10325 20275 40072 70366 84941 333

56699 58001=

48097 32557 71807 10315 20236 40081 86330 333 56990

59009=

48031 32258 82701 10240 20174 888// 333 56599=

48033 32563 31801 10350 20240 40032 82501 333 56909

58000=

48034 32458 41802 10289 20215 84500 333 56500=

48039 32460 32201 10350 20240 81102 333 56404=

48043 NIL=

48052 NIL=

48055 31456 80000 10285 20217 40028 71799 8697/ 333

5655/ 58019=

48064 32560 70401 10340 20270 40037 84831 333 56669

58002=

48065 NIL=

48074 32458 72301 10315 20265 40057 83370 333 56440

59018=

48092 32457 62404 10318 20265 40044 84930 333 56990

59008=

48093 32658 62702 10328 20275 85340 333 56590=

48107 32350 61301 10286 20248 40076 84970 333 56550

59009=

48096 21458 72808 10310 20237 40065 84930 333 56990

59002=  





