



*-*-*


<!--
.style2 {
	font-family:"Courier New", Courier, monospace;
	font-size: 14px;
}
-->






SMBM01 VBRR 241800 RRA

AAXX 24184
48008 32510 60000 10230 20198 40125 83970 333 56180 58030=
48018 22520 60000 10246 20199 40137 83870 333 56440 58030=
48025 32405 43202 10255 20205 40101 83840 333 56690 58029=
48042 32550 61801 10290 20215 40102 84950 333 56990 59003=
48053 22440 71802 10250 20219 40102 85850 333 56590 58004=
48060 32920 11301 10220 20185 40107 80030 333 56090 59028=
48062 32450 80402 10243 20230 40115 84970 333 56990 58007=
48071 22930 00000 10260 20246 40090 333 59021=
48080 32440 41303 10250 20219 40114 82970 333 56990 59011=
48097 22556 72301 10260 20246 40125 878// 333 569// 58006=
48099 22430 20000 10250 20233 40124 82500 333 56900 59013=
48108 21495 83202 10270 20240 40121 70295 84977 333 56999 58000=
48110 31594 80000 10255 20239 40132 70255 81307 333 56909 58000=  





