



*-*-*


<!--
.style2 {
	font-family:"Courier New", Courier, monospace;
	font-size: 14px;
}
-->






SMBM01 VBRR 240600

AAXX 24064

48001 32556 10000 10145 20111 40193 81100 333 56100

59004=

48004 32562 10401 10198 20109 70111 81100 333 56900=

48008 32557 30401 10210 20091 40184 82930 333 56550

59007=

48010 32560 10000 10220 20136 40182 81100 333 56900

59010=

48018 32958 01401 10230 20143 40186 333 59004=

48019 32960 00403 10224 20087 40176 333 59007=

48020 32330 33602 10220 20156 83200 333 56400=

48025 31430 23601 10218 20136 40198 82100 333 56900

59002=

48035 31956 00000 10209 20120 40141 70522 333 59017=

48037 32958 03201 10250 20126 40153 333 59011=

48042 31950 00000 10253 20167 40163 70544 333 59006=

48045 32561 11402 10177 20108 81100 56900=

48048 32960 00901 10255 20160 40165 333 59008=

48051 32959 03602 10250 20170 333=

48053 32950 03603 10270 20154 40154 333 59011=

48060 32440 13202 10200 20109 40168 81100 333 56500

59017=

48062 32458 20406 10270 20210 40157 70122 82500 333

56900 59006=

48071 32958 03202 10260 20203 40151 333 59002=

48075 32957 21401 10270 20133 40135 80005 333 56009

59010=

48077 32959 00000 10280 20158 40142 333 59009=

48078 32958 13202 10283 20160 40138 80001 333 56009

59018=

48080 32961 03203 10300 20166 40148 333 59003=

48085 31957 03203 10294 20186 40136 70144 333 59006=

48095 32458 80000 10270 20191 86840 333 56990=

48108 32596 51401 10315 20236 40126 82406 333 56709

59007=

48109 NIL=

48110 31596 83203 10325 20246 40128 70522 82307 333

56209 59002=

48112 32597 83602 10295 20262 40125 84876 333 56899

59007=

48030 32257 22201 10168 20014 82800 333 56500=

48072 32960 03605 10290 20196 333=

48087 32960 30405 10280 20158 80041 333 56099=

48099 32450 53202 10325 20200 40124 82831 333 56799

59009=

48101 32759 53601 10292 20179 80031 333 56099=

48103 32457 30403 10342 20219 40126 83800 333 56100

59005=

48057 32957 02202 10230 20074 333 56000=

48094 32460 43202 10310 20195 40140 81141 333 56999

59010=

48097 32557 72302 10290 20169 40139 84850 333 56990

59004=

48031 32260 10401 10190 20047 81200 333 56900=

48033 32963 03601 10250 20150 40147 70200 333 58000=

48034 32456 12301 10220 20136 70311 81500 333 56500=

48039 32956 33201 10255 20160 80002 333 56009=

48043 32058 01806 10220 20156 333 56000=

48052 32958 03604 10262 20160 70222 333 56000=

48055 31956 02704 10246 20143 40129 70244 333 59009=

48064 32960 01401 10236 20191 40150 70211 333 59006=

48065 32958 00402 10260 20160 70222 333 56000=

48074 32959 03203 10270 20172 40149 333 59011=

48092 31556 83203 10300 20166 40122 70522 84430 333

56990 59006=

48093 32557 50401 10304 20223 84840 333 56190=

48107 32350 40401 10304 20185 40121 84900 333 56300

58002=

48096 32457 73204 10290 20179 40142 8354/ 333 5699/

59004=  





