



*-*-*


<!--
.style2 {
	font-family:"Courier New", Courier, monospace;
	font-size: 14px;
}
-->






SMBM01 VBRR 240038

AAXX 24004

48001 NIL=

48004 NIL=

48008 31550 30000 10156 20144 40146 71044 82430 333 20142 56560 59009=

48010 32030 00000 10165 20165 40140 333 20160 59007=

48018 32920 00000 10162 20144 40140 333 20150 59012=

48019 32940 00000 10136 20130 40134 333 20130 59006=

48020 NIL=

48025 31110 13201 10176 20165 40144 74044 81600 333 20170 56900 59007=

48030 31950 02202 10060 20035 70544 333 20048=

48031 31950 03201 10125 20081 70500 333 20105=

48033 32960 03301 10180 20165 40127 333 20170 59011=

48034 31948 00000 10087 20068 71000 333 20075=

48035 31904 00000 10082 20080 40176 74244 333 20075 58000=

48037 32910 00000 10190 20139 40123 333 20182 59010=

48039 31450 33201 10182 20147 71011 83400 333 20180 56900=

48042 32956 00000 10185 20153 40120 333 20175 59007=

48043 32020 00000 10105 20097 333 20070=

48045 NIL=

48048 32940 00000 10165 20160 40134 333 20155 58009=

48051 31940 03601 10165 20150 71000 333 20156=

48052 32950 00401 10185 20118 333 20172=

48053 32950 00000 10190 20159 40116 333 20181 59018=

48055 31940 00000 10071 20064 40192 71000 333 20063 59004=

48057 31939 01401 10114 20069 71000 333 20096=

48060 31920 00000 10110 20091 40160 71011 333 20095 58014=

48062 31530 20000 10180 20180 40124 82500 333 20160 56900 59007=

48064 32950 01401 10183 20147 40099 333 20141 59006=

48065 32950 00000 10180 20169 333 20169=

48071 31930 00000 10220 20205 40125 74244 333 20195 59001=

48072 NIL=

48074 32950 01405 10190 20178 40141 333 20172 59019=

48075 31956 00000 10100 20100 40196 71022 333 20095 58003=

48077 31956 00000 10190 20159 40099 333 20141 59002=

48078 NIL=

48080 31950 00401 10151 20134 40132 71044 333 20135 58000=

48085 31930 01801 10166 20165 40121 74244 333 20165 59004=

48087 NIL=

48092 31908 00000 10160 20144 40107 74044 333 20145 58000=

48093 32920 01401 10178 20155 333 20176=

48094 31940 00000 10210 20200 40117 71000 333 20174 59005=

48095 NIL=

48097 31950 03101 10195 20195 40124 71000 333 20195 58002=

48099 31930 00401 10210 20195 40116 74044 333 20200 59008=

48101 NIL=

48103 31920 00000 10210 20195 40121 74044 333 20202 59003=

48107 31930 20401 10194 20175 40124 74144 80006 333 20180 56009 58002=

48108 31559 30000 10200 20193 40133 74011 82407 333 20188 56900 58007=

48109 31996 00000 10204 20200 40128 70122 333 20197 59009=

48110 31592 50000 10240 20226 40128 74244 83406 333 20240 56209 58001=

48112 32597 80403 10236 20209 40124 83876 333 20190 56199 58002=  





