



*-*-*


<!--
.style2 {
	font-family:"Courier New", Courier, monospace;
	font-size: 14px;
}
-->






SIBM20 VBRR 240300

AAXX 24034

48001 31450 70000 10170 20147 40169 70122 84970 333

56430 59001=

48004 32340 70401 10187 20159 87900 333 56500=

48008 31556 30000 10198 20150 40158 71044 82430 333

56560 59013=

48010 31040 00000 10185 20165 40163 74044 333 59006=

48018 31956 01401 10195 20159 40161 70244 333 59001=

48019 32960 00000 10192 20159 40150 333 59008=

48020 31950 00402 10190 20159 70500 333=

48025 31220 11401 10212 20143 40153 70244 81600 333

56900 59016=

48035 31950 00000 10161 20106 40156 70544 333 58005=

48037 32956 03601 10227 20143 40144 333 59008=

48042 31956 01401 10245 20143 40136 70500 333 59017=

48045 32961 01402 10191 20047 333=

48048 32960 00401 10235 20136 40165 333 58001=

48051 32958 03101 10220 20160 333=

48053 31950 03201 10250 20150 40136 70500 333 59014=

48060 32930 00401 10175 20123 40162 333 59005=

48062 31550 20000 10230 20170 40141 70500 82500 333

56900 59007=

48071 31958 00000 10243 20209 40140 71040 333 59006=

48075 31957 00000 10165 20095 40191 70511 333 58022=

48077 32950 00000 10230 20181 40127 333 59010=

48078 32940 12701 10227 20124 40147 80001 333 56009

59010=

48080 32959 00401 10213 20175 40145 333 59006=

48085 31950 01402 10234 20214 40137 71044 333 58005=

48095 32458 40000 10230 20198 70311 83640 333 56990=

48108 31996 32302 10270 20191 40145 70244 80006 333

56009 59001=

48109 32997 00401 10267 20211 40149 333 59009=

48110 31596 63202 10290 20248 40142 70544 84205 333

56209 59006=

48112 32598 60402 10260 20229 40137 82216 333 56199

59005=

48030 31956 02202 10087 20044 70544 333=

48072 32959 00401 10255 20215 70122 333=

48087 32960 00000 10244 20174 333=

48099 31940 02302 10263 20206 40143 70544 333 59002=

48101 31557 73202 10238 20209 70144 84720 333 56990=

48103 31940 03201 10281 20220 40141 70144 333 59005=

48057 32958 01401 10206 20060 333=

48094 32959 03201 10255 20230 40136 333 59013=

48097 31957 02302 10260 20215 40154 70500 333 58004=

48031 31957 03601 10160 20053 70500 333=

48033 32962 00901 10230 20181 40132 333 59030=

48034 31956 03602 10172 20097 71000 333=

48039 32956 20000 10221 20156 70511 80002 333 56009=

48043 32056 00000 10195 20085 333=

48052 32958 03202 10243 20236 333=

48055 31956 00401 10177 20108 40163 70500 333 59016=

48064 32960 01401 10216 20173 40134 333 59009=

48065 32960 00000 10240 20155 333=

48074 32958 01403 10236 20114 40146 333 59012=

48092 31956 01301 10240 20185 40127 70511 333 59003=

48093 32958 01401 10222 20205 70211 333=

48107 31950 02701 10272 20191 40130 70144 333 59004=  
SIBM20 VBRR 240329

AAXX 24034

48001 31450 70000 10170 20147 40169 70122 84970 333 56430 59001=

48004 32340 70401 10187 20159 87900 333 56500=

48008 31556 30000 10198 20150 40158 71044 82430 333 56560 59013=

48010 31040 00000 10185 20165 40163 74044 333 59006=

48018 31956 01401 10195 20159 40161 70244 333 59001=

48019 32960 00000 10192 20159 40150 333 59008=

48020 31950 00402 10190 20159 70500 333=

48025 31220 11401 10212 20143 40153 70244 81600 333 56900 59016=

48030 31956 02202 10087 20044 70544 333=

48031 31957 03601 10160 20053 70500 333=

48033 32962 00901 10230 20181 40132 333 59030=

48034 31956 03602 10172 20097 71000 333=

48035 31950 00000 10161 20106 40156 70544 333 58005=

48037 32956 03601 10227 20143 40144 333 59008=

48039 32956 20000 10221 20156 70511 80002 333 56009=

48042 31956 01401 10245 20143 40136 70500 333 59017=

48043 32056 00000 10195 20085 333=

48045 32961 01402 10191 20047 333=

48048 32960 00401 10235 20136 40165 333 58001=

48051 32958 03101 10220 20160 333=

48052 32958 03202 10243 20236 333=

48053 31950 03201 10250 20150 40136 70500 333 59014=

48055 31956 00401 10177 20108 40163 70500 333 59016=

48057 32958 01401 10206 20060 333=

48060 32930 00401 10175 20123 40162 333 59005=

48062 31550 20000 10230 20170 40141 70500 82500 333 56900 59007=

48064 32960 01401 10216 20173 40134 333 59009=

48065 32960 00000 10240 20155 333=

48071 31958 00000 10243 20209 40140 71040 333 59006=

48072 32959 00401 10255 20215 70122 333=

48074 32958 01403 10236 20114 40146 333 59012=

48075 31957 00000 10165 20095 40191 70511 333 58022=

48077 32950 00000 10230 20181 40127 333 59010=

48078 32940 12701 10227 20124 40147 80001 333 56009 59010=

48080 32959 00401 10213 20175 40145 333 59006=

48085 31950 01402 10234 20214 40137 71044 333 58005=

48087 32960 00000 10244 20174 333=

48092 31956 01301 10240 20185 40127 70511 333 59003=

48093 32958 01401 10222 20205 70211 333=

48094 32959 03201 10255 20230 40136 333 59013=

48095 32458 40000 10230 20198 70311 83640 333 56990=

48097 31957 02302 10260 20215 40154 70500 333 58004=

48099 31940 02302 10263 20206 40143 70544 333 59002=

48101 31557 73202 10238 20209 70144 84720 333 56990=

48103 31940 03201 10281 20220 40141 70144 333 59005=

48107 31950 02701 10272 20191 40130 70144 333 59004=

48108 31996 32302 10270 20191 40145 70244 80006 333 56009 59001=

48109 32997 00401 10267 20211 40149 333 59009=

48110 31596 63202 10290 20248 40142 70544 84205 333 56209 59006=

48112 32598 60402 10260 20229 40137 82216 333 56199 59005=  





