



*-*-*


<!--
.style2 {
	font-family:"Courier New", Courier, monospace;
	font-size: 14px;
}
-->






SMBM01 VBRR 241200

AAXX 24124

48001 NIL=

48004 32560 51301 10215 20185 85900 333 10263 56500=

48008 32540 21401 10238 20174 40139 82400 333 10273

56300 58011=

48010 32540 20000 10240 20209 40133 81440 333 10278

56990 58011=

48018 31956 00000 10240 20174 40143 71044 333 10280

58020=

48019 32920 00000 10224 20205 40136 333 10282 58012=

48020 32950 00000 10255 20203 333 10295=

48025 32558 11402 10190 20072 81100 333 10226 56500=

48035 32550 10000 10206 20120 40126 81100 333 10255

56900 58018=

48037 32930 00000 10268 20191 40131 333 10326 58021=

48042 32557 10000 10275 20197 40129 81400 333 10312

56900 58023=

48045 32558 11402 10190 20072 81100 333 10226 56500=

48048 32550 30401 10266 20172 40131 82500 333 10320

56900 58015=

48051 32958 00000 10266 20170 333 10304=

48053 32950 03601 10270 20133 40121 333 10305 58007=

48060 32910 02203 10220 20087 40128 333 10275 58005=

48062 31550 22701 10250 20220 40140 70522 82500 333

10280 56900 58010=

48071 31960 03202 10240 20144 40125 70500 333 10260

58015=

48075 31956 00000 10230 20200 40139 70500 333 10270

58016=

48077 32556 20000 10280 20126 40116 81201 333 10328

56909 58008=

48078 32950 12301 10279 20167 40124 80001 333 10318

56009 58011=

48080 32456 23201 10252 20219 40142 81206 333 10305

56909 58012=

48085 32956 13602 10248 20186 40133 80006 333 10283

56009 58014=

48095 32956 00000 10260 20203 333 10330=

48108 32996 43201 10270 20191 40131 80006 333 10325

56009 58010=

48109 32496 50401 10274 20226 40134 85900 333 10317

56900 58002=

48110 31996 42703 10270 20218 40122 70522 80006 333

10325 56009 58008=

48112 32598 60401 10280 20220 40119 82216 333 10306

56199 58005=

48030 32957 02201 10163 20085 333 10207=

48072 32956 00000 10240 20226 333 10285=

48087 NIL=

48099 32440 22302 10264 20179 40123 82700 333 10325

56900 58010=

48101 32950 00000 10241 20191 333 10305=

48103 32550 23201 10267 20191 40127 82500 333 10328

56500 58011=

48057 32457 12201 10184 20108 81500 333 10232 56600=

48094 32456 10401 10264 20200 40134 81500 333 10324

56900 58007=

48097 32956 02302 10255 20176 40136 333 10330 58006=

48031 32960 03601 10160 20028 333 10215=

48033 32962 00000 10280 20220 40135 333 10310 58009=

48034 32956 00000 10185 20123 333 10250=

48039 32460 20000 10259 20179 82400 333 10312 56900=

48043 32010 00000 10185 20096 333 10225=

48052 32950 02201 10310 20205 333 10340=

48055 32556 10000 10207 20163 40128 81500 333 10269

56500 58030=

48064 32950 00000 10243 20174 40106 333 10290 58008=

48065 32950 00000 10255 20179 333 10310=

48074 32956 00000 10266 20191 40126 333 10315 58002=

48092 32556 10000 10260 20149 40112 81400 333 10330

56900 58011=

48093 32930 02301 10268 20172 333 10314=

48107 32930 03203 10260 20160 40121 333 10323 58008=  
SMBM01 VBRR 241209

AAXX 24124

48001 NIL=

48004 32560 51301 10215 20185 85900 333 10263 56500=

48008 32540 21401 10238 20174 40139 82400 333 10273 56300 58011=

48010 32540 20000 10240 20209 40133 81440 333 10278 56990 58011=

48018 31956 00000 10240 20174 40143 71044 333 10280 58020=

48019 32920 00000 10224 20205 40136 333 10282 58012=

48020 32950 00000 10255 20203 333 10295=

48025 32558 11402 10190 20072 81100 333 10226 56500=

48030 32957 02201 10163 20085 333 10207=

48031 32960 03601 10160 20028 333 10215=

48033 32962 00000 10280 20220 40135 333 10310 58009=

48034 32956 00000 10185 20123 333 10250=

48035 32550 10000 10206 20120 40126 81100 333 10255 56900 58018=

48037 32930 00000 10268 20191 40131 333 10326 58021=

48039 32460 20000 10259 20179 82400 333 10312 56900=

48042 32557 10000 10275 20197 40129 81400 333 10312 56900 58023=

48043 32010 00000 10185 20096 333 10225=

48045 32558 11402 10190 20072 81100 333 10226 56500=

48048 32550 30401 10266 20172 40131 82500 333 10320 56900 58015=

48051 32958 00000 10266 20170 333 10304=

48052 32950 02201 10310 20205 333 10340=

48053 32950 03601 10270 20133 40121 333 10305 58007=

48055 32556 10000 10207 20163 40128 81500 333 10269 56500 58030=

48057 32457 12201 10184 20108 81500 333 10232 56600=

48060 32910 02203 10220 20087 40128 333 10275 58005=

48062 31550 22701 10250 20220 40140 70522 82500 333 10280 56900 58010=

48064 32950 00000 10243 20174 40106 333 10290 58008=

48065 32950 00000 10255 20179 333 10310=

48071 31960 03202 10240 20144 40125 70500 333 10260 58015=

48072 32956 00000 10240 20226 333 10285=

48074 32956 00000 10266 20191 40126 333 10315 58002=

48075 31956 00000 10230 20200 40139 70500 333 10270 58016=

48077 32556 20000 10280 20126 40116 81201 333 10328 56909 58008=

48078 32950 12301 10279 20167 40124 80001 333 10318 56009 58011=

48080 32456 23201 10252 20219 40142 81206 333 10305 56909 58012=

48085 32956 13602 10248 20186 40133 80006 333 10283 56009 58014=

48087 NIL=

48092 32556 10000 10260 20149 40112 81400 333 10330 56900 58011=

48093 32930 02301 10268 20172 333 10314=

48094 32456 10401 10264 20200 40134 81500 333 10324 56900 58007=

48095 32956 00000 10260 20203 333 10330=

48096 31956 12405 10270 20133 40137 70522 80040 333 10325 56090 58011=

48097 32956 02302 10255 20176 40136 333 10330 58006=

48099 32440 22302 10264 20179 40123 82700 333 10325 56900 58010=

48101 32950 00000 10241 20191 333 10305=

48103 32550 23201 10267 20191 40127 82500 333 10328 56500 58011=

48107 32930 03203 10260 20160 40121 333 10323 58008=

48108 32996 43201 10270 20191 40131 80006 333 10325 56009 58010=

48109 32496 50401 10274 20226 40134 85900 333 10317 56900 58002=

48110 31996 42703 10270 20218 40122 70522 80006 333 10325 56009 58008=

48112 32598 60401 10280 20220 40119 82216 333 10306 56199 58005=  





