



*-*-*


<!--
.style2 {
	font-family:"Courier New", Courier, monospace;
	font-size: 14px;
}
-->






SMBM01 VBRR 240000

AAXX 24004

48001 NIL=

48004 NIL=

48008 31540 70401 10220 20156 40111 70544 84970 333 20195 56560

 58021=

48010 31030 00000 10195 20185 40104 70544 333 20182 58021=

48018 31950 90000 10190 20175 40104 74244 333 20180 58009=

48019 32940 00000 10185 20180 40101 333 20180 58013=

48020 NIL=

48025 31410 12201 10214 20160 40101 70544 81500 333 20200 56900

 58017=

48030 31950 02201 10110 20046 70544 333 20095=

48031 31950 03202 10165 20085 70544 333 20155=

48033 32960 01801 10220 20185 40098 333 20200 58019=

48034 32456 10000 10135 20118 81500 333 20128 56500=

48035 31910 00000 10154 20134 40122 71000 333 20146 59001=

48037 31920 00000 10215 20173 40090 70544 333 20205 58022=

48039 32456 30000 10245 20136 83400 333 20235 56900=

48042 32958 01801 10270 20191 40088 333 20253 58008=

48043 32030 01805 10200 20150 333 20155=

48045 NIL=

48048 32940 00000 10202 20130 40096 333 20195 58011=

48051 31910 90000 10236 20230 74144 333 20228=

48052 32950 00000 10246 20167 333 20234=

48053 31930 01801 10260 20229 40092 71000 333 20256 58002=

48055 31948 00000 10113 20106 40159 71000 333 20108 58012=

48057 31939 01401 10150 20134 71000 333 20137=

48060 31920 02204 10220 20156 40146 74044 333 20175 58008=

48062 31903 90000 10225 20210 40113 74544 333 20190 58022=

48064 32950 01401 10220 20185 40097 333 20160 58036=

48065 32350 00000 10210 20143 333 20190=

48071 31910 00000 10223 20205 40115 74444 333 20205 58020=

48072 NIL=

48074 31456 11402 10265 20215 40112 70500 81400 333 20249 56900

 58006=

48075 31956 00000 10180 20180 40146 70500 333 20170 58012=

48077 31956 00000 10228 20181 40109 70500 333 20198 58025=

48078 32550 40000 10258 20229 40118 83801 333 20245 56409 58010=

48080 31456 70000 10191 20175 40118 71044 85870 333 20175 56690

 58012=

48085 31930 00000 10188 20186 40117 74244 333 20186 58016=

48087 NIL=

48092 31930 00401 10225 20210 40095 74044 333 20210 58016=

48093 32940 10401 10248 20233 80001 333 20244 56009=

48094 31450 30000 10230 20210 40110 71000 82840 333 20190 56990

 58009=

48095 NIL=

48097 31556 31401 10235 20222 40114 70511 83500 333 20225 56900

 58008=

48099 32340 40000 10242 20226 40112 82831 333 20226 56999 58019=

48101 NIL=

48103 32540 20000 10235 20226 40118 82500 333 20215 56100 58020=

48107 21330 41302 10220 20205 40118 70196 84900 333 20207 56500 58019

60262=00268

48108 31595 60000 10240 20226 40124 71022 83436 333 20220 56999

 58013=

48109 31496 20000 10216 20205 40120 71022 82500 333 20210 56900

 58013=

48110 21992 31801 10255 20247 40120 74244 80036 333 20250 56099 58015

69902=09900

48112 32597 80401 10263 20229 40113 83876 333 20215 56199 58003=  





