



*-*-*


<!--
.style2 {
	font-family:"Courier New", Courier, monospace;
	font-size: 14px;
}
-->






SMBM01 VBRR 241800 RRA

AAXX 24184

48008 32510 71401 10240 20174 40109 84970 333 56330 58025=

48010 21401 81801 10200 20200 40120 72991 889// 333 565// 58032=

48018 32520 20000 10245 20191 40115 82800 333 56900 58032=

48025 21405 30401 10290 20196 40098 75055 83800 333 56900 58012=

48042 32550 30000 10282 20203 40092 81402 333 56909 58022=

48053 32940 40000 10270 20240 40104 82506 333 56509 58034=

48057 32439 21401 10220 20156 82800 333 56900=

48060 22410 30000 10200 20185 40163 81130 333 56590 58048=

48062 31540 20000 10250 20250 40114 70522 82500 333 56900 59001=

48071 31420 10000 10250 20233 40101 71000 81200 333 56900 59004=

48078 32550 51802 10300 20215 40104 81501 333 56909 59006=

48080 31950 00000 10260 20229 40132 70500 333 58016=

48094 32450 40000 10250 20230 40130 83940 333 56990 58014=

48097 32556 42302 10270 20240 40108 82850 333 56990 59008=

48099 21220 80000 10226 20226 40144 76165 8697/ 333 5699/ 58027=

48103 21410 82202 10255 20246 40102 72166 88700 333 56500 59005=

48108 21495 83201 10230 20214 40142 70295 84377 333 56999 58011=

48109 32495 50000 10280 20250 40112 85900 333 56900 58000=

48110 21594 60000 10240 20240 40126 70299 82306 333 56909 59003=

48112 32597 80403 10281 20233 40112 83876 333 56199 58004=  





