



*-*-*


<!--
.style2 {
	font-family:"Courier New", Courier, monospace;
	font-size: 14px;
}
-->






SMBM01 VBRR 240000 RRA

AAXX 24004

48051 32956 00000 10170 20170 71000 333 20168=

48062 32450 20902 10200 20190 40121 82500 333 20190

56900 58003=

48071 32950 03202 10238 20226 40120 333 20220 59001=

48075 31956 00000 10130 20113 40182 71044 333 20125

58006=

48077 32956 00000 10220 20185 40115 333 20200 59010=

48080 32956 00000 10227 20214 40115 333 20215 59005=

48085 31956 01402 10184 20180 40112 74144 333 20183

59004=

48108 31493 60000 10222 20217 40105 71022 82406 333

20210 56909 59001=

48110 31595 51302 10250 20233 40103 70522 82506 333

20245 56909 58003=

48112 21597 80405 10247 20233 40092 70152 83876 333

20185 56199 59006=

48087 32950 00403 10214 20195 333 20200=

48099 31330 23201 10230 20214 40101 74044 82500 333

20220 56900 59009=

48101 32956 13202 10230 20181 80001 333 10190 56009=

48103 31430 70402 10240 20209 40107 71022 85530 333

20230 56110 58001=

48094 32956 00000 10218 20190 40109 333 20212 59014=

48097 32556 40601 10220 20195 40128 82411 333 20204

56999 58014=

48092 32550 23202 10210 20175 40095 82400 333 20195

56900 59002=

48093 32950 01401 10213 20208 333 20208=

48107 31930 33601 10222 20222 40103 74144 80006 333

20217 56009 59003=

48096 32956 13305 10210 20195 40118 80001 333 20200

56009 59002=  
SMBM01 VBRR 240000

AAXX 24004

48051 32956 00000 10170 20170 71000 333 20168=

48062 32450 20902 10200 20190 40121 82500 333 20190

56900 58003=

48071 32950 03202 10238 20226 40120 333 20220 59001=

48075 31956 00000 10130 20113 40182 71044 333 20125

58006=

48077 32956 00000 10220 20185 40115 333 20200 59010=

48080 32956 00000 10227 20214 40115 333 20215 59005=

48085 31956 01402 10184 20180 40112 74144 333 20183

59004=

48108 31493 60000 10222 20217 40105 71022 82406 333

20210 56909 59001=

48110 31595 51302 10250 20233 40103 70522 82506 333

20245 56909 58003=

48112 21597 80405 10247 20233 40092 70152 83876 333

20185 56199 59006=

48087 32950 00403 10214 20195 333 20200=

48099 31330 23201 10230 20214 40101 74044 82500 333

20220 56900 59009=

48101 32956 13202 10230 20181 80001 333 10190 56009=

48103 31430 70402 10240 20209 40107 71022 85530 333

20230 56110 58001=

48094 32956 00000 10218 20190 40109 333 20212 59014=

48097 32556 40601 10220 20195 40128 82411 333 20204

56999 58014=

48092 32550 23202 10210 20175 40095 82400 333 20195

56900 59002=

48093 32950 01401 10213 20208 333 20208=

48107 31930 33601 10222 20222 40103 74144 80006 333

20217 56009 59003=

48096 32956 13305 10210 20195 40118 80001 333 20200

56009 59002=  





