



*-*-*


<!--
.style2 {
	font-family:"Courier New", Courier, monospace;
	font-size: 14px;
}
-->






SIBM20 VBRR 240300 RRA

AAXX 24034

48001 22440 33201 10225 20214 40140 83800 333 56300

59010=

48004 31562 40401 10249 20205 70144 84800 333 56900=

48008 32557 10000 10240 20209 40145 81100 333 56900

58008=

48010 32556 20000 10255 20215 40127 82100 333 56600

59004=

48018 32558 13601 10263 20229 40138 70344 81200 333

56900 58015=

48019 32960 00402 10275 20191 40116 333 59002=

48020 32357 73603 10260 20246 84830 333 56440=

48025 31110 50401 10264 20229 40127 74044 85800 333

56600 59004=

48035 31960 00000 10212 20175 40127 70144 333 59005=

48037 32457 03201 10267 20256 40117 333 59002=

48042 32956 01301 10290 20230 40111 333 59004=

48045 32557 12203 10224 20136 81100 333 56500=

48048 32560 23201 10290 20248 40118 82800 333 56900

59006=

48053 32956 00000 10300 20223 40119 333 58000=

48060 32350 10000 10220 20165 40125 81100 333 56400

59013=

48078 32558 30901 10271 20218 40122 81231 333 56999

59009=

48108 32596 73202 10290 20259 40112 85306 333 56909

59007=

48030 31962 02202 10124 20124 70144 333=

48057 32458 11401 10240 20155 81200 333 56900=

48031 32260 20401 10210 20091 82800 333 56900=

48033 32962 00901 10290 20259 40116 333 58004=

48034 32956 00402 10200 20168 333=

48039 32458 20000 10280 20233 80002 333 56009=

48043 32058 01403 10220 20185 333=

48052 32960 00000 10306 20254 333=

48055 32956 00902 10220 20185 40130 70144 333 58000=

48064 32956 00401 10250 20219 40112 333 59007=

48065 32958 02201 10280 20220 333=

48074 32959 00402 10260 20229 40134 333 59005=  
SIBM20 VBRR 240300

AAXX 24034

48001 22440 33201 10225 20214 40140 83800 333 56300

59010=

48004 31562 40401 10249 20205 70144 84800 333 56900=

48008 32557 10000 10240 20209 40145 81100 333 56900

58008=

48010 32556 20000 10255 20215 40127 82100 333 56600

59004=

48018 32558 13601 10263 20229 40138 70344 81200 333

56900 58015=

48019 32960 00402 10275 20191 40116 333 59002=

48020 32357 73603 10260 20246 84830 333 56440=

48025 31110 50401 10264 20229 40127 74044 85800 333

56600 59004=

48035 31960 00000 10212 20175 40127 70144 333 59005=

48037 32457 03201 10267 20256 40117 333 59002=

48042 32956 01301 10290 20230 40111 333 59004=

48045 32557 12203 10224 20136 81100 333 56500=

48048 32560 23201 10290 20248 40118 82800 333 56900

59006=

48053 32956 00000 10300 20223 40119 333 58000=

48060 32350 10000 10220 20165 40125 81100 333 56400

59013=

48078 32558 30901 10271 20218 40122 81231 333 56999

59009=

48108 32596 73202 10290 20259 40112 85306 333 56909

59007=

48030 31962 02202 10124 20124 70144 333=

48057 32458 11401 10240 20155 81200 333 56900=

48031 32260 20401 10210 20091 82800 333 56900=

48033 32962 00901 10290 20259 40116 333 58004=

48034 32956 00402 10200 20168 333=

48039 32458 20000 10280 20233 80002 333 56009=

48043 32058 01403 10220 20185 333=

48052 32960 00000 10306 20254 333=

48055 32956 00902 10220 20185 40130 70144 333 58000=

48064 32956 00401 10250 20219 40112 333 59007=

48065 32958 02201 10280 20220 333=

48074 32959 00402 10260 20229 40134 333 59005=  





