



*-*-*


<!--
.style2 {
	font-family:"Courier New", Courier, monospace;
	font-size: 14px;
}
-->






SMBM01 VBRR 241200 RRA

AAXX 24124

48001 22420 30000 10230 20214 40137 82450 333 10263

56550 58026 60032=

48004 32560 10000 10264 20240 81100 333 10318 56900

60002=

48008 32556 10000 10280 20203 40104 81400 333 10332

56500 58017 60002=

48010 32330 10000 10290 20259 40100 81400 333 10336

56900 58021 60002=

48018 32558 10401 10293 20230 40103 81400 333 10337

56900 58011 60002=

48019 32950 00000 10287 20233 40099 333 10342 58017

60002=

48020 32440 10000 10290 20248 81400 333 10340 56500

60002=

48025 32458 30000 10298 20239 40103 83800 333 10325

56600 58016 60002=

48035 32510 10000 10261 20215 40087 81100 333 10307

56900 59001 60002=

48037 32440 23601 10300 20254 40090 82200 333 10342

56700 58018 60002=

48042 32957 00000 10310 20237 40084 333 10350 58012

60002=

48045 32450 32302 10210 20178 83300 333 10252 56500

60002=

48048 32550 10000 10300 20239 40088 81500 333 10357

56900 58010 60002=

48053 32950 00000 10290 20230 40089 333 10352 58017

60002=

48060 32420 10000 10250 20205 40082 81100 333 10290

56400 58011 60002=

48030 32556 60401 10179 20165 86900 333 10220 56100

60002=

48031 32259 22201 10184 20108 82800 333 10255 56900

60002=

48033 32959 00000 10300 20253 40066 333 10340 59010

60002=

48034 32956 00000 10230 20163 333 10303 60002=

48039 32460 13201 10300 20266 81400 333 10351 56900

60002=

48043 32010 00000 10235 20209 333 10285 60002=

48052 32950 00000 10338 20288 333 10376 56000 60002=

48055 32450 73602 10238 20226 40103 85970 333 10298

56540 58014 60002=

48064 32950 00000 10290 20248 40081 333 10345 58011

60002=

48065 32450 30000 10308 20254 82830 333 10360 56990

60002=  
SMBM01 VBRR 241200

AAXX 24124

48001 22420 30000 10230 20214 40137 82450 333 10263

56550 58026 60032=

48004 32560 10000 10264 20240 81100 333 10318 56900

60002=

48008 32556 10000 10280 20203 40104 81400 333 10332

56500 58017 60002=

48010 32330 10000 10290 20259 40100 81400 333 10336

56900 58021 60002=

48018 32558 10401 10293 20230 40103 81400 333 10337

56900 58011 60002=

48019 32950 00000 10287 20233 40099 333 10342 58017

60002=

48020 32440 10000 10290 20248 81400 333 10340 56500

60002=

48025 32458 30000 10298 20239 40103 83800 333 10325

56600 58016 60002=

48035 32510 10000 10261 20215 40087 81100 333 10307

56900 59001 60002=

48037 32440 23601 10300 20254 40090 82200 333 10342

56700 58018 60002=

48042 32957 00000 10310 20237 40084 333 10350 58012

60002=

48045 32450 32302 10210 20178 83300 333 10252 56500

60002=

48048 32550 10000 10300 20239 40088 81500 333 10357

56900 58010 60002=

48053 32950 00000 10290 20230 40089 333 10352 58017

60002=

48060 32420 10000 10250 20205 40082 81100 333 10290

56400 58011 60002=

48030 32556 60401 10179 20165 86900 333 10220 56100

60002=

48031 32259 22201 10184 20108 82800 333 10255 56900

60002=

48033 32959 00000 10300 20253 40066 333 10340 59010

60002=

48034 32956 00000 10230 20163 333 10303 60002=

48039 32460 13201 10300 20266 81400 333 10351 56900

60002=

48043 32010 00000 10235 20209 333 10285 60002=

48052 32950 00000 10338 20288 333 10376 56000 60002=

48055 32450 73602 10238 20226 40103 85970 333 10298

56540 58014 60002=

48064 32950 00000 10290 20248 40081 333 10345 58011

60002=

48065 32450 30000 10308 20254 82830 333 10360 56990

60002=  





