



*-*-*


<!--
.style2 {
	font-family:"Courier New", Courier, monospace;
	font-size: 14px;
}
-->






SIBM20 VBRR 250300

AAXX 25034
48001 32557 32701 10218 20173 40149 83800 333 56600 59002=
48004 32562 21301 10225 20196 82800 333 56900=
48008 32557 60401 10253 20186 40171 83850 333 56110 58024=
48010 22440 70000 10230 20181 40159 83521 333 56566 58006=
48018 22558 80401 10253 20186 40151 8487/ 333 56569 58013=
48019 32456 80401 10248 20205 40147 8577/ 333 56459 58019=
48020 31256 80402 10222 20205 75155 8572/ 333 56599=
48025 32420 60401 10237 20209 40151 8587/ 333 56559 58031=
48030 31250 80401 10160 20123 70144 889// 333 56199=
48031 31257 82201 10170 20154 76066 883// 333 56599=
48033 32562 63601 10320 20200 40121 85960 333 56990 59002=
48034 21248 80000 10175 20175 75096 8692/ 333 5659/=
48035 31550 80000 10222 20185 40144 75022 8597/ 333 56569 58008=
48037 32550 83602 10262 20203 40135 8587/ 333 56659 58003=
48039 22459 73201 10270 20211 84860 333 56550=
48042 22556 71802 10283 20220 40125 84950 333 56550 59002=
48043 32640 80000 10210 20195 8587/ 333 56999=
48045 21/45 71802 10200 20168 74144 85330 333 56190=
48048 32558 73201 10290 20215 40134 85950 333 56490 58010=
48051 32558 83202 10271 20230 70122 83830 333 56790=
48052 32458 53204 10290 20215 85900 333 56900=
48053 22550 63201 10280 20203 40118 83556 333 56599 59012=
48055 22556 42302 10252 20167 40121 83801 333 56509 59012=
48057 32457 52202 10224 20156 84301 333 56509=
48060 32440 70000 10265 20198 40139 84870 333 56590 58011=
48062 22456 70902 10270 20240 40130 85970 333 56990 59023=
48064 32960 10401 10320 20248 40118 80001 333 56009 58009=
48065 32960 10404 10326 20212 80001 333 56009=
48071 22458 30502 10290 20230 40130 83800 333 56900 59021=
48072 32960 01303 10310 20237 70222=
48074 32958 21401 10290 20230 40138 80050 333 56050 59003=
48075 22457 41401 10250 20210 40136 70122 82105 333 56509 59006=
48077 32959 02301 10294 20230 40114 333 59011=
48078 32556 51801 10297 20227 40136 82531 333 56449 59004=
48080 32959 01302 10303 20266 40136 333 59008=
48085 32958 03202 10312 20237 40128 333 59005=
48087 22960 00000 10290 20230=
48092 21458 31302 10315 20251 40105 70522 83800 333 56900 59011=
48093 22958 01401 10310 20237=
48094 31958 03202 10275 20245 40125 72844 333 59009=
48095 32958 02201 10300 20253=
48097 22557 31401 10320 20236 40138 83800 333 56900 59006=
48099 22456 13201 10293 20230 40125 81100 333 56700 59009=
48101 22659 12701 10310 20254 70211 81100 333 56300=
48103 32456 30402 10304 20223 40128 83800 333 56100 59005=
48107 22950 00901 10303 20239 40115 333 59000=
48108 22596 62302 10300 20239 40132 83336 333 56499 59003=
48109 22497 40000 10320 20265 40127 84900 333 56900 59005=
48110 21596 82302 10300 20253 40134 70522 82357 333 56999 58004=
48112 32598 60401 10303 20253 40130 82216 333 56199 58000=  
SIBM20 VBRR 250300

AAXX 25034
48001 32557 32701 10218 20173 40149 83800 333 56600
59002=
48004 32562 21301 10225 20196 82800 333 56900=
48008 32557 60401 10253 20186 40171 83850 333 56110
58024=
48010 22440 70000 10230 20181 40159 83521 333 56566
58006=
48018 22558 80401 10253 20186 40151 8487/ 333 56569
58013=
48019 32456 80401 10248 20205 40147 8577/ 333 56459
58019=
48020 31256 80402 10222 20205 75155 8572/ 333 56599=
48025 32420 60401 10237 20209 40151 8587/ 333 56559
58031=
48035 NIL=
48037 NIL=
48042 NIL=
48045 NIL=
48048 NIL=
48051 NIL=
48053 NIL=
48060 NIL=
48062 NIL=
48071 NIL=
48075 NIL=
48077 NIL=
48078 NIL=
48080 NIL=
48085 NIL=
48095 NIL=
48108 NIL=
48109 NIL=
48110 NIL=
48112 NIL=
48030 31250 80401 10160 20123 70144 889// 333 56199=
48072 NIL=
48087 NIL=
48099 NIL=
48101 NIL=
48103 NIL=
48057 NIL=
48094 NIL=
48097 NIL=
48031 31257 82201 10170 20154 76066 883// 333 56599=
48033 NIL=
48034 NIL=
48039 NIL=
48043 NIL=
48052 NIL=
48055 NIL=
48064 NIL=
48065 NIL=
48074 NIL=
48092 NIL=
48093 NIL=
48107 NIL=  





