



*-*-*


<!--
.style2 {
	font-family:"Courier New", Courier, monospace;
	font-size: 14px;
}
-->






SIBM20 VBRR 250900

AAXX 25094

48001 21320 83201 10265 20256 40021 72166 8477/ 333

56739 58006=

48004 32560 53201 10310 20254 85900 333 56500=

48008 32457 62301 10335 20257 40011 83970 333 56450

59013=

48010 32560 51801 10320 20265 40015 83831 333 56555

59008=

48018 32560 81401 10322 20256 40012 83830 333 56330

59007=

48019 32702 ///// 10334 20258 40012 81262 333 56477 59006=

48020 32360 51304 10340 20288 84330 333 56440=

48025 32456 51401 10330 20244 40015 83841 333 56559

59003=

48035 32560 60000 10281 20233 40015 84960 333 56590

58010=

48037 32560 41401 10350 20240 40011 81132 333 56439

59007=

48042 32559 61802 10350 20237 40005 84850 333 56440 58000=

48045 31430 81405 10250 20219 74244 8785/ 333 56299=

48048 32560 72201 10335 20257 40019 85950 333 56490

58002=

48051 32559 51303 10331 20260 84930 333 56490=

48053 32460 51803 10340 20257 40010 83956 333 56499

59005=

48060 21450 60000 10260 20229 40019 71796 83970 333

56560 58019=

48062 32458 41804 10300 20280 40016 70122 83930 333

56490 59010=

48071 21460 62303 10290 20274 40018 72162 84970 333

56990 59017=

48075 32457 60000 10280 20233 40024 84631 333 56599

58006=

48077 32559 72304 10320 20265 40020 85931 333 56499

59012=

48078 32560 41801 10312 20261 40032 83801 333 56409

59010=

48080 32460 62209 10312 20267 40031 84870 333 56590

59013=

48085 31457 82202 10284 20250 40028 71799 85976 333

56999 59013=

48095 21458 80000 10275 20275 76155 84970 333 56990=

48108 21494 82306 10270 20240 40064 75165 8632/ 333

5659/ 59026=

48109 NIL=

48110 21495 80702 10260 20246 40080 75155 86377 333

56699 58002=

48112 21496 82201 10250 20250 40094 75055 8477/ 333

5659/ 58013=

48030 32256 70402 10224 20205 86940 333 56180=

48072 32460 82702 10310 20267 83830 333 56590=

48087 22560 62302 10300 20266 83371 333 56499=

48099 21457 61302 10283 20250 40048 70151 84930 333

56990 58000=

48101 31558 72302 10288 20248 75022 85970 333 56590=

48103 22457 62202 10298 20266 40039 84830 333 56550

59012=

48057 32458 61402 10250 20205 85950 333 56390=

48094 22459 72202 10280 20275 40031 84970 333 56590

59008=

48097 21557 82401 10270 20270 40049 75096 8697/ 333

5699/ 59002=

48031 32260 51401 10250 20205 85300 333 56400=

48033 32563 41801 10330 20258 40012 84800 333 56500

59002=

48034 32457 61802 10287 20215 86300 333 56500=

48039 32460 72201 10341 20240 84960 333 56440=

48043 22556 83205 10230 20230 8587/ 333 56599=

48052 32468 51302 10330 20258 85900 333 56900=

48055 32456 62006 10280 20219 40009 84331 333 56559

59001=

48064 32560 30000 10340 20257 40010 82801 333 56409

58001=

48065 32560 30401 10340 20308 83500 333 56900=

48074 32461 41803 10335 20257 40024 84300 333 56400

59018=

48092 31456 82305 10280 20250 40022 71722 8597/ 333

5659/ 59010=

48093 21550 82701 10283 20268 75055 8637/ 333 56599=

48107 32350 62301 10290 20259 40056 84970 333 56550

59011=

48096 21457 82205 10280 20250 40039 70262 8597/ 333

5699/ 59008=  





