



*-*-*


<!--
.style2 {
	font-family:"Courier New", Courier, monospace;
	font-size: 14px;
}
-->






SMBM01 VBRR 251200

AAXX 25124

48001 32450 80000 10240 20209 40094 8497/ 333 10280

56459 59016 60002=

48004 32458 70000 10253 20205 87900 333 10268 56500

60002=

48008 31540 40000 10280 20203 40075 71044 82430 333

10308 56560 59011 60002=

48010 32540 40000 10275 20220 40077 81530 333 10335

56660 59009 60002=

48018 31956 00000 10295 20196 40079 71044 333 10325

59021 60002=

48019 32940 00000 10270 20240 40069 333 10324 59010

60002=

48020 32356 60000 10310 20225 83840 333 10342 56550

60002=

48025 31458 23201 10330 20172 40062 70544 81540 333

10345 56990 59014 60002=

48035 31550 40000 10249 20105 40059 70522 83860 333

10300 56690 59011 60002=

48037 31950 00000 10320 20200 40057 70544 333 10365

59012 60002=

48042 32957 00000 10322 20184 40061 333 10365 59010

60002=

48045 32558 20902 10231 20074 82800 333 10280 56500=

48048 32950 02201 10340 20288 40067 333 10372 59005=

48051 32959 03104 10290 20140 70200 80000 333 10354

56000 60002=

48053 32950 02701 10320 20163 40044 333 10365 59028

60002=

48060 32920 00000 10250 20105 40080 333 10315 58006=

48062 31550 22710 10275 20230 40089 70500 82500 333

10300 56900 59010 60002=

48071 32956 03204 10270 20211 40096 333 10295 58000

60002=

48075 31956 02201 10280 20100 40065 70500 80000 333

10320 56000 59041=

48077 32956 00000 10320 20140 40067 333 10378 59007

60002=

48078 32950 11401 10318 20163 40076 80001 333 10375

56009 59011=

48080 32957 03201 10270 20240 40098 333 10325 58001

60002=

48085 32456 23203 10268 20211 40093 82100 333 10300

56700 59006 60002=

48095 32956 00401 10290 20215 70000 80000 333 10355

56000 60002=

48108 32596 33205 10300 20203 40096 82406 333 10355

56909 59002=

48109 32996 00000 10282 20233 40102 70222 80000 333

10317 56000 59003 60002=

48110 31595 53203 10305 20238 40091 70522 82306 333

10325 56909 59002=

48112 32598 53203 10295 20220 40092 70222 81116 333

10337 56799 58002=

48030 31956 02204 10200 20060 70544 333 10238 60002=

48072 32957 03203 10260 20215 70000 80000 333 10330

56000 60002=

48087 32940 00000 10290 20179 80000 333 10364 56000=

48099 32450 12701 10302 20207 40075 81500 333 10357

56900 59003=

48101 32956 03201 10282 20184 333 10333 60002=

48103 32550 22201 10293 20196 40087 82500 333 10366

56500 59005=

48057 32950 01401 10230 20074 80000 333 10275 56000=

48094 32957 03201 10290 20200 40088 333 10361 59009=

48097 32456 22301 10295 20132 40104 70211 82500 333

10364 56900 59003=

48031 31956 01401 10210 20072 70500 333 10245 60002=

48033 32962 00000 10312 20215 40062 333 10353 59015

60002=

48034 32956 00000 10226 20124 333 10290 60002=

48039 32459 22201 10312 20189 82400 333 10360 56900

60002=

48043 32020 00000 10235 20136 333 10276 60002=

48052 32950 02202 10358 20156 333 10378 60002=

48055 31956 01802 10263 20138 40047 70500 333 10320

59024 60002=

48064 32950 00000 10320 20184 40052 333 10377 58001

60002=

48065 32950 00000 10330 20151 333 10378 60002=

48074 32457 11401 10314 20169 40079 81400 333 10360

56900 59003 60002=

48092 31956 02301 10310 20146 40065 70500 80000 333

10365 56000 59002 60002=

48093 32950 00401 10310 20146 333 10349=

48107 32940 02701 10280 20203 40091 333 10347 56000

59003=  
SMBM01 VBRR 251200

AAXX 25124

48001 32450 80000 10240 20209 40094 8497/ 333 10280 56459 59016=

48004 32458 70000 10253 20205 87900 333 10268 56500=

48008 31540 40000 10280 20203 40075 71044 82430 333 10308 56560 59011=

48010 32540 40000 10275 20220 40077 81530 333 10335 56660 59009=

48018 31956 00000 10295 20196 40079 71044 333 10325 59021=

48019 32940 00000 10270 20240 40069 333 10324 59010=

48020 32356 60000 10310 20225 83840 333 10342 56550=

48025 31458 23201 10330 20172 40062 70544 81540 333 10345 56990 59014=

48030 31956 02204 10200 20060 70544 333 10238=

48031 31956 01401 10210 20072 70500 333 10245=

48033 32962 00000 10312 20215 40062 333 10353 59015=

48034 32956 00000 10226 20124 333 10290=

48035 31550 40000 10249 20105 40059 70522 83860 333 10300 56690 59011=

48037 31950 00000 10320 20200 40057 70544 333 10365 59012=

48039 32459 22201 10312 20189 82400 333 10360 56900=

48042 32957 00000 10322 20184 40061 333 10365 59010=

48043 32020 00000 10235 20136 333 10276=

48045 32558 20902 10231 20074 82800 333 10280 56500=

48048 32950 02201 10340 20288 40067 333 10372 59005=

48051 32959 03104 10290 20140 70200 80000 333 10354 56000=

48052 32950 02202 10358 20156 333 10378=

48053 32950 02701 10320 20163 40044 333 10365 59028=

48055 31956 01802 10263 20138 40047 70500 333 10320 59024=

48057 32950 01401 10230 20074 80000 333 10275 56000=

48060 32920 00000 10250 20105 40080 333 10315 58006=

48062 31550 22710 10275 20230 40089 70500 82500 333 10300 56900 59010=

48064 32950 00000 10320 20184 40052 333 10377 58001=

48065 32950 00000 10330 20151 333 10378=

48071 32956 03204 10270 20211 40096 333 10295 58000=

48072 32957 03203 10260 20215 70000 80000 333 10330 56000=

48074 32457 11401 10314 20169 40079 81400 333 10360 56900 59003=

48075 31956 02201 10280 20100 40065 70500 80000 333 10320 56000 59041=

48077 32956 00000 10320 20140 40067 333 10378 59007=

48078 32950 11401 10318 20163 40076 80001 333 10375 56009 59011=

48080 32957 03201 10270 20240 40098 333 10325 58001 60002=

48085 32456 23203 10268 20211 40093 82100 333 10300 56700 59006= 

48087 32940 00000 10290 20179 80000 333 10364 56000=

48092 31956 02301 10310 20146 40065 70500 80000 333 10365 56000 59002=

48093 32950 00401 10310 20146 333 10349=

48094 32957 03201 10290 20200 40088 333 10361 59009=

48095 32956 00401 10290 20215 70000 80000 333 10355 56000=

48097 32456 22301 10295 20132 40104 70211 82500 333 10364 56900 59003=

48099 32450 12701 10302 20207 40075 81500 333 10357 56900 59003=

48101 32956 03201 10282 20184 333 10333=

48103 32550 22201 10293 20196 40087 82500 333 10366 56500 59005=

48107 32940 02701 10280 20203 40091 333 10347 56000 59003=

48108 32596 33205 10300 20203 40096 82406 333 10355 56909 59002=

48109 32996 00000 10282 20233 40102 70222 80000 333 10317 56000 59003=

48110 31595 53203 10305 20238 40091 70522 82306 333 10325 56909 59002=

48112 32598 53203 10295 20220 40092 70222 81116 333 10337 56799 58002=  





