



*-*-*


<!--
.style2 {
	font-family:"Courier New", Courier, monospace;
	font-size: 14px;
}
-->






SMBM01 VBRR 250600

AAXX 25064

48001 NIL=

48004 32560 31301 10223 20136 82200 333 56500=

48008 32558 11401 10240 20136 40174 81100 333 56500 59005=

48010 32560 11801 10235 20175 40166 81100 333 56900 58001=

48018 32560 31402 10240 20136 40167 83800 333 56300 59011=

48019 32960 00401 10241 20155 40188 333 58006=

48020 32958 03602 10230 20181 333=

48025 31956 03602 10253 20158 40127 70144 333 58006=

48030 32957 02202 10174 20014 333=

48031 32960 00901 10200 20033 333=

48033 32963 03601 10280 20158 40163 333 58012=

48034 32958 02302 10222 20065 333=

48035 32560 10303 10220 20087 40148 81200 333 56900 58016=

48037 32060 00401 10242 20154 40164 333 58006=

48039 32462 12201 10280 20158 81100 333 56500=

48042 32957 02202 10283 20158 40151 333 59004=

48043 32057 02705 10210 20072 333=

48045 32562 11808 10201 20085 81100 333 56500=

48048 32960 00401 10270 20172 40166 333 58003=

48051 32959 03103 10278 20150 70200 333=

48052 32970 03202 10280 20158 333=

48053 32956 03602 10280 20146 40166 333 58013=

48055 32957 00404 10233 20110 40147 333 58010=

48057 32458 12201 10210 20072 81500 333 56600=

48060 32440 10000 10222 20136 40155 81100 333 56500 58018=

48062 32958 00401 10265 20210 40172 333 58007=

48064 32970 01401 10260 20179 40144 333 59002=

48065 32970 00000 10281 20158 333=

48071 31960 03203 10255 20215 40180 70500 333 58004=

48072 32959 02702 10280 20220 70122 333=

48074 32959 00403 10275 20146 40160 333 58003=

48075 32558 20401 10250 20150 40152 82100 333 56500 59008=

48077 32959 00000 10310 20146 40154 333 58004=

48078 32957 11801 10293 20154 40162 80001 333 56009 58005=

48080 32960 02202 10290 20230 40154 333 58001=

48085 31958 02705 10292 20196 40158 70500 333 58003=

48087 32960 02302 10300 20166 333=

48092 31957 02601 10305 20135 40141 70500 333 58010=

48093 32957 03202 10302 20185 333=

48094 32960 00402 10300 20170 40163 333 58007=

48095 32960 00901 10300 20149 333=

48097 32557 23301 10305 20111 40167 70211 82500 333 56900 58011=

48099 32457 31302 10296 20179 40151 86800 333 56300 58002=

48101 32960 03201 10299 20166 333=

48103 32957 00401 10296 20149 40152 333 58005=

48107 32950 00401 10268 20172 40121 333 59004=

48108 31996 32303 10310 20179 40149 80006 333 56009 58002=

48109 32497 30401 10300 20223 40163 83900 333 56900 58003=

48110 31596 20000 10315 20219 40148 70511 81105 333 56209 58004=

48112 32597 60401 10305 20230 40141 70322 83876 333 56199 58001=  
SMBM01 VBRR 250600

AAXX 25064

48001 NIL=

48004 32560 31301 10223 20136 82200 333 56500=

48008 32558 11401 10240 20136 40174 81100 333 56500

59005=

48010 32560 11801 10235 20175 40166 81100 333 56900

58001=

48018 32560 31402 10240 20136 40167 83800 333 56300

59011=

48019 32960 00401 10241 20155 40188 333 58006=

48020 32958 03602 10230 20181 333=

48025 31956 03602 10253 20158 40127 70144 333 58006=

48035 32560 10303 10220 20087 40148 81200 333 56900

58016=

48037 32060 00401 10242 20154 40164 333 58006=

48042 32957 02202 10283 20158 40151 333 59004=

48045 32562 11808 10201 20085 81100 333 56500=

48048 32960 00401 10270 20172 40166 333 58003=

48051 32959 03103 10278 20150 70200 333=

48053 32956 03602 10280 20146 40166 333 58013=

48060 32440 10000 10222 20136 40155 81100 333 56500

58018=

48062 32958 00401 10265 20210 40172 333 58007=

48071 31960 03203 10255 20215 40180 70500 333 58004=

48075 32558 20401 10250 20150 40152 82100 333 56500

59008=

48077 32959 00000 10310 20146 40154 333 58004=

48078 32957 11801 10293 20154 40162 80001 333 56009

58005=

48080 32960 02202 10290 20230 40154 333 58001=

48085 31958 02705 10292 20196 40158 70500 333 58003=

48095 32960 00901 10300 20149 333=

48108 31996 32303 10310 20179 40149 80006 333 56009

58002=

48109 32497 30401 10300 20223 40163 83900 333 56900

58003=

48110 31596 20000 10315 20219 40148 70511 81105 333

56209 58004=

48112 32597 60401 10305 20230 40141 70322 83876 333

56199 58001=

48030 32957 02202 10174 20014 333=

48072 32959 02702 10280 20220 70122 333=

48087 32960 02302 10300 20166 333=

48099 32457 31302 10296 20179 40151 86800 333 56300

58002=

48101 32960 03201 10299 20166 333=

48103 32957 00401 10296 20149 40152 333 58005=

48057 32458 12201 10210 20072 81500 333 56600=

48094 32960 00402 10300 20170 40163 333 58007=

48097 32557 23301 10305 20111 40167 70211 82500 333

56900 58011=

48031 32960 00901 10200 20033 333=

48033 32963 03601 10280 20158 40163 333 58012=

48034 32958 02302 10222 20065 333=

48039 32462 12201 10280 20158 81100 333 56500=

48043 32057 02705 10210 20072 333=

48052 32970 03202 10280 20158 333=

48055 32957 00404 10233 20110 40147 333 58010=

48064 32970 01401 10260 20179 40144 333 59002=

48065 32970 00000 10281 20158 333=

48074 32959 00403 10275 20146 40160 333 58003=

48092 31957 02601 10305 20135 40141 70500 333 58010=

48093 32957 03202 10302 20185 333=

48107 32950 00401 10268 20172 40121 333 59004=  





