



*-*-*


<!--
.style2 {
	font-family:"Courier New", Courier, monospace;
	font-size: 14px;
}
-->






SIBM20 VBRR 250300

AAXX 25034

48001 21320 83201 10247 20247 40000 76266 887// 333

56399 59025=

48004 32110 80000 10261 20261 8697/ 333 56559=

48008 32556 62301 10290 20259 49993 83970 333 56450

59027=

48010 22440 80000 10275 20268 40001 887// 333 56499

59021=

48018 22560 73201 10305 20253 40001 8387/ 333 56119

59021=

48019 32460 70000 10310 20267 49999 84760 333 56660

59017=

48020 21256 80000 10270 20256 75055 8572/ 333 56499=

48025 21210 80000 10270 20256 49992 75055 8542/ 333

56999 59024=

48035 32560 80000 10269 20211 49998 8597/ 333 56459

59017=

48037 32460 71801 10311 20237 49985 85830 333 56550

59036=

48042 32558 71805 10305 20230 49993 84850 333 56440

59028=

48045 21003 91403 10200 20200 70364 89/// 333 56999=

48048 32558 71802 10290 20240 49999 85950 333 56490

59015=

48051 21456 83601 10250 20250 79696 86920 333 56990=

48053 22358 71805 10260 20246 40018 85770 333 56490

59023=

48060 32340 52201 10285 20218 40005 83830 333 56490

59001=

48062 21340 82309 10270 20270 49997 76096 86920 333

56590 59032=

48071 22458 82308 10282 20268 40003 70222 8692/ 333

5659/ 59038=

48075 32456 80000 10250 20230 40052 8677/ 333 5659/

59007=

48077 21559 82301 10260 20246 40023 70262 85970 333

56490 59012=

48078 21440 81801 10252 20250 40050 76165 8572/ 333

56599 59009=

48080 21457 82215 10252 20252 40035 76265 85720 333

56590 59032=

48085 21356 82707 10284 20268 40029 76166 86920 333

56690 59030=

48095 21458 80000 10260 20260 75155 84970 333 56990=

48108 21494 81402 10234 20234 40095 79696 8692/ 333

5699/ 58003=

48109 32497 72315 10298 20253 40069 84930 333 56990

59020=

48110 21495 80000 10245 20245 40105 76166 8632/ 333

5699/ 58016=

48112 21496 82202 10255 20255 40107 79595 8697/ 333

5659/ 58002=

48030 21/01 90401 10194 20194 76364 89/// 333 56999=

48072 21458 82305 10280 20268 70365 8697/ 333 5699/=

48087 21450 80000 10260 20260 76355 8597/ 333 5649/=

48099 21220 82301 10245 20245 40078 76366 8697/ 333

5659/ 59001=

48101 21456 82301 10250 20233 75165 8597/ 333 5659/=

48103 21330 82202 10247 20247 40073 76066 8672/ 333

5659/ 59005=

48057 21356 82301 10213 20195 70255 86950 333 56490=

48094 21458 80000 10272 20240 40039 76065 86920 333

56590 59028=

48097 21457 82501 10260 20253 40077 75065 8697/ 333

5659/ 59004=

48031 21/02 92201 10195 20195 76064 89/// 333 56999=

48033 32560 71802 10265 20240 40001 86970 333 56490

59018=

48034 21148 80000 10212 20205 75055 8692/ 333 5659/=

48039 21459 72202 10285 20233 70155 84960 333 56550=

48043 32540 81803 10235 20209 8587/ 333 56599=

48052 32460 71302 10300 20239 85970 333 56990=

48055 32456 72305 10250 20212 40014 86930 333 56550

59016=

48064 32460 83601 10280 20250 40006 84870 333 56440

59003=

48065 21456 81402 10273 20256 75022 85970 333 56590=

48074 21350 81403 10253 20253 40004 75165 8677/ 333

56449 59028=

48092 22457 81302 10270 20256 40036 70255 8697/ 333

5699/ 59018=

48093 21556 82301 10262 20246 70355 8697/ 333 56999=

48107 21330 82301 10250 20250 40077 75366 8597/ 333

5655/ 59013=  





