



*-*-*


<!--
.style2 {
	font-family:"Courier New", Courier, monospace;
	font-size: 14px;
}
-->






SMBM01 VBRR 251200

AAXX 25124

48001 48004 32560 10310 20254 84900 333 10338

56500 60002=

48004 NIL=

48008 32556 50000 10310 20237 40025 83950 333 10325

56450 59013 60002=

48010 32540 71801 10280 20250 40010 83731 333 10303

56556 59024 60002=

48018 21556 82301 10275 20256 40024 70355 8597/ 333

10312 56999 59017 69902=

48019 32440 72301 10290 20274 40019 82626 333 10300

56459 59016 60002=

48020 22350 80000 10270 20240 85770 333 10285 56440

60022=

48025 21220 70000 10270 20256 40032 70155 84870 333

10295 56590 59016 60022=

48035 21450 80000 10217 20205 40044 76065 8692/ 333

10238 56999 58008 60032=

48037 21450 80000 10261 20261 40026 75155 8582/ 333

10265 5644/ 59021 60102=

48042 21450 81801 10250 20250 40036 75066 8592/ 333

10270 56449 59005 60132=

48045 21002 91402 10190 20190 75164 89/// 333 10230

56999 60282=

48048 21550 81801 10260 20246 40029 72050 8697/ 333

10285 5649/ 58005 60102=

48051 21456 81302 10254 20254 76266 86920 333 10260

56490 61272=

48053 21450 81802 10250 20250 40045 75055 8597/ 333

10265 56599 59009 60082=

48060 21320 80000 10225 20201 40051 76166 8577/ 333

10255 5649/ 59014 60052=

48062 21350 82303 10250 20250 40034 75066 86920 333

10270 56490 59033 61092=

48071 21350 82304 10270 20270 40040 76266 8692/ 333

10278 5659/ 59036 60152=

48075 22457 70000 10242 20226 40054 85770 333 10262

56590 59022 69902=

48077 22556 80000 10274 20256 40045 85970 333 10282

56490 59013 60072=

48078 21440 81804 10261 20246 40062 75065 8572/ 333

10283 56499 59027 60112=

48080 21456 80402 10250 20250 40053 75165 85770 333

10272 56490 59028 60072=

48085 21356 81402 10246 20245 40061 75065 86920 333

10275 56790 59024 60322=

48095 21456 80000 10250 20250 79655 84970 333 10285

56990 60232=

48108 32495 72302 10288 20259 40094 84377 333 10303

56599 59011 60002=

48109 32496 72305 10298 20253 40075 85930 333 10320

56990 59024 60002=

48110 31496 83202 10290 20259 40093 70299 84357 333

10335 56599 59014 60002=

48112 32598 62702 10300 20253 40091 82216 333 10337

56699 59013 60002=

48030 21110 82202 10172 20172 75055 888// 333 10195

56599 60262=

48072 21456 82301 10270 20250 70365 86970 333 10285

56590 60222=

48087 21440 80000 10250 20250 75365 8597/ 333 10298

5649/ 60292=

48099 21320 82304 10265 20265 40073 76065 8697/ 333

10287 5659/ 59018 60092=

48101 21440 82703 10253 20253 76565 8692/ 333 10308

5699/ 60392=

48103 21440 82202 10272 20256 40070 75055 8677/ 333

10302 5655/ 59027 60022=

48057 21140 81401 10184 20184 75055 8697/ 333 10218

5699/ 60072=

48094 21456 80000 10260 20255 40066 76066 8592/ 333

10300 5659/ 59015 60242=

48097 21457 82402 10245 20236 40082 76066 8697/ 333

10300 5699/ 59025 60352=

48031 21/03 91801 10180 20180 76164 89/// 333 10195

56999 60152=

48033 22560 81801 10260 20246 40046 86970 333 10264

56450 58006 60922=

48034 21148 82301 10202 20202 75365 8692/ 333 10215

5659/ 60412=

48039 21456 81401 10250 20250 75155 889// 333 10275

56499 60092=

48043 21520 81803 10200 20200 76166 8672/ 333 10220

56999 60112=

48052 22450 72201 10260 20260 85970 333 10280 56590

60052=

48055 21456 80000 10230 20214 40035 70265 8697/ 333

10278 5669/ 59010 60072=

48064 32450 80401 10268 20256 40018 84820 333 10300

56440 59024 60002=

48065 22450 80401 10280 20259 75022 85370 333 10295

56990 69902=

48074 21250 82301 10260 20260 40064 72165 8672/ 333

10275 56499 59008 60062=

48092 21450 82309 10245 20237 40058 70366 8697/ 333

10305 5649/ 59021 60302=

48093 21440 82601 10244 20242 75065 8697/ 333 10284

56999 60462=

48107 32330 72302 10280 20250 40082 85970 333 10316

56550 59019 60002=  





