



*-*-*


<!--
.style2 {
	font-family:"Courier New", Courier, monospace;
	font-size: 14px;
}
-->






SMBM01 VBRR 250600

AAXX 25064

48001 NIL=

48004 31556 10901 10291 20196 70511 81100 333 56900=

48008 31556 70401 10279 20146 40151 70544 82970 333 56560 58039=

48010 32560 30000 10250 20219 40139 83800 333 56400 58023=

48018 31958 01402 10315 20163 40132 70500 333 58020=

48019 31456 50402 10290 20179 40138 70522 80060 333 56050 58026=

48020 31950 03602 10320 20215 70500 333=

48025 31401 23601 10337 20164 40141 70544 82500  333 56900 58030=

48030 31140 50409 10332 20087 70544 85800 333 56100=

48031 31960 01801 10250 20105 70544 333=

48033 32563 21801 10330 20212 40136 82500 333 56900 58031=

48034 32456 61802 10210 20128 86800 333 56900=

48035 31530 80000 10237 20136 40151 70522 8597/ 333 5669/ 58077=

48037 31950 01801 10344 20184 40123 70544 333 58031=

48039 31456 31401 10302 20166 70299 82802 333 56505=

48042 21557 31406 10335 20199 40140 70195 83900 333 56400

58047=

48043 31456 81805 10185 20175 8587/ 333 56999=

48045 31558 11402 10259 20070 81100 40400 333 56500 =

48048 32962 01801 10355 20195 40195  333 58030=

48051 31558 80401 10306 20240 70522 84830 333 56590=

48052 32970 02202 10370 20171 333=

48053 31550 62203 10340 20240 40129 70522 84852 333 56599 58025=

48055 31556 70405 10265 20166 40139 70522 84370 333 56550 58066=

48057 32456 51402 10270 20133 85300 333 56400=

48060 32440 73202 10270 20172 40157 85930 333 56590 58043=

48062 32556 62306 10305 20270 40143 70322 83206 333 56909 58019=

48064 32570 11401 10370 20224 40116 81100 333 56900 58038=

48065 32470 50000 10370 20171 83870 333 56990=

48071 31458 32703 10308 20237 40147 70511 83200 333 56900 58024=

48072 32460 10905 10310 20254 81200 333 56900=

48074 32960 01805 10340 20184 40184 333 58035=

48075 32557 42207 10300 20170 40141 70222 84800 333 56500 58047=

48077 32959 02301 10350 20182 40133 333 58024=

48078 32558 21801 10352 20192 40142 81101 333 56909 58026=

48080 31459 22205 10333 20234 40130 70511 82200 333 56900 58023=

48085 32458 42704 10335 20244 40139 84800 333 56900 58016=

48087 32456 62303 10330 20212 70322 84830 333 56990=

48092 32556 41304 10330 20213 40115 70533 82320 333 56320 58020=

48093 32657 53201 10308 20282 70111 85800 333 56900=

48094 32560 43203 10330 20240 40145 83840 333 56990 58028=

48095 32458 72204 10295 20320 70222 83940 333 56990=

48096 32457 71807 10290 20230 40154 70222 84940 333 56990 58036=

48097 32557 71307 10290 20206 40153 84870 333 56990 58037=

48099 21557 80000 10263 20229 40149 70265 8697/ 333 5699/

58042=

48101 32558 71403 10278 20233 70122 85970 333 56390=

48103 32456 80401 10276 20220 40146 86770 333 56110 58028=

48107 32350 62701 10310 20203 40126 84970 333 56550 58021=

48108 32596 30915 10335 20230 40135 84366 333 56299 58010=

48109 32497 20401 10338 20270 40141 82500 333 56900 58013=

48110 31596 82303 10320 20242 40127 70522 83307 333 56909 58013=

48112 32597 80402 10355 20227 40110 83876 333 56199 59004=  





