



*-*-*


<!--
.style2 {
	font-family:"Courier New", Courier, monospace;
	font-size: 14px;
}
-->






SMBM01 VBRR 251200

AAXX 25124

48001 NIL=

48004 21340 81302 10250 20205 79595 8692/ 333 10327 56559 69902=

48008 31450 70000 10248 20167 40119 70544 84970 333 10305 56560

 58044=

48010 21310 83602 10210 20175 40130 79596 889// 333 10280 56499

 58059=

48018 32556 70402 10295 20166 40101 84970 333 10340 56120 58044=

48019 32440 52303 10280 20158 40101 83860 333 10315 56560 58038=

48020 31240 83603 10290 20179 70500 88700 333 10340 56500=

48025 31440 53605 10312 20068 40109 70544 85800 333 10355 56900

 58048=

48030 31130 50404 10122 20102 71796 889// 333 10232 56999 69902=

48031 21350 83203 10140 20082 75095 888// 333 10255 5699/ 69902=

48033 32960 31302 10340 20257 40087 80006 333 10360 56006 58036=

48034 32456 31801 10244 20141 83500 333 10290 56500=

48035 31550 30000 10257 20119 40107 70522 83800 333 10280 56900

 58056=

48037 31540 30401 10357 20235 40070 70544 82830 333 10381 56660

 58013=

48039 32456 40401 10322 20200 83802 333 10345 56505=

48042 22558 40000 10340 20225 40087 82850 333 10380 56499 58032

 69902=

48043 NIL=

48045 31556 41405 10230 20074 70499 84300 333 10281 56500=

48048 32950 02201 10365 20177 40073 333 10395 58018=

48051 32558 43102 10300 20220 84800 333 10340 56900=

48052 32458 52208 10370 20171 85900 333 10395 56900=

48053 22550 71802 10280 20220 40091 71799 85950 333 10355 56490 58029

 69902=

48055 22456 82701 10169 20162 40157 70296 8597/ 333 10277 5655/ 58109

 60112=

48057 21439 71401 10180 20129 70296 85970 85970 333 10265 56490

 60052=

48060 21420 80000 10194 20159 40183 75155 85930 333 10270 56590 58044

 60252=

48062 NIL=

48064 32550 31401 10305 20207 40085 82901 333 10395 56909 58043=

48065 31450 40401 10295 20166 82870 333 10377 56990=

48071 31456 22703 10290 20248 40118 70500 84800 333 10335 56500 58023

 60002=

48072 32956 03201 10300 20223 333 10337=

48074 21456 81402 10266 20191 40121 71799 8497/ 333 10378 56559 58042

 69902=

48075 21456 83201 10180 20180 40161 79596 8697/ 333 10310 5659/ 58093

 60372=

48077 32556 82302 10260 20179 40111 85931 333 10354 56999 58052=

48078 21440 82303 10257 20164 40125 79595 8597/ 333 10372 56699 58053

 69902 =

48080 31457 52201 10322 20239 40118 70522 83870 333 10340 56990

 58028=

48085 32456 32201 10294 20248 40120 83800 333 10345 56400 58020=

48087 32940 20000 10300 20207 80040 333 10340 56090=

48092 31550 10901 10300 20207 40105 70511 81500 333 10334 56900

 58038=

48093 NIL=

48094 32456 32201 10295 20230 40114 82830 333 10335 56990 58026=

48095 32956 00401 10290 20248 333 10325=

48097 32556 42303 102802 0212 40136 84800 333 10324 56900 58040=

48099 21340 60000 10264 20229 40125 70152 84930 333 10325 56990 58044

 69902=

48101 32656 10000 10272 20226 81100 333 10293 56900=

48103 32430 80401 10272 20226 40121 86970 333 10325 56110 58033=

48107 32340 41301 10264 20229 40118 84900 333 10315 56500 58023=

48108 32595 62301 10305 20247 40116 83366 333 10356 56699 58008=

48109 32497 60402 10291 20248 40122 86900 333 10345 56990 58023=

48110 21495 82302 10265 20251 40120 71799 85357 333 10320 56399

 58026=

48112 32597 10902 10315 20242 40110 83876 333 10362 56299 58015=  





