



*-*-*


<!--
.style2 {
	font-family:"Courier New", Courier, monospace;
	font-size: 14px;
}
-->






SMBM01 VBRR 250600

AAXX 25064

48001 32440 20401 10250 20205 40145 82100 333 56500

58003=

48004 32563 13201 10283 20184 81800 333 56900=

48008 32558 10000 10295 20223 40135 81100 333 56900

58012=

48010 32560 10000 10320 20236 40141 81100 333 56900

58020=

48018 32560 13601 10315 20225 40154 81200 333 56900

58021=

48019 32962 02702 10240 20203 40138 333 58020=

48020 32462 13604 10310 20254 81200 333 56400=

48025 32456 43202 10302 20223 40151 83840 333 56590

58031=

48035 32560 20000 10298 20166 40105 82100 333 56900

58009=

48037 32460 33201 10315 20235 40140 83800 333 56200

58026=

48042 32557 22201 10334 20234 40116 82200 333 56900

58011=

48045 32556 62204 10250 20186 86800 333 56500=

48048 32560 50901 10320 20236 40136 85900 333 56800

58020=

48051 32559 13101 10310 20240 70311 80001 333 56009=

48053 32556 63601 10330 20212 40123 82556 333 56699

58015=

48060 32340 40000 10290 20179 40079 84300 333 56200

58019=

48062 32958 00902 10320 20280 40128 333 58012=

48071 32460 13202 10315 20265 40130 81200 333 56900

58014=

48075 32457 72201 10260 20229 40124 85770 333 56590

58019=

48077 32559 30000 10324 20248 40121 83800 333 56900

58013=

48078 32559 52701 10327 20247 40126 83831 333 56499

58015=

48080 32461 22204 10316 20265 40114 82200 333 56300

59002=

48085 32457 33204 10322 20281 40121 83800 333 56300

58012=

48095 32458 60000 10320 20265 82940 333 56990=

48108 32596 50902 10330 20244 40118 83806 333 56209

58014=

48109 32497 40000 10330 20275 40124 70122 84900 333

56900 58003=

48110 31596 43203 10340 20263 40116 70522 83305 333

56909 58011=

48112 32598 60403 10323 20265 40111 70122 82216 333

56199 58012=

48030 32360 50402 10200 20150 85900 333 56100=

48072 32460 61302 10330 20275 70322 84830 333 56490=

48087 32560 30000 10330 20275 83800 333 56100=

48099 32456 30901 10336 20240 40116 83800 333 56900

58010=

48101 21560 50901 10313 20267 70265 83730 333 56990=

48103 32456 33202 10332 20234 40118 81500 333 56700

58014=

48057 32458 61402 10220 20185 85330 333 56490=

48094 32460 30402 10350 20240 40122 70111 82840 333

56290 58014=

48097 32557 50501 10315 20251 40131 70222 82831 333

56999 58012=

48031 32460 61401 10240 20174 84840 333 56460=

48033 32963 00000 10320 20236 40131 333 58022=

48034 32458 31802 10290 20159 83800 333 56500=

48039 32460 22201 10322 20236 82100 333 56100=

48043 32557 50000 10260 20229 85300 333 56600=

48052 32458 33601 10336 20257 83800 333 56900=

48055 21156 80906 10216 20200 40151 72065 8692/ 333

56399 58047=

48064 32960 10901 10328 20258 40124 80001 333 56009

58031=

48065 32960 13201 10328 20239 80001 333 56009=

48074 32461 43202 10320 20265 40127 84800 333 56900

58017=

48092 32457 70903 10320 20248 40105 85330 333 56990

58013=

48093 32658 71401 10325 20258 70322 84841 333 56399=

48107 32950 02301 10328 20291 40108 333 58011=

48096 32458 60504 10320 20265 40129 84331 333 56999

58013=  





