



*-*-*


<!--
.style2 {
	font-family:"Courier New", Courier, monospace;
	font-size: 14px;
}
-->






SIBM20 VBRR 260900

AAXX 26094
48001 21456 70901 10244 20174 40141 70355 84730 333 56660 58058=
48004 32356 73201 10300 20185 87900 333 56500=
48008 22557 80401 10270 20181 40131 84971 333 56819 58025=
48010 32557 80000 10290 20230 40106 8477/ 333 56569 59024=
48018 21558 70402 10295 20207 40113 72055 84870 333 56120 59012=
48019 32456 83602 10295 20215 40111 85670 333 56450 59010=
48020 NIL=
48025 32456 83201 10305 20203 40112 8587/ 333 56559 59021=
48030 32256 82201 10170 20135 889// 333 56599=
48031 21260 81801 10180 20165 76066 883// 333 56499 =
48033 32563 72701 10320 20236 40085 86900 333 56900 59001=
48034 32456 72301 10245 20180 87300 333 56500=
48035 32550 73204 10286 20159 40065 70522 85960 333 56690 59033=
48037 32558 60402 10333 20191 40092 83870 333 56550 58001=
48039 32460 22201 10345 20266 82100 333 56600=
48042 32558 32303 10352 20219 40084 83800 333 56900 58009=
48043 32657 43206 10270 20191 83230 333 56590=
48045 21557 71402 10223 20185 72055 87800 333 56500=
48048 32560 63601 10360 20146 40097 84950 333 56490 59001=
48051 32559 73106 10314 20200 70122 85830 333 56690=
48052 32460 30401 10372 20227 83800 333 56900=
48053 32556 61801 10340 20206 40085 84956 333 56599 58022=
48055 21556 70403 10207 20202 40103 71796 85970 333 56550 58020=
48057 21458 61402 10210 20175 79595 82971 333 56599=
48060 32456 40000 10282 20203 40087 83930 333 56560 59050=
48062 32457 72708 10320 20270 40109 85970 333 56690 58004=
48064 32570 31401 10380 20240 40061 82801 333 56409 59002=
48065 32570 50409 10382 20187 84801 333 56909=
48071 32460 33203 10340 20240 40104 83800 333 56900 58005=
48072 32460 10402 10350 20297 70222 81200 333 56900=
48074 32461 32203 10376 20221 40065 82800 333 56600 59026=
48075 21557 41401 10260 20230 40096 70296 84900 333 56300 58034=
48077 32559 42301 10380 20203 40078 83901 333 56909 58007=
48078 32559 51802 10358 20224 40086 84301 333 56409 58010=
48080 32460 22205 10366 20274 40093 82900 333 56900 58003=
48085 32458 23204 10336 20244 40091 82900 333 56300 58003=
48087 32560 32301 10370 20207 82240 333 56990=
48092 32458 52301 10370 20227 40067 70322 85800 333 56900 59002=
48093 21658 41401 10362 20249 70155 84800 333 56300=
48094 32458 52701 10365 20246 40086 85900 333 56900 58005=
48095 32558 60402 10365 20249 83840 333 56590=
48097 21557 82305 10320 20236 40097 79522 8537/ 333 5699/ 58000=
48099 32457 62303 10335 20257 40082 84930 333 56590 58010=
48101 32560 41801 10337 20240 70211 82331 333 5699/=
48103 32457 42201 10343 20240 40084 84800 333 56500 58009=
48107 21350 81802 10290 20230 40097 71796 85970 333 56440 58016=
48108 21495 80505 10255 20248 40103 79596 84977 333 56999 58010=
48109 NIL=
48110 32596 42302 10375 20258 40094 83906 333 56909 59000=
48112 32597 80402 10320 20236 40089 70222 84876 333 56199 59005=  
SIBM20 VBRR 260900

AAXX 26094
48001 21456 70901 10244 20174 40141 70355 84730 333 56660 58058=
48004 32356 73201 10300 20185 87900 333 56500=
48008 22557 80401 10270 20181 40131 84971 333 56819 58025=
48010 32557 80000 10290 20230 40106 8477/ 333 56569 59024=
48018 21558 70402 10295 20207 40113 72055 84870 333 56120 59012=
48019 32456 83602 10295 20215 40111 85670 333 56450 59010=
48020 NIL=
48025 32456 83201 10305 20203 40112 8587/ 333 56559 59021=
48030 32256 82201 10170 20135 889// 333 56599=
48031 21260 81801 10180 20165 76066 883// 333 56499 =
48033 32563 72701 10320 20236 40085 86900 333 56900 59001=
48034 32456 72301 10245 20180 87300 333 56500=
48035 32550 73204 10286 20159 40065 70522 85960 333 56690 59033=
48037 32558 60402 10333 20191 40092 83870 333 56550 58001=
48039 32460 22201 10345 20266 82100 333 56600=
48042 32558 32303 10352 20219 40084 83800 333 56900 58009=
48043 32657 43206 10270 20191 83230 333 56590=
48045 21557 71402 10223 20185 72055 87800 333 56500=
48048 32560 63601 10360 20146 40097 84950 333 56490 59001=
48051 32559 73106 10314 20200 70122 85830 333 56690=
48052 32460 30401 10372 20227 83800 333 56900=
48053 32556 61801 10340 20206 40085 84956 333 56599 58022=
48055 21556 70403 10207 20202 40103 71796 85970 333 56550 58020=
48057 21458 61402 10210 20175 79595 82971 333 56599=
48060 32456 40000 10282 20203 40087 83930 333 56560 59050=
48062 32457 72708 10320 20270 40109 85970 333 56690 58004=
48064 32570 31401 10380 20240 40061 82801 333 56409 59002=
48065 32570 50409 10382 20187 84801 333 56909=
48071 32460 33203 10340 20240 40104 83800 333 56900 58005=
48072 32460 10402 10350 20297 70222 81200 333 56900=
48074 32461 32203 10376 20221 40065 82800 333 56600 59026=
48075 21557 41401 10260 20230 40096 70296 84900 333 56300 58034=
48077 32559 42301 10380 20203 40078 83901 333 56909 58007=
48078 32559 51802 10358 20224 40086 84301 333 56409 58010=
48080 32460 22205 10366 20274 40093 82900 333 56900 58003=
48085 32458 23204 10336 20244 40091 82900 333 56300 58003=
48087 32560 32301 10370 20207 82240 333 56990=
48092 32458 52301 10370 20227 40067 70322 85800 333 56900 59002=
48093 21658 41401 10362 20249 70155 84800 333 56300=
48094 32458 52701 10365 20246 40086 85900 333 56900 58005=
48095 32558 60402 10365 20249 83840 333 56590=
48097 21557 82305 10320 20236 40097 79522 8537/ 333 5699/ 58000=
48099 32457 62303 10335 20257 40082 84930 333 56590 58010=
48101 32560 41801 10337 20240 70211 82331 333 5699/=
48103 32457 42201 10343 20240 40084 84800 333 56500 58009=
48107 21350 81802 10290 20230 40097 71796 85970 333 56440 58016=
48108 21495 80505 10255 20248 40103 79596 84977 333 56999 58010=
48109 NIL=
48110 32596 42302 10375 20258 40094 83906 333 56909 59000=
48112 32597 80402 10320 20236 40089 70222 84876 333 56199 59005=  





