



*-*-*


<!--
.style2 {
	font-family:"Courier New", Courier, monospace;
	font-size: 14px;
}
-->






SMBM01 VBRR 261800 RRA

AAXX 26184
48008 22410 70000 10240 20209 40177 83970 333 56880 58027=
48010 32401 40000 10240 20209 40118 84600 333 56900 59019=
48018 22520 73201 10240 20209 40129 83870 333 56560 58010=
48025 22405 63201 10250 20205 40126 83870 333 56590 59010=
48042 32550 60000 10287 20230 40100 84950 333 56690 59006=
48053 32440 70000 10280 20220 40100 84956 333 56699 59026=
48057 21439 51501 10192 20159 70299 84950 333 56990=
48060 21420 70000 10193 20191 40136 70265 84970 333 56590 58000=
48062 32450 73202 10265 20240 40115 70122 85970 333 56690 59003=
48071 32420 13201 10270 20240 40098 81200 333 56900 59010=
48078 31550 51803 10301 20239 40108 83933 333 56599 59002=
48080 32440 40000 10270 20240 40117 82870 333 56990 59011=
48094 32956 00000 10270 20240 40107 333 59012=
48097 22556 61801 10280 20233 40131 82830 333 56990 58003=
48099 21330 21301 10250 20233 40113 70155 82500 333 56900 58005=
48103 32410 61402 10240 20191 40115 84930 333 56330 58014=
48108 22595 61401 10245 20236 40127 83306 333 56909 58001=
48109 32495 40000 10282 20250 40104 70222 84900 333 56900 59003=
48110 21493 83202 10240 20240 40129 71799 8632/ 333 5699/ 58008=
48112 32597 70402 10280 20250 40102 83876 333 56199 59002=  





