



*-*-*


<!--
.style2 {
	font-family:"Courier New", Courier, monospace;
	font-size: 14px;
}
-->






SIBM20 VBRR 261500 RRA

AAXX 26154

48097 22556 61801 10290 20239 40132 84830 333 56990 58001=  
SIBM20 VBRR 261500 RRA

AAXX 26154
48097 22556 61801 10290 20239 40132 84830 333 56990 58001=  
SIBM20 VBRR 261500 RRA

AAXX 26154

48097 22556 61801 10290 20239 40132 84830 333 56990 58001=  





