



*-*-*


<!--
.style2 {
	font-family:"Courier New", Courier, monospace;
	font-size: 14px;
}
-->






SIBM20 VBRR 260300

AAXX 26034

48001 NIL=

48004 31458 31301 10196 20168 70144 83800 333 56500=

48008 31556 40000 10213 20175 40109 71044 82430 333 56560 59017=

48010 31050 01801 10205 20168 40110 70144 333 59024=

48018 31956 00401 10215 20175 40118 71044 333 59001=

48019 32960 00000 10218 20173 40099 333 59014=

48020 31957 00000 10220 20185 70511 333=

48025 31120 12201 10222 20156 40105 70544 81600 333 56900 59016=

48030 31950 02203 10092 20068 74044 333=

48031 31960 03601 10190 20096 70500 333=

48033 32962 01801 10250 20167 40080 333 59031=

48034 31956 00000 10168 20117 71000 333=

48035 31920 00000 10169 20135 40114 71000 333 59006=

48037 31950 00901 10211 20143 40100 70544 333 59013=

48039 31950 21401 10245 20114 70511 80002 333 56009=

48042 31956 01802 10277 20146 40095 70500 333 59018=

48043 32056 03205 10200 20130 333=

48045 32960 01402 10196 20060 333=

48048 32960 00901 10230 20143 40140 333 59013=

48051 32958 03101 10214 20160 70500 333=

48052 32970 03202 10240 20155 333=

48053 32950 01802 10250 20126 40109 70500 333 59014=

48055 31956 01803 10195 20054 40124 70500 333 59013=

48057 32958 01401 10204 20109 333=

48060 32960 00000 10185 20113 40144 333 58007=

48062 31940 00202 10225 20180 40117 71022 333 59005=

48064 32960 03201 10235 20136 40101 333 59015=

48065 32968 00000 10268 20138 333=

48071 31956 00000 10245 20233 40120 71040 333 59006=

48072 32459 21301 10260 20229 70122 82300 333 56600=

48074 32958 00902 10245 20136 40121 333 59016=

48075 31957 00000 10185 20145 40139 70511 333 59003=

48077 32959 00000 10240 20155 40106 333 59010=

48078 32956 11401 10238 20155 40126 80001 333 56009 59001=

48080 32959 00401 10214 20155 40128 333 58000=

48085 31957 03202 10222 20205 40121 71044 333 59001=

48087 32956 00000 10214 20175 333=

48092 31950 01303 10245 20189 40103 70500 333 59007=

48093 32958 02301 10240 20191 70211 333=

48094 32959 03201 10258 20230 40116 333 59006=

48095 32958 20000 10230 20214 70311 80002 333 56009=

48096 31450 41902 10220 20205 40132 71044 84500 333 56900 58006= 

48097 31556 22303 10225 20192 40140 70544 81101 333 56909 58000=

48099 31440 20401 10270 20211 40127 70244 82500 333 56900 58002=

48101 31958 03201 10238 20209 70040 333=

48103 31456 20401 10279 20220 40122 70144 82500 333 56100 58003=

48107 31950 02701 10270 20211 40120 333 58012=

48108 31996 33202 10250 20205 40131 70144 80006 333 56009 58006=

48109 32997 00401 10270 20211 40129 333 59003=

48110 31596 31303 10290 20230 40123 70511 81206 333 56209 58000=

48112 32598 60401 10270 20226 40122 82216 333 56199 58005=  
SIBM20 VBRR 260300

AAXX 26034

48001 NIL=

48004 31458 31301 10196 20168 70144 83800 333 56500=

48008 31556 40000 10213 20175 40109 71044 82430 333

56560 59017=

48010 31050 01801 10205 20168 40110 70144 333 59024=

48018 NIL=

48019 32960 00000 10218 20173 40099 333 59014=

48020 31957 00000 10220 20185 70511 333=

48025 31120 12201 10222 20156 40105 70544 81600 333

56900 59016=

48035 31920 00000 10169 20135 40114 71000 333 59006=

48037 31950 00901 10211 20143 40100 70544 333 59013=

48042 31956 01802 10277 20146 40095 70500 333 59018=

48045 32960 01402 10196 20060 333=

48048 32960 00901 10230 20143 40140 333 59013=

48051 32958 03101 10214 20160 70500 333=

48053 32950 01802 10250 20126 40109 70500 333 59014=

48060 32960 00000 10185 20113 40144 333 58007=

48062 31940 00202 10225 20180 40117 71022 333 59005=

48071 31956 00000 10245 20233 40120 71040 333 59006=

48075 31957 00000 10185 20145 40139 70511 333 59003=

48077 32959 00000 10240 20155 40106 333 59010=

48078 32956 11401 10238 20155 40126 80001 333 56009

59001=

48080 32959 00401 10214 20155 40128 333 58000=

48085 31957 03202 10222 20205 40121 71044 333 59001=

48095 32958 20000 10230 20214 70311 80002 333 56009=

48108 31996 33202 10250 20205 40131 70144 80006 333

56009 58006=

48109 32997 00401 10270 20211 40129 333 59003=

48110 31596 31303 10290 20230 40123 70511 81206 333

56209 58000=

48112 32598 60401 10270 20226 40122 82216 333 56199

58005=

48030 31950 02203 10092 20068 74044 333=

48072 32459 21301 10260 20229 70122 82300 333 56600=

48087 32956 00000 10214 20175 333=

48099 31440 20401 10270 20211 40127 70244 82500 333

56900 58002=

48101 31958 03201 10238 20209 70040 333=

48103 31456 20401 10279 20220 40122 70144 82500 333

56100 58003=

48057 32958 01401 10204 20109 333=

48094 32959 03201 10258 20230 40116 333 59006=

48097 31556 22303 10225 20192 40140 70544 81101 333

56909 58000=

48031 31960 03601 10190 20096 70500 333=

48033 32962 01801 10250 20167 40080 333 59031=

48034 31956 00000 10168 20117 71000 333=

48039 31950 21401 10245 20114 70511 80002 333 56009=

48043 32056 03205 10200 20130 333=

48052 32970 03202 10240 20155 333=

48055 31956 01803 10195 20054 40124 70500 333 59013=

48064 32960 03201 10235 20136 40101 333 59015=

48065 32968 00000 10268 20138 333=

48074 32958 00902 10245 20136 40121 333 59016=

48092 31950 01303 10245 20189 40103 70500 333 59007=

48093 32958 02301 10240 20191 70211 333=

48107 31950 02701 10270 20211 40120 333 58012=  





