



*-*-*


<!--
.style2 {
	font-family:"Courier New", Courier, monospace;
	font-size: 14px;
}
-->






SIBM20 VBRR 260900

AAXX 26094

48001 21456 70401 10298 20253 49969 75055 84850 333

56180 58017=

48004 31460 52202 10296 20253 70152 85900 333 56500=

48008 32457 52301 10333 20267 49959 82970 333 56560

59013=

48010 32457 71801 10290 20274 49978 85970 333 56440

58000=

48018 21560 61801 10320 20265 49984 72055 83872 333

56554 58003=

48019 32458 73202 10338 20244 49962 84970 333 56450

58000=

48020 21358 70403 10332 20275 70255 85330 333 56440=

48025 21330 80000 10290 20259 49960 75055 8572/ 333

56459 59010=

48035 32560 71402 10288 20230 49916 85970 333 56790

58012=

48037 32558 81401 10310 20254 49966 70255 888// 333

56599 58000=

48042 21560 71808 10324 20248 49971 70255 84970 333

56440 58003=

48045 21130 71402 10210 20195 72164 87700 333 56500=

48048 22558 71803 10335 20240 49965 85950 333 56490

59003=

48051 21458 81302 10256 20256 76066 86920 333 56490=

48053 32456 81805 10290 20248 49987 8595/ 333 56599

59001=

48060 22340 71802 10260 20215 49991 70122 85830 333

56590 58019=

48062 21356 82709 10260 20260 49980 76365 85920 333

56690 58004=

48071 21358 82307 10275 20275 49988 75165 8692/ 333

5659/ 58003=

48075 21457 82201 10250 20219 40016 75255 8597/ 333

5659/ 59009=

48077 21457 80000 10260 20246 40021 76166 85970 333

56490 58014=

48078 21440 81801 10275 20268 40036 75065 8477/ 333

56499 58012=

48080 21457 81309 10252 20250 40025 76266 85720 333

56590 58007=

48085 21356 82206 10266 20246 40029 75165 86920 333

56590 58017=

48095 21558 81802 10270 20270 72055 85970 333 56690=

48108 21495 82302 10250 20250 40084 75165 8537/ 333

5649/ 58000=

48109 NIL=

48110 21495 81303 10265 20251 40092 75155 8632/ 333

5659/ 59003=

48112 32597 82202 10301 20253 40086 84876 333 56599

58001=

48030 21256 72201 10212 20175 72165 86840 333 56560=

48072 21458 82715 10270 20270 76066 8697/ 333 5699/=

48087 22458 72302 10270 20256 70322 8597/ 333 5649/=

48099 21440 81301 10278 20268 40048 70265 8697/ 333

5639/ 59006=

48101 21456 82303 10282 20268 76152 8697/ 333 5659/=

48103 21340 82202 10260 20256 40051 75055 8672/ 333

5659/ 59003=

48057 21457 71404 10214 20195 70166 85950 333 56490=

48094 21457 82202 10260 20255 40042 76166 8592/ 333

56599 58020=

48097 21457 82403 10280 20250 40042 75065 8597/ 333

5649/ 59007=

48031 21/02 92201 10200 20198 76064 89/// 333 56999=

48033 32562 71802 10330 20244 49982 86970 333 56440

58008=

48034 21356 82302 10235 20220 70265 8692/ 333 5659/=

48039 22460 71402 10309 20237 85960 333 56440=

48043 22540 81807 10240 20226 8687/ 333 56599=

48052 22465 71803 10310 20237 85970 333 56490=

48055 22356 71809 10268 20226 49972 70265 85931 333

56499 58004=

48064 21450 83201 10264 20260 49985 75155 84720 333

56440 58000=

48065 21450 81303 10260 20260 75255 8697/ 333 5659/=

48074 21350 81402 10270 20256 40017 75065 8697/ 333

56449 58003=

48092 21456 82305 10280 20259 40028 75055 8697/ 333

5659/ 58009=

48093 22557 83202 10289 20259 86970 333 56999=

48107 21330 82302 10260 20260 40067 76066 8497/ 333

5655/ 59005=  





