



*-*-*


<!--
.style2 {
	font-family:"Courier New", Courier, monospace;
	font-size: 14px;
}
-->






SMBM01 VBRR 260600

AAXX 26064

48001 NIL=

48004 32356 60401 10306 20267 86900 333 56500=

48008 32558 51401 10302 20239 40052 83970 333 56450

58001=

48010 21456 70000 10265 20265 40052 75055 85770 333

56390 58003=

48018 32558 82301 10285 20240 40058 8487/ 333 56459

58001=

48019 32558 72702 10296 20253 40050 82220 333 56690

58005=

48020 21257 80902 10265 20251 75055 8577/ 333 56449=

48025 21110 80000 10245 20245 40062 76166 8572/ 333

56999 58008=

48035 32560 83202 10237 20209 40049 8597/ 333 56569

58004=

48037 21457 81401 10256 20256 40043 75155 8572/ 333

56449 59007=

48042 21440 80000 10262 20262 40060 75055 8592/ 333

56449 58011=

48045 21003 91802 10191 20191 75364 89/// 333 56999=

48048 21558 83601 10267 20256 40044 75165 8697/ 333

5649/ 59014=

48051 22558 71803 10258 20250 70122 85920 333 56490=

48053 21450 81802 10260 20260 40057 76055 8577/ 333

56499 59007=

48060 21330 80000 10240 20226 40048 75065 8677/ 333

5669/ 58006=

48062 21456 81307 10266 20260 40031 75055 86920 333

56490 59019=

48071 21458 82302 10250 20250 40051 75155 8692/ 333

5659/ 59014=

48075 21456 81403 10220 20220 40080 76366 8697/ 333

5659/ 58011=

48077 21456 82302 10250 20250 40054 76166 85970 333

56490 59015=

48078 21440 81801 10270 20263 40074 75165 8472/ 333

56499 59011=

48080 21458 82212 10243 20240 40055 76066 86720 333

56590 59023=

48085 31457 81807 10276 20256 40061 75055 86720 333

56590 59017=

48095 32558 81802 10280 20268 84840 333 56690=

48108 32595 82303 10300 20253 40117 84377 333 56699

58009=

48109 21496 82304 10278 20250 40092 70255 8697/ 333

5699/ 59004=

48110 32596 82303 10320 20256 40116 82357 333 56999

58007=

48112 32598 62201 10325 20265 40121 70122 82216 333

56599 58008=

48030 21/02 90402 10170 20170 76366 89/// 333 56999=

48072 NIL=

48087 21456 82302 10279 20268 70355 8597/ 333 5649/=

48099 21330 82303 10256 20246 40099 75165 8697/ 333

5659/ 59001=

48101 21559 82303 10290 20259 70352 8592/ 333 5699/=

48103 21356 82202 10266 20256 40096 75066 8672/ 333

5655/ 59009=

48057 21457 81401 10204 20204 70355 86950 333 56490=

48094 31459 82202 10280 20270 40070 75055 86970 333

56590 59010=

48097 32557 82402 10290 20259 40092 8685/ 333 5659/

59007=

48031 21/03 91401 10170 20170 76364 89/// 333 56999=

48033 22459 81801 10250 20250 40057 75055 86970 333

56440 58003=

48034 21356 81801 10202 20202 75155 8692/ 333 5659/=

48039 21456 81401 10252 20252 75165 887// 333 56499=

48043 22556 81805 10215 20215 8687/ 333 56599=

48052 22465 81301 10260 20260 85970 333 56390=

48055 21456 80904 10244 20222 40053 72055 8697/ 333

5659/ 58003=

48064 21456 83201 10260 20260 40025 84720 333 56440

59013=

48065 21456 81402 10260 20260 76022 86970 333 56990=

48074 21356 81404 10260 20260 40080 75065 8672/ 333

56499 59004=

48092 32456 82312 10285 20255 40068 8637/ 333 5649/

58002=

48093 32558 72301 10292 20259 86340 333 56590=

48107 21330 82301 10240 20240 40114 76166 8597/ 333

5655/ 58021=  





