



*-*-*


<!--
.style2 {
	font-family:"Courier New", Courier, monospace;
	font-size: 14px;
}
-->






SIBM20 VBRR 260900

AAXX 26094

48001 22557 30901 10333 20258 40004 83900 333 56500

58012=

48004 32358 60401 10328 20275 86900 333 56500=

48008 32458 62301 10326 20244 40025 83970 333 56450

58002=

48010 22258 60000 10280 20250 40042 85830 333 56330

58014=

48018 21558 82301 10285 20233 40039 70255 8597/ 333

56999 58014=

48019 32457 81802 10305 20267 40038 83720 333 56490

58015=

48020 21256 80000 10275 20262 75065 8577/ 333 56399=

48025 21120 81401 10245 20245 40045 76166 8572/ 333

56459 58003=

48035 NIL=

48037 21457 80000 10267 20260 40024 70255 8582/ 333

56449 59012=

48042 21440 80000 10260 20260 40033 75055 8597/ 333

56449 59007=

48045 21002 91404 10190 20190 76264 89/// 333 56999=

48048 21558 82201 10273 20256 40025 75055 8697/ 333

5649/ 59014=

48051 21456 81304 10264 20264 76066 86920 333 56490=

48053 22450 81802 10270 20240 40036 8577/ 333 56499

59009=

48060 22340 60000 10262 20229 40015 84830 333 56490

59012=

48062 21356 81810 10262 20260 40010 75355 86920 333

56490 59034=

48071 21458 82305 10260 20260 40032 75155 8692/ 333

5659/ 59016=

48075 NIL=

48077 NIL=

48078 NIL=

48080 NIL=

48085 NIL=

48095 NIL=

48108 NIL=

48109 NIL=

48110 NIL=

48112 NIL=

48030 21/02 90404 10170 20170 76366 89/// 333 56999=

48072 NIL=

48087 NIL=

48099 NIL=

48101 NIL=

48103 NIL=

48057 21457 82202 10215 20205 75055 86950 333 56490=

48094 NIL=

48097 NIL=

48031 21/02 90402 10175 20175 76164 89/// 333 56999=

48033 22459 81801 10250 20250 40035 75055 86970 333

56440 59019=

48034 21248 81802 10210 20210 75155 8692/ 333 5659/=

48039 21456 80000 10272 20256 70255 889// 333 56499=

48043 21556 81805 10225 20214 8677/ 333 56599=

48052 22465 71302 10272 20256 85930 333 56990=

48055 21250 81802 10218 20210 40053 72165 8597/ 333

5659/ 58035=

48064 21458 83201 10267 20256 40016 84720 333 56440

59008=

48065 21456 80000 10264 20260 86970 333 56590=

48074 NIL=

48092 NIL=

48093 NIL=

48107 NIL=  
SIBM20 VBRR 260900 RRA

AAXX 26094

48075 21456 82201 10235 20228 40072 76266 8697/ 333

5659/ 58009=

48077 21456 80000 10250 20250 40042 76166 85970 333

56490 59007=

48078 21340 81401 10262 20253 40064 75165 8572/ 333

56499 59000=

48080 21458 82205 10240 20240 40051 76066 86720 333

56590 59009=

48085 21340 22708 10248 20246 40060 75196 86720 333

56690 59003=

48095 32458 82202 10280 20268 83970 333 56590=

48108 21494 81403 10260 20246 40112 72055 8537/ 333

5649/ 58022=

48109 22497 72303 10310 20267 40079 85970 333 56990

59008=

48110 32596 71302 10330 20244 40109 82356 333 56999

58013=

48112 32598 62201 10337 20257 40104 82216 333 56599

58015=

48072 21458 82705 10260 20246 76065 8697/ 333 5699/=

48087 22456 82302 10280 20250 70322 8597/ 333 5649/=

48099 21440 82307 10260 20246 75155 8697/ 333 5659/

58004=

48101 21558 82302 10284 20268 70265 8593/ 333 5659/=

48103 21356 81403 10263 20246 40079 75055 8672/ 333

5633/ 59010=

48094 32460 72202 10284 20270 40052 84970 333 56590

59011=

48097 32557 82403 10290 20274 40079 8685/ 333 5659/

59010=

48074 21356 81403 10260 20260 40056 75065 8672/ 333

56499 59002=

48092 21456 82310 10290 20259 40055 75055 8697/ 333

5649/ 59003=

48093 32557 83801 10290 20259 8637/ 333 56599=

48107 21330 82701 10244 20244 40093 70166 8597/ 333

5655/ 58013=  





