



*-*-*


<!--
.style2 {
	font-family:"Courier New", Courier, monospace;
	font-size: 14px;
}
-->






SMBM01 VBRR 260000

AAXX 26004

48001 NIL=

48004 NIL=

48008 32556 50000 10250 20233 40046 82470 333 20235

56430 59005 60002=

48010 21440 80000 10250 20250 40042 70266 8577/ 333

20240 56119 59005 60042=

48018 21556 80000 10250 20245 40038 70255 8497/ 333

20240 56459 59011 60012=

48019 32450 80000 10244 20240 40045 8577/ 333 20242

56499 58000=

48020 21240 80000 10245 20238 75165 887// 333 20230

56499 60062=

48025 21110 80000 10246 20246 40046 75165 8577/ 333

20240 56499 59010 60122=

48035 21150 80000 10216 20205 40054 70266 8692/ 333

20210 56999 58017 60032=

48037 21450 80401 10245 20238 40038 75365 8582/ 333

20242 56599 59018 60202=

48042 21430 80000 10235 20235 40050 76355 8592/ 333

20220 56449 59003 60092=

48045 NIL=

48048 21520 80000 10250 20233 40042 75165 8697/ 333

20246 5649/ 59003 60152=

48051 21456 81301 10240 20240 72066 86920 333 20238

56490 60882=

48053 21430 80000 10230 20230 40060 75155 8577/ 333

20222 56599 58001 60092=

48060 22330 70000 10215 20208 40057 85830 333 20207

56490 58003 60142=

48062 21350 82302 10245 20240 40024 76365 85920 333

20230 56490 59026 60772=

48071 21350 80000 10250 20250 40032 72166 8692/ 333

20235 5659/ 59026 61052=

48075 21456 80000 10210 20195 40076 75265 8697/ 333

5645/ 59035 60042=

48077 21456 80000 10250 20250 40044 70266 85970 333

20230 56490 59020 60202=

48078 21450 81401 10243 20240 40065 75165 8477/ 333

20234 56499 59024 60032=

48080 21456 82206 10244 20240 40056 75266 85920 333

20235 56590 59034 61072=

48085 21350 81402 10248 20246 40054 86920 333 20244

56590 59030 60342=

48095 NIL=

48108 21494 81301 10240 20233 40105 72065 8537/ 333

20230 5639/ 59005 60112=

48109 22496 82303 10286 20259 40081 8697/ 333 20213

5699/ 59011 60012=

48110 21495 81802 10255 20247 40111 70265 85357 333

20250 56599 59001 60062=

48112 32598 63201 10260 20246 40112 82216 333 20205

56699 58005 60002=

48030 NIL=

48072 NIL=

48087 21450 80000 10254 20254 75065 8597/ 333 20245

5649/ 60342=

48099 21230 80000 10242 20242 40084 76165 8692/ 333

20228 5699/ 59001 60272=

48101 NIL=

48103 21340 81402 10242 20242 40088 76266 8477/ 333

20232 5633/ 59010 60452=

48057 21456 80000 10180 20180 70266 86950 333 20165

56590 60202=

48094 21456 80000 10250 20245 40069 76266 8592/ 333

20198 5659/ 59004 60222=

48097 21557 82305 10250 20242 40087 70266 8633/ 333

20235 5659/ 59025 60092=

48031 NIL=

48033 21458 81802 10246 20246 40065 75155 86970 333

20242 56450 58009 60152=

48034 21248 81801 10190 20190 75165 8692/ 333 20185

5659/ 60192=

48039 21430 82201 10240 20224 75166 887// 333 20238

56599 60082=

48043 21520 80000 10195 20195 76366 8672/ 333 20163

56999 60222=

48052 22450 80000 10265 20250 85970 333 20240 56990

60062=

48055 21250 80000 10205 20202 40060 75265 8692/ 333

20200 5659/ 58001 60062=

48064 21450 82301 10250 20250 40025 84720 333 20220

56440 59007 60092=

48065 21450 80000 10250 20250 75055 85970 333 20218

56990 60062=

48074 21250 80000 10240 20240 40056 75065 8672/ 333

20225 56499 59028 60062=

48092 21456 82309 10260 20246 40059 75066 8697/ 333

20248 5669/ 59023 60242=

48093 21430 82301 10250 20249 70265 8697/ 333 20236

56599 60082=

48107 21330 82302 10252 20252 40089 76066 8597/ 333

20244 5655/ 59014 60372=  
SMBM01 VBRR 260000 RRA

AAXX 26004

48008 32556 50000 10250 20233 40046 82470 333 20235

56430 59005 60002=

48010 21440 80000 10250 20250 40042 70266 8577/ 333

20240 56119 59005 60042=

48018 21556 80000 10250 20245 40038 70255 8497/ 333

20240 56459 59011 60012=

48019 32450 80000 10244 20240 40045 8577/ 333 20242

56499 58000=

48020 21240 80000 10245 20238 75165 887// 333 20230

56499 60062=

48025 21110 80000 10246 20246 40046 75165 8577/ 333

20240 56499 59010 60122=

48035 21150 80000 10216 20205 40054 70266 8692/ 333

20210 56999 58017 60032=

48037 21450 80401 10245 20238 40038 75365 8582/ 333

20242 56599 59018 60202=

48042 21430 80000 10235 20235 40050 76355 8592/ 333

20220 56449 59003 60092=

48048 21520 80000 10250 20233 40042 75165 8697/ 333

20246 5649/ 59003 60152=

48051 21456 81303 10240 20240 72066 86920 333 20238

56490 60882=

48053 21430 80000 10230 20230 40060 75155 8577/ 333

20222 56599 58001 60092=

48060 22330 70000 10215 20208 40057 85830 333 20207

56490 58003 60142=

48062 21350 82302 10245 20240 40024 76365 85920 333

20230 56490 59026 60772=

48071 21350 80000 10250 20250 40032 72166 8692/ 333

20235 5659/ 59026 61052=

48075 21456 80000 10210 20195 40076 75265 8697/ 333

5645/ 59035 60042=

48077 21456 80000 10250 20250 40044 70266 85970 333

20230 56490 59020 60202=

48078 21450 81401 10243 20240 40065 75165 8477/ 333

20234 56499 59024 60032=

48080 21456 82206 10244 20240 40056 75266 85920 333

20235 56590 59034 61072=

48085 21350 81402 10248 20246 40054 75065 86920 333

20244 56590 59030 60342=

48108 21494 81301 10240 20233 40105 72065 8537/ 333

20230 5639/ 59005 60112=

48109 22496 82303 10286 20259 40081 8697/ 333 20213

5699/ 59011 60012=

48110 21495 81802 10255 20247 40111 70265 85357 333

20250 56599 59001 60062=

48112 32598 63201 10260 20246 40112 82216 333 20205

56699 58005 60002=

48087 21450 80000 10254 20254 75065 8597/ 333 20245

5649/ 60342=

48099 21230 80000 10242 20242 40084 76165 8692/ 333

20228 5699/ 59001 60272=

48103 21340 81402 10242 20242 40088 76266 8477/ 333

20232 5633/ 59010 60452=

48057 21456 80000 10180 20180 70266 86950 333 20165

56590 60202=

48094 21456 80000 10250 20245 40069 76266 8592/ 333

20198 5659/ 59004 60222=

48097 21557 82305 10250 20242 40087 70266 8633/ 333

20235 5659/ 59025 60092=

48033 21458 81802 10246 20246 40065 75155 86970 333

20242 56450 58009 60152=

48034 21248 81801 10190 20190 75165 8692/ 333 20185

5659/ 60192=

48039 21430 82201 10240 20224 75166 887// 333 20238

56599 60082=

48043 21520 80000 10195 20195 76366 8672/ 333 20163

56999 60222=

48052 22450 80000 10265 20250 85970 333 20240 56990

60062=

48055 21250 80000 10205 20202 40060 75265 8692/ 333

20200 5659/ 58001 60062=

48064 21450 82301 10250 20250 40025 84720 333 20220

56440 59007 60092=

48065 21450 80000 10250 20250 75055 85970 333 20218

56990 60062=

48074 21250 80000 10240 20240 40056 75065 8672/ 333

20225 56499 59028 60062=

48092 21456 82309 10260 20246 40059 75066 8697/ 333

20248 5669/ 59023 60242=

48093 21430 82301 10250 20249 70265 8697/ 333 20236

56599 60082=

48107 21330 82302 10252 20252 40089 76066 8597/ 333

20244 5655/ 59014 60372=  





