



*-*-*


<!--
.style2 {
	font-family:"Courier New", Courier, monospace;
	font-size: 14px;
}
-->






SIBM20 VBRR 260900

AAXX 26094
48001 31456 60000 10210 20175 40168 70322 84730 333 56450 58046=
48004 31558 12201 10308 20189 70511 81100 333 56900=
48008 31556 70401 10288 20159 40168 70544 84970 333 56130 58038=
48010 32062 00000 10295 20207 40141 333 58026=
48018 21559 71404 10265 20154 40159 72055 84970 333 56320 58051=
48019 32457 82301 10240 20209 40166 85770 333 56450 58052=
48020 NIL=
48025 31440 20401 10340 20164 40138 70544 82540 333 56980 58034=
48030 32256 70402 10206 20072 87900 333 56100=
48031 31956 21421 10249 20095 70500 82800 333 56900=
48033 32963 03601 10310 20169 40129 333 58021=
48034 32456 60403 10233 20124 84830 333 56550=
48035 31556 53202 10297 20098 40099 70522 83960 333 56590 59010=
48037 31950 03601 10312 20189 40136 333 58058=
48039 32859 32201 10321 20184 80002 333 56009=
48042 32558 23203 10325 20188 40130 81202 333 56409 58036=
48043 32757 21802 10250 20150 82200 333 56500=
48045 32557 71403 10238 20095 87700 333 56500=
48048 32562 20402 10300 20191 40133 82800 333 56900 58038=
48051 32559 40401 10362 20180 83201 333 56909=
48052 32470 33202 10370 20190 83800 333 56900=
48053 31550 23603 10310 20237 40134 70511 82500 333 56900 58065=
48055 21456 82302 10173 20154 40162 79596 8597/ 333 5655/ 59007=
48057 21458 72302 10200 20109 79595 85970 333 56590=
48060 21440 40000 10243 20174 40147 70155 84800 333 56500 59036=
48062 32558 22006 10325 20280 40180 82500 333 56900 58020=
48064 32970 01401 10365 20249 40107 333 58032=
48065 32570 30000 10358 20195 82840 333 56990=
48071 32460 13203 10325 20244 40136 81800 333 56900 58010=
48072 31458 42704 10330 20254 82830 333 56590=
48074 32559 81804 10360 20195 40121 83951 333 56759 58015=
48075 31457 53201 10295 20155 40103 70252 85800 333 56500 59069=
48077 32559 52301 10360 20214 40109 84901 333 56909 58001=
48078 32559 42701 10367 20177 40119 83801 333 56409 58014=
48080 31458 22206 10341 20206 40118 70511 82200 333 56900 58010=
48085 32458 13205 10328 20244 81800 333 56900 58011=
48087 32558 42301 10366 20237 82840 333 56990=
48092 21456 42302 10290 20248 40108 71795 83920 333 56550 58004=
48093 21556 82303 10307 20146 75055 8684/ 333 5659/=
48094 32457 61805 10303 20220 40136 56900 333 56500 58012=
48095 32558 40403 10330 20224 83670 333 56990=
48097 32557 71302 10350 20202 40132 87800 333 56900 58003=
48099 32557 42302 10336 20240 40119 84800 333 56500 59006=
48101 31558 60000 10288 20248 70165 84931 333 56999=
48103 32456 60402 10338 20206 40120 86800 333 56100 59007=
48107 32350 53201 10340 20225 40114 83930 333 56550 59000=
48108 32596 72303 10360 20256 40122 83366 333 56549 58008=
48109 NIL=
48110 31596 11103 10335 20232 40121 70522 83357 333 56999 58010=
48112 32598 30408 10360 20235 40111 82216 333 58013=  





