



*-*-*


<!--
.style2 {
	font-family:"Courier New", Courier, monospace;
	font-size: 14px;
}
-->






SMBM01 VBRR 260600

AAXX 26064
48001 21440 80000 10183 20180 40192 71066 8672/ 333 56569 58052=
48004 31558 32201 10276 20184 70521 83800 333 56500=
48008 31556 60401 10250 20167 40189 70544 84930 333 56110 58038=
48010 32560 51811 10260 20203 40168 85800 333 56400 58030=
48018 21558 83202 10225 20198 40194 75055 8479/ 333 56769 58061=
48019 32458 83202 10320 20214 40189 85770 333 56450 58051=
48020 31958 03602 10310 20203 70500 333=
48025 31940 03601 10320 20180 40179 70544 333 58038=
48030 32256 40402 10200 20109 84900 333 56100=
48031 31250 22201 10215 20120 70500 82800 333 56900=
48033 32963 03601 10280 20203 40164 333 58028=
48034 32457 31302 10243 20114 83800 333 56500=
48035 31556 52203 10277 20098 40143 70522 83960 333 56590 59008=
48037 32958 03601 10283 20184 40172 333 58051=
48039 32750 33201 10289 20196 80002 333 56009=
48042 32957 10403 10295 20182 40167 80002 333 56009 58027=
48043 32656 51805 10250 20167 85800 333 56500=
48045 32560 21404 10235 20114 84300 333 56500=
48048 32562 40401 10315 20200 40162 84800 333 56400 58029=
48051 32959 03601 10336 20180 333=
48052 32470 20401 10332 20191 82200 333 56900=
48053 31952 03603 10290 20230 40181 70500 333 58032=
48055 31556 12302 10262 20160 40150 70511 81100 333 56500 58011=
48057 32458 32202 10232 20143 83900 333 56500=
48060 31440 80000 10244 20174 40184 71722 84930 333 56560 58027=
48062 32958 01304 10310 20270 40162 333 58019=
48064 32970 11401 10345 20240 40142 80001 56009 58025=
48065 32970 10405 10332 20172 80001 333 56009=
48071 32960 03203 10315 20248 40156 333 58009=
48072 32560 10401 10335 20257 81200 333 56900=
48074 31560 11803 10330 20191 40163 70500 81100 333 56960 58015=
48075 31457 42201 10250 20190 40110 72051 84800 333 56500 59031=
48077 31959 00000 10340 20184 40147 333 58014=
48078 32558 32301 10329 20191 40153 82501 333 56909 58011=
48080 31459 22207 10353 20219 40132 70511 82200 333 56900 58002=
48085 32458 32705 10324 20236 40147 83800 333 56300 58008=
48087 32960 00402 10348 20202 333=
48092 31556 10000 10250 20219 40131 70522 81100 333 56900 58016=
48093 32657 42301 10344 20225 84800 333 56500=
48094 32460 21403 10345 20225 40152 82800 333 56900 58007=
48095 32558 60401 10340 20225 83670 333 56990=
48097 32557 70402 10340 20184 40156 87800 333 56900 58003=
48099 32456 41302 10325 20215 40144 84800 333 56300 59005=
48101 21456 81404 10322 20223 76166 8697/ 333 5699/=
48103 31456 63202 10332 20210 40141 84730 333 56770 59005=
48107 32350 42301 10330 20234 40130 84900 333 56500 58004=
48108 32596 61405 10355 20227 40138 83806 333 56609 58003=
48109 32497 40401 10330 20275 40158 84900 333 56900 58017=
48110 31596 81303 10330 20224 40144 70522 84307 333 56909 58017=
48112 32598 60405 10357 20235 40130 82216 333 56199 58020=  





