



*-*-*


<!--
.style2 {
	font-family:"Courier New", Courier, monospace;
	font-size: 14px;
}
-->






SIBM20 VBRR 260300

AAXX 26034

48001 21420 80000 10227 20214 40103 75055 8477/ 333 56559 58018=

48004 32460 63201 10278 20233 86900 333 56500=

48008 32556 72301 10265 20240 40091 84970 333 56450 58032=

48010 22550 40000 10270 20240 40088 84800 333 56600 58028=

48018 22558 73201 10255 20233 40086 84870 333 56760 58035=

48019 22456 51801 10250 20250 40088 84660 333 56560 58039=

48020 32958 03602 10310 20254 333=

48025 32430 10401 10315 20236 40074 81500 333 56900 58025=

48030 31256 42201 10206 20160 70544 82242 333 56569=

48031 31260 21801 10250 20167 70544 80040 333 56090=

48033 32562 21801 10320 20248 40075 81130 333 56990 58020=

48034 32456 81802 10234 20198 8637/ 333 5659/=

48035 32560 60000 10271 20191 40077 84860 333 56790 58031=

48037 32558 71401 10320 20236 40075 83830 333 56660 58034=

48039 32459 31401 10309 20237 82150 333 56550=

48042 32557 61803 10315 20251 40082 83850 333 56440 58021=

48043 32057 61803 10250 20205 80030 333 56090=

48045 32557 60902 10240 20136 82860 333 56550=

48048 32560 22201 10332 20244 40074 82800 333 56900 58022=

48051 32559 41301 10290 20270 70122 82230 333 56690=

48052 32458 21802 10345 20240 82200 333 56900=

48053 32456 71802 10310 20237 40097 84556 333 56599 58024=

48055 22956 01802 10262 20222 40078 333 59003=

48057 32460 12202 10242 20191 81500 333 56600=

48060 32450 10000 10280 20220 40070 81100 333 56600 58019=

48062 32558 80903 10295 20260 40076 70222 86970 333 56990 58006=

48064 32560 71401 10320 20265 40052 84831 333 56449 58004=

48065 32970 41402 10310 20267 80031 333 56099=

48071 32458 51302 10308 20282 40076 83970 333 56390 58003=

48072 32459 61303 10305 20282 70322 84830 333 56590=

48074 32458 40402 10300 20239 40106 82860 333 56490 58018=

48075 22457 20000 10270 20240 40091 82100 333 56500 58007=

48077 32559 00000 10290 20248 40084 85931 333 56499 58041=

48078 32556 41801 10302 20246 40096 83501 333 56409 58019=

48080 32459 71301 10310 20267 40093 85870 333 56490 58003=

48085 32458 40904 10300 20253 40083 83830 333 56990 58011=

48087 22560 70000 10302 20253 84370 333 56490=

48092 21456 71301 10295 20270 40083 70522 8437/ 333 5699/ 58019=

48093 22557 71801 10289 20274 70322 86840 333 56590=

48094 32458 62201 10295 20265 40090 70322 84940 333 56990 58016=

48095 32958 20000 10300 20266 70122 80002 333 56009=

48096 21457 72105 10300 20253 40101 70255 84331 333 56999 58016=

48097 22557 71401 10305 20254 40104 84836 333 56999 58011=

48099 22456 41301 10302 20253 40081 83930 333 56390 59003=

48101 32959 11401 10310 20254 70111 80001 333 56009=

48103 22450 31401 10312 20254 40099 82730 333 56330 58018=

48107 32350 42301 10300 20253 40095 84900 333 56500 58004=

48108 22596 61402 10290 20254 40107 83366 333 56399 59002=

48109 32497 52302 10307 20254 40090 70122 83930 333 56990 58013=

48110 21496 81303 10285 20254 40110 70255 84357 333 56599 58006=

48112 22597 81802 10280 20268 40120 70222 84876 333 56499 58013=  





