



*-*-*


<!--
.style2 {
	font-family:"Courier New", Courier, monospace;
	font-size: 14px;
}
-->






SIBM20 VBRR 260300

AAXX 26034

48001 21330 80000 10180 20165 40191 75322 887// 333 56599 58034=

48004 31340 73201 10213 20195 71022 87900 333 56500=

48008 31450 80000 10203 20185 40198 70544 8497/ 333 56219 58046=

48010 22556 50000 10205 20185 40183 85700 333 56200 58031=

48018 21556 81401 10210 20175 40195 75055 8497/ 333 56329 58055=

48019 22457 83603 10198 20175 40194 8577/ 333 56459 58052=

48020 31950 00000 10250 20186 70500 333 /////=

48025 31420 53201 10253 20167 40192 70544 83840 333 56550 58045=

48030 22256 32201 10130 20086 83900 333 56500=

48031 32262 21401 10165 20085 80042 333 56099=

48033 22562 13601 10230 20214 40176 81100 333 56900 58032=

48034 22456 30401 10193 20139 82530 333 56550=

48035 31540 20000 10229 20143 40173 70522 82800 333 56900 58011=

48037 21550 43601 10228 20181 40167 70544 82810 333 56560 58034=

48039 22756 23201 10233 20198 81156 333 56559=

48042 21556 32202 10256 20203 40179 70511 81450 333 56990 58028=

48043 32057 01403 10195 20130 333 /////=

48045 31958 01402 10172 20117 70400 333 /////=

48048 32560 43201 10270 20191 40176 84800 333 56400 58037=

48051 32958 03103 10248 20170 333 /////=

48052 32468 20401 10264 20203 82200 333 56900=

48053 21940 02202 10240 20191 40169 70500 333 58031=

48055 21556 30401 10200 20150 40195 70511 81531 333 56559 58033=

48060 22440 60000 10193 20159 40222 84930 333 56560 58016=

48062 32956 00404 10250 20210 40169 333 58029=

48064 32960 03601 10275 20220 40164 333 58034=

48065 32960 12205 10283 20184 80001 333 56009=

48071 32958 03201 10288 20248 40169 333 58021=

48072 31959 01302 10300 20239 70522 333 /////=

48074 22457 50902 10250 20186 40178 83160 333 56440 58027=

48075 21456 72701 10190 20175 40218 75095 85970 333 56590 58065=

48077 22959 00000 10274 20191 40160 333 58017=

48078 21557 40401 10256 20184 40173 70195 83501 333 56609 58020=

48080 32959 00401 10291 20259 40166 333 58006=

48085 31957 02702 10278 20220 40159 70500 333 58013=

48087 32960 01402 10284 20184 333 /////=

48092 31556 41401 10300 20207 40138 70522 83830 333 56990 58005=

48093 32656 22301 10293 20215 82100 333 56500=

48094 32459 23201 10286 20250 40162 82500 333 56900 58014=

48095 32958 00401 10280 20220 333 /////=

48096 32457 40304 10280 20203 40170 82440 333 56990 58016=

48097 32557 50504 10290 20196 40166 85400 333 56900 58005=

48099 21450 51301 10273 20211 40162 70195 84930 333 56390 58012=

48101 32558 51802 10287 20248 82335 333 /////=

48103 32456 43202 10293 20215 40158 84700 333 56700 58002=

48107 31350 42701 10292 20230 40141 70144 84900 333 56500

58010=

48108 32596 51402 10290 20230 40158 82406 333 56909 58018=

48109 32497 50401 10310 20267 40162 85900 333 56900 58023=

48110 21596 32303 10295 20226 40153 70511 81105 333 56909 58013=

48112 32598 60401 10325 20236 40136 82216 333 56199 58008=  





