



*-*-*


<!--
.style2 {
	font-family:"Courier New", Courier, monospace;
	font-size: 14px;
}
-->






SMBM01 VBRR 261200 RRA

AAXX 26124

48004 32458 22201 10220 20185 70111 82800 333 10266

56900=

48071 32950 03201 10265 20203 40099 333 10295 59009=

48033 32959 03601 10270 20211 40095 70200 333 10320

59020=  
SMBM01 VBRR 261200

AAXX 26124

48004 32458 22201 10220 20185 70111 82800 333 10266

56900=

48071 32950 03201 10265 20203 40099 333 10295 59009=

48033 32959 03601 10270 20211 40095 70200 333 10320

59020=  
SMBM01 VBRR 261200 RRA

AAXX 26124

48004 32458 22201 10220 20185 70111 82800 333 10266

56900=

48071 32950 03201 10265 20203 40099 333 10295 59009=

48033 32959 03601 10270 20211 40095 70200 333 10320

59020=  





