



*-*-*


<!--
.style2 {
	font-family:"Courier New", Courier, monospace;
	font-size: 14px;
}
-->






SIBM20 VBRR 260900

AAXX 26094

48001 NIL=

48004 NIL=

48008 NIL=

48010 NIL=

48018 NIL=

48019 NIL=

48020 NIL=

48025 NIL=

48035 NIL=

48037 NIL=

48042 NIL=

48045 NIL=

48048 NIL=

48051 32560 13101 10301 20190 81200 333 56900=

48053 NIL=

48060 NIL=

48062 32958 02703 10310 20270 40094 333 59008=

48071 32960 03203 10290 20215 40096 333 59005=

48075 32458 33201 10290 20215 40078 83200 333 56500

59014=

48077 32959 00000 10330 20201 40087 333 59011=

48078 32562 23201 10328 20223 40087 81201 333 56909

59010=

48080 32961 02207 10312 20203 40090 333 59002=

48085 32458 13604 10312 20203 40090 81800 333 56300

59005=

48095 32560 20401 10310 20225 82200 333 56900=

48108 32596 50504 10350 20240 40096 83306 333 56109

58019=

48109 32497 30901 10320 20248 40097 82501 333 56909

59018=

48110 31596 43202 10325 20253 40076 70522 82356 333

56299 58002=

48112 32598 60412 10322 20248 40070 82216 333 56199

59002=

48030 NIL=

48072 32460 13201 10300 20223 81200 333 56900=

48087 32960 00402 10326 20212 333=

48099 32558 30403 10340 20257 40075 83900 333 56100

59016=

48101 32660 20000 10342 20240 81130 333 56990=

48103 32457 30404 10357 20214 40075 83700 333 56100

59003=

48057 NIL=

48094 32460 30402 10330 20190 40090 82540 333 56990

59005=

48097 32557 60401 10330 20224 40095 86800 333 56900

59003=

48031 NIL=

48033 NIL=

48034 NIL=

48039 NIL=

48043 NIL=

48052 NIL=

48055 NIL=

48064 NIL=

48065 NIL=

48074 NIL=

48092 32458 20000 10340 20225 40064 82800 333 56900

59012=

48093 32558 31401 10343 20240 82801 333 56109=

48107 32350 52701 10350 20237 40075 83906 333 56209

59006=

48096 NIL=  
SIBM20 VBRR 260900

AAXX 26094

48001 NIL=

48004 NIL=

48008 NIL=

48010 NIL=

48018 NIL=

48019 NIL=

48020 NIL=

48025 NIL=

48035 NIL=

48037 NIL=

48042 NIL=

48045 NIL=

48048 NIL=

48051 32560 13101 10301 20190 81200 333 56900=

48053 NIL=

48060 NIL=

48062 32958 02703 10310 20270 40094 333 59008=

48071 32960 03203 10290 20215 40096 333 59005=

48075 32458 33201 10290 20215 40078 83200 333 56500

59014=

48077 32959 00000 10330 20201 40087 333 59011=

48078 32562 23201 10328 20223 40087 81201 333 56909

59010=

48080 32961 02207 10312 20203 40090 333 59002=

48085 32458 13604 10312 20203 40090 81800 333 56300

59005=

48095 32560 20401 10310 20225 82200 333 56900=

48108 32596 50504 10350 20240 40096 83306 333 56109

58019=

48109 32497 30901 10320 20248 40097 82501 333 56909

59018=

48110 31596 43202 10325 20253 40076 70522 82356 333

56299 58002=

48112 32598 60412 10322 20248 40070 82216 333 56199

59002=

48030 NIL=

48072 32460 13201 10300 20223 81200 333 56900=

48087 32960 00402 10326 20212 333=

48099 32558 30403 10340 20257 40075 83900 333 56100

59016=

48101 32660 20000 10342 20240 81130 333 56990=

48103 32457 30404 10357 20214 40075 83700 333 56100

59003=

48057 NIL=

48094 32460 30402 10330 20190 40090 82540 333 56990

59005=

48097 32557 60401 10330 20224 40095 86800 333 56900

59003=

48031 NIL=

48033 NIL=

48034 NIL=

48039 NIL=

48043 NIL=

48052 NIL=

48055 NIL=

48064 NIL=

48065 NIL=

48074 NIL=

48092 32458 20000 10340 20225 40064 82800 333 56900

59012=

48093 32558 31401 10343 20240 82801 333 56109=

48107 32350 52701 10350 20237 40075 83906 333 56209

59006=

48096 NIL=  





