



*-*-*


<!--
.style2 {
	font-family:"Courier New", Courier, monospace;
	font-size: 14px;
}
-->






SIBM20 VBRR 260300

AAXX 26034

48001 32430 42701 10130 20113 40196 84400 333 56700

59005=

48004 32560 40401 10170 20135 84800 333 56500=

48008 32557 70000 10215 20156 40159 84970 333 56660

59014=

48010 31040 00000 10185 20165 40167 70144 333 59008=

48018 32557 30401 10195 20175 40156 82460 333 56130

59005=

48019 32560 20401 10217 20175 40152 80020 333 56060

59008=

48020 31456 50000 10185 20170 70144 85600 333 56800=

48025 NIL=

48035 31560 20000 10198 20150 40146 70544 82100 333

56900 59009=

48037 32957 03601 10219 20173 40151 333 59005=

48042 31540 40901 10235 20186 40146 71011 81450 333

56940 59004=

48045 32558 40000 10141 20124 84600 333 56100=

48048 32960 02701 10220 20185 40156 333 58003=

48051 32960 03102 10211 20180 70200 333=

48053 32456 20000 10230 20181 40159 82500 333 56400

58015=

48060 32340 60000 10173 20154 40194 83132 333 56566

58005=

48062 32456 20401 10230 20200 40143 70122 82500 333

56900 58002=

48071 32958 00402 10270 20218 40141 333 58000=

48075 32457 50000 10220 20185 40167 83830 333 56590

58004=

48077 32959 00402 10250 20186 40143 333 58007=

48078 32957 13204 10245 20189 40146 80001 333 56009

58001=

48080 32960 00000 10240 20209 40126 333 59010=

48085 32958 00000 10263 20215 40132 333 58000=

48095 32960 00404 10250 20186 333=

48108 NIL=

48109 NIL=

48110 NIL=

48112 NIL=

48030 32960 02201 10111 20091 333=

48072 32960 00401 10270 20211 70122 333=

48087 32960 00403 10234 20181 333=

48099 32450 30401 10290 20230 40136 83800 333 56900

58012=

48101 32959 03202 10272 20191 333=

48103 NIL=

48057 32457 51402 10279 20160 84801 333 56509=

48094 32459 00402 10270 20190 40132 333 59002=

48097 32557 20403 10270 20191 40136 70211 81530 333

56990 59004=

48031 32258 61401 10175 20108 86800 333 56400=

48033 32562 13601 10230 20181 40137 81100 333 56900

58000=

48034 32456 50000 10155 20139 83830 333 56550=

48039 31410 33201 10235 20191 74044 82850 333 56330=

48043 32657 40505 10230 20143 83230 333 56440=

48052 32958 03601 10250 20186 333=

48055 31550 20000 10179 20156 40168 70244 82800 333

56500 59005=

48064 32956 01401 10214 20175 40139 333 58002=

48065 32957 00401 10230 20181 333=

48074 32458 43205 10240 20174 40149 82150 333 56550

59009=

48092 32558 13201 10260 20203 40110 81400 333 56900

59001=

48093 32958 01401 10288 20230 333=

48107 NIL=

48096 NIL=  
SIBM20 VBRR 260300 RRA

AAXX 26034

48108 32596 43201 10280 20248 40126 82806 333 56909

58003=

48109 32497 20901 10302 20239 40132 81501 333 56909

58004=

48110 21596 31303 10310 20254 40118 70511 81155 333

56999 59003=

48112 32598 60405 10282 20250 40110 82216 333 56199

59005=

48103 32456 10405 10300 20239 40127 81500 333 56100

58002=

48094 32459 00402 10270 20190 40132 333 59002=

48107 32950 00401 10298 20253 40115 333 58002=  





