



*-*-*


<!--
.style2 {
	font-family:"Courier New", Courier, monospace;
	font-size: 14px;
}
-->






SIBM20 VBRR 260300

AAXX 26034

48001 31440 23202 10195 20185 40168 70244 82100 333

56500 59013=

48004 31562 10401 10227 20198 71044 81100 333 56900=

48008 32558 13201 10237 20191 40167 81100 333 56400

58004=

48010 32056 00000 10245 20209 40168 333 58007=

48018 32560 11401 10245 20191 40163 70311 82100 333

56900 58004=

48019 32960 02702 10255 20186 40158 333 58003=

48020 32457 23602 10250 20226 82800 333 56800=

48025 32110 60401 10266 20240 40166 74044 85840 333

56690 58003=

48035 31960 00000 10207 20160 40156 70144 333 58002=

48037 32556 63201 10262 20229 40149 84830 333 56660

59002=

48042 32557 20000 10280 20233 40150 82800 333 56400

58011=

48045 32556 42203 10218 20156 84800 333 56500=

48048 32560 63201 10285 20233 40168 85950 333 56890

58021=

48051 NIL=

48053 32956 23201 10290 20230 40147 80050 333 56090

58004=

48060 31300 10000 10232 20181 40137 71011 81100 333

56400 58005=

48062 NIL=

48071 NIL=

48075 NIL=

48077 NIL=

48078 NIL=

48080 NIL=

48085 NIL=

48095 NIL=

48108 NIL=

48109 NIL=

48110 NIL=

48112 NIL=

48030 31130 42203 10143 20143 74244 84800 333 56500=

48072 NIL=

48087 NIL=

48099 NIL=

48101 NIL=

48103 NIL=

48057 22458 12201 10220 20173 81500 333 56500=

48094 NIL=

48097 NIL=

48031 32260 51401 10215 20156 85800 333 56400=

48033 32562 13601 10270 20211 40147 81500 333 56900

58001=

48034 32956 00000 10215 20143 333=

48039 32458 30000 10280 20233 82102 333 56101=

48043 32058 01405 10225 20181 333=

48052 22450 83601 10262 20246 85970 333 56990=

48055 21456 40902 10195 20179 40169 72844 84500 333

56200 58002=

48064 32456 80901 10275 20250 40133 84870 333 56440

58002=

48065 32456 82202 10278 20242 85570 333 56880=

48074 32959 03202 10270 20240 40151 333 59006=

48092 NIL=

48093 NIL=

48107 NIL=

48096 NIL=  





