



*-*-*


<!--
.style2 {
	font-family:"Courier New", Courier, monospace;
	font-size: 14px;
}
-->






SIBM20 VBRR 270300

AAXX 27034
48001 31450 70901 10220 20185 40148 70344 85730 333 56660 59024=
48004 32360 52201 10238 20209 85900 333 56500=
48008 22557 70401 10252 20205 40145 84970 333 56560 58004=
48010 31440 83201 10240 20240 40157 71799 8597/ 333 56599 58011=
48018 21556 80401 10245 20219 40140 75055 8487/ 333 56129 58019=
48019 21560 82701 10236 20209 40142 8572/ 333 56459 58001=
48020 21357 60402 10250 20219 70155 84840 333 56550=
48025 31430 73601 10257 20215 40143 84840 333 56560 59001=
48030 22356 72201 10167 20117 87900 333 56500=
48031 22/60 81401 10190 20159 888// 333 56499=
48033 22562 70402 10270 20240 40129 85970 333 56660 58005=
48034 21456 70000 10202 20168 70255 87300 333 56500=
48035 21520 80000 10211 20195 40140 70566 8597/ 333 56569 59002=
48037 22556 73602 10281 20184 40123 84870 333 56560 59009=
48039 21450 71401 10279 20220 70255 85950 333 56550=
48042 21556 71802 10282 20233 40136 70266 84950 333 56660 58007=
48043 22040 80000 10210 20195 8587/ 333 56999=
48045 22457 71401 10188 20159 87700 333 56400=
48048 32558 53601 10315 20215 40132 84850 333 56490 59007=
48051 32559 43602 10279 20220 81230 333 56590=
48052 32458 33203 10312 20225 83800 333 56900=
48053 32450 61802 10290 20215 40131 83556 333 56699 58002=
48055 22456 40402 10228 20192 40130 82830 333 56550 59003=
48057 21458 31401 10208 20160 70155 83800 333 56300=
48060 21340 60000 10213 20175 40148 74144 84970 333 56590 59014=
48062 32556 50901 10280 20230 40128 83830 333 56990 59002=
48064 32960 31401 10320 20265 40112 80031 333 56099 58008=
48065 32970 30000 10320 20200 80036 333 56009=
48071 32458 53202 10310 20254 40131 83230 333 56990 59002=
48072 32460 21302 10320 20248 82300 333 56700=
48074 22959 01402 10275 20220 40131 333 58004=
48075 22957 03201 10230 20210 40165 333 58031=
48077 32559 60000 10310 20225 40119 84901 333 56909 59008=
48078 22557 21801 10300 20223 40138 81101 333 56909 58004=
48080 32459 73203 10304 20253 40135 84870 333 56690 58000=
48085 32956 03203 10316 20237 40125 333 59003=
48087 32560 20000 10302 20239 82800 333 56900=
48092 32957 01304 10320 20242 40116 333 58007=
48093 22958 02301 10328 20244=
48094 32458 23203 10310 20270 40127 82800 333 56700 59006=
48095 32958 00000 10320 20236=
48097 22957 01301 10310 20225 40139 333 58001=
48099 22456 30403 10296 20239 40128 82801 333 56109 59001=
48101 32559 41401 10310 20254 84300 333 56600=
48103 32556 30402 10307 20225 40130 83500 333 56100 59006=
48107 22350 61301 10294 20230 40121 84906 333 56309 59007=
48108 22596 63203 10300 20246 40133 83856 333 56769 59003=
48109 32497 30000 10330 20258 40132 82801 333 56909 58004=
48110 21596 31302 10295 20256 40130 70511 81205 333 56909 59001=
48112 32598 60401 10310 20254 40128 82216 333 56199 58000=  
SIBM20 VBRR 270300

AAXX 27034

48001 31450 70901 10220 20185 40148 70344 85730 333 56660 59024=

48004 32360 52201 10238 20209 85900 333 56500=

48008 22557 70401 10252 20205 40145 84970 333 56560 58004=

48010 31440 83201 10240 20240 40157 71799 8597/ 333 56599 58011=

48018 21556 80401 10245 20219 40140 75055 8487/ 333 56129 58019=

48019 21560 82701 10236 20209 40142 8572/ 333 56459 58001=

48020 21357 60402 10250 20219 70155 84840 333 56550=

48025 31430 73601 10257 20215 40143 84840 333 56560 59001=

48030 22356 72201 10167 20117 87900 333 56500=

48031 22/60 81401 10190 20159 888// 333 56499=

48033 22562 70402 10270 20240 40129 85970 333 56660 58005=

48034 21456 70000 10202 20168 70255 87300 333 56500=

48035 21520 80000 10211 20195 40140 70566 8597/ 333 56569 59002=

48037 22556 73602 10281 20184 40123 84870 333 56560 59009=

48039 21450 71401 10279 20220 70255 85950 333 56550=

48042 21556 71802 10282 20233 40136 70266 84950 333 56660 58007=

48043 22040 80000 10210 20195 8587/ 333 56999=

48045 22457 71401 10188 20159 87700 333 56400=

48048 32558 53601 10315 20215 40132 84850 333 56490 59007=

48051 32559 43602 10279 20220 81230 333 56590=

48052 32458 33203 10312 20225 83800 333 56900=

48053 32450 61802 10290 20215 40131 83556 333 56699 58002=

48055 22456 40402 10228 20192 40130 82830 333 56550 59003=

48057 21458 31401 10208 20160 70155 83800 333 56300=

48060 21340 60000 10213 20175 40148 74144 84970 333 56590 59014=

48062 32556 50901 10280 20230 40128 83830 333 56990 59002=

48064 32960 31401 10320 20265 40112 80031 333 56099 58008=

48065 32970 30000 10320 20200 80036 333 56009=

48071 32458 53202 10310 20254 40131 83230 333 56990 59002=

48072 32460 21302 10320 20248 82300 333 56700=

48074 22959 01402 10275 20220 40131 333 58004=

48075 22957 03201 10230 20210 40165 333 58031=

48077 32559 60000 10310 20225 40119 84901 333 56909 59008=

48078 22557 21801 10300 20223 40138 81101 333 56909 58004=

48080 32459 73203 10304 20253 40135 84870 333 56690 58000=

48085 32956 03203 10316 20237 40125 333 59003=

48087 32560 20000 10302 20239 82800 333 56900=

48092 32957 01304 10320 20242 40116 333 58007=

48093 22958 02301 10328 20244=

48094 32458 23203 10310 20270 40127 82800 333 56700 59006=

48095 32958 00000 10320 20236=

48097 22957 01301 10310 20225 40139 333 58001=

48099 22456 30403 10296 20239 40128 82801 333 56109 59001=

48101 32559 41401 10310 20254 84300 333 56600=

48103 32556 30402 10307 20225 40130 83500 333 56100 59006=

48107 22350 61301 10294 20230 40121 84906 333 56309 59007=

48108 22596 63203 10300 20246 40133 83856 333 56769 59003=

48109 32497 30000 10330 20258 40132 82801 333 56909 58004=

48110 21596 31302 10295 20256 40130 70511 81205 333 56909 59001=

48112 32598 60401 10310 20254 40128 82216 333 56199 58000=  
SIBM20 VBRR 270300

AAXX 27034

48001 31450 70901 10220 20185 40148 70344 85730 333

56660 59024=

48004 32360 52201 10238 20209 85900 333 56500=

48008 22557 70401 10252 20205 40145 84970 333 56560

58004=

48010 31440 83201 10240 20240 40157 71799 8597/ 333

56599 58011=

48018 21556 80401 10245 20219 40140 75055 8487/ 333

56129 58019=

48019 21560 82701 10236 20209 40142 8572/ 333 56459

58001=

48020 21357 60402 10250 20219 70155 84840 333 56550=

48025 31430 73601 10257 20215 40143 84840 333 56560

59001=

48035 21520 80000 10211 20195 40140 70566 8597/ 333

56569 59002=

48037 22556 73602 10281 20184 40123 84870 333 56560

59009=

48042 21556 71802 10282 20233 40136 70266 84950 333

56660 58007=

48045 22457 71401 10188 20159 87700 333 56400=

48048 32558 53601 10315 20215 40132 84850 333 56490

59007=

48051 32559 43602 10279 20220 81230 333 56590=

48053 32450 61802 10290 20215 40131 83556 333 56699

58002=

48060 21340 60000 10213 20175 40148 74144 84970 333

56590 59014=

48062 32556 50901 10280 20230 40128 83830 333 56990

59002=

48071 32458 53202 10310 20254 40131 83230 333 56990

59002=

48075 22957 03201 10230 20210 40165 333 58031=

48077 32559 60000 10310 20225 40119 84901 333 56909

59008=

48078 22557 21801 10300 20223 40138 81101 333 56909

58004=

48080 32459 73203 10304 20253 40135 84870 333 56690

58000=

48085 32956 03203 10316 20237 40125 333 59003=

48095 32958 00000 10320 20236=

48108 22596 63203 10300 20246 40133 83856 333 56769

59003=

48109 32497 30000 10330 20258 40132 82801 333 56909

58004=

48110 21596 31302 10295 20256 40130 70511 81205 333

56909 59001=

48112 32598 60401 10310 20254 40128 82216 333 56199

58000=

48030 22356 72201 10167 20117 87900 333 56500=

48072 32460 21302 10320 20248 82300 333 56700=

48087 32560 20000 10302 20239 82800 333 56900=

48099 22456 30403 10296 20239 40128 82801 333 56109

59001=

48101 32559 41401 10310 20254 84300 333 56600=

48103 32556 30402 10307 20225 40130 83500 333 56100

59006=

48057 21458 31401 10208 20160 70155 83800 333 56300=

48094 32458 23203 10310 20270 40127 82800 333 56700

59006=

48097 22957 01301 10310 20225 40139 333 58001=

48031 22/60 81401 10190 20159 888// 333 56499=

48033 22562 70402 10270 20240 40129 85970 333 56660

58005=

48034 21456 70000 10202 20168 70255 87300 333 56500=

48039 21450 71401 10279 20220 70255 85950 333 56550=

48043 22040 80000 10210 20195 8587/ 333 56999=

48052 32458 33203 10312 20225 83800 333 56900=

48055 22456 40402 10228 20192 40130 82830 333 56550

59003=

48064 32960 31401 10320 20265 40112 80031 333 56099

58008=

48065 32970 30000 10320 20200 80036 333 56009=

48074 22959 01402 10275 20220 40131 333 58004=

48092 32957 01304 10320 20242 40116 333 58007=

48093 22958 02301 10328 20244=

48107 22350 61301 10294 20230 40121 84906 333 56309

59007=  





