



*-*-*


<!--
.style2 {
	font-family:"Courier New", Courier, monospace;
	font-size: 14px;
}
-->






SMBM01 VBRR 271200

AAXX 27124
48001 21456 80000 10240 20191 40096 70355 8592/ 333 10280 56459 59028
 69902=
48004 21430 70401 10238 20209 75052 87900 333 10290 56500 60032=
48008 21557 60000 10267 20211 40096 70195 83970 333 10312 56560 59024
 69902=
48010 22430 70000 10265 20229 40096 84770 333 10270 56560 59006
 60022=
48018 32556 60000 10290 20196 40084 83871 333 10305 56569 59009
 60002=
48019 22457 20000 10301 20223 40085 80020 333 10310 56060 59019
 60012=
48020 21250 83203 10250 20219 71795 889// 333 10340 56599 69902=
48025 21450 60404 10280 20203 40095 70155 84770 333 10350 56550 59009
 69902=
48030 32356 62203 10182 20165 84970 333 10221 56560 60002=
48031 21450 82701 10175 20147 70366 889// 333 10223 56999 60022=
48033 32562 53302 10324 20236 40082 85800 333 10352 56600 59007
 60002=
48034 32456 50000 10256 20176 85300 333 10286 56500 60002=
48035 31558 50000 10257 20179 40069 70522 84960 333 10263 56590 59006
 60002=
48037 32530 43201 10325 20200 40071 83810 333 10352 56560 59003
 60002=
48039 32460 60401 10326 20184 84802 333 10352 56505 60002=
48042 32557 63602 10323 20215 40074 84950 333 10360 56660 59009
 60002=
48043 32930 40000 10240 20191 80030 333 10270 56090 60002=
48045 21557 41402 10218 20136 70165 84300 333 10230 56500 60022=
48048 32550 33601 10322 20215 40072 83800 333 10360 56500 59006=
48051 32559 23103 10318 20220 82200 333 10367 56900 60002=
48052 32450 53205 10310 20225 85800 333 10385 56900 60002=
48053 31450 63601 10290 20230 40068 71795 85950 333 10355 56690 59017
 60012=
48055 21556 60000 10212 20196 40104 70296 86900 333 10320 56400 59006
 60032=
48057 21456 50000 10220 20156 70195 82350 333 10265 56990 69902=
48060 21320 80000 10220 20185 40096 75155 85930 333 10305 56590 59027
 60012=
48062 32556 42706 10305 20270 40105 70322 82130 333 10330 56690 58009
 60002=
48064 32550 21401 10350 20240 40052 82800 333 10395 56900 59013
 60002=
48065 32950 12203 10350 20219 80030 333 10391 56090 60002=
48071 32456 33202 10310 20237 40094 82230 333 10340 56990 59007
 60002=
48072 32960 03201 10310 20237 333 10350 60002=
48074 21457 72201 10290 20230 40087 71795 84970 333 10346 56550 58017
 69902=
48075 21456 62201 10250 20186 40089 75095 85930 333 10295 56590 59000
 69902=
48077 32556 70000 10322 20236 40074 85901 333 10374 56909 58006
 60002=
48078 21556 50000 10312 20237 40090 70295 83331 333 10357 56449 58015
 69902=
48080 32458 12303 10310 20267 40094 81200 333 10375 56900 59006
 60002=
48085 32456 12703 10306 20239 40093 81800 333 10346 56900 58001
 60002=
48087 32550 20000 10330 20212 82200 333 10385 56900 60002=
48092 32556 42205 10320 20225 40069 82301 333 10360 56909 59005
 60002=
48093 32550 42301 10307 20225 82801 333 10372 56509 60002=
48094 31456 33202 10320 20240 40092 70311 83900 333 10357 56900 59003
 69902=
48095 32956 32202 10300 20239 70122 80002 333 10370 56009 60002=
48097 22557 62402 10310 20254 40102 84801 333 10360 56909 59003
 60002=
48099 21456 42302 10318 20236 40081 70255 83301 333 10368 56509 59014
 69902=
48101 32556 40000 10290 20248 70122  82205 333 10350 56909 60002=
48103 32440 62201 10318 20236 40090 86900 333 10383 56500 59024
 60002=
48107 32340 70000 10310 20254 40101 85970 333 10354 56330 59006
 60002=
48108 21596 71402 10250 20233 40107 70296 83366 333 10355 56659 58002
 60642=
48109 32496 30000 10324 20265 40104 70122 83900 333 10358 56900 58005
 60002=
48110 21596 83203 10265 20227 40111 79599 86977 333 10360 56299 59020
 60022=
48112 32598 60401 10305 20239 40097 82216 333 10352 56199 58001
 60002=  
SMBM01 VBRR 271200

AAXX 27124
48001 21456 80000 10240 20191 40096 70355 8592/ 333 10280 56459 59028
 69902=
48004 21430 70401 10238 20209 75052 87900 333 10290 56500 60032=
48008 21557 60000 10267 20211 40096 70195 83970 333 10312 56560 59024
 69902=
48010 22430 70000 10265 20229 40096 84770 333 10270 56560 59006
 60022=
48018 32556 60000 10290 20196 40084 83871 333 10305 56569 59009
 60002=
48019 22457 20000 10301 20223 40085 80020 333 10310 56060 59019
 60012=
48020 21250 83203 10250 20219 71795 889// 333 10340 56599 69902=
48025 21450 60404 10280 20203 40095 70155 84770 333 10350 56550 59009
 69902=
48030 32356 62203 10182 20165 84970 333 10221 56560 60002=
48031 21450 82701 10175 20147 70366 889// 333 10223 56999 60022=
48033 32562 53302 10324 20236 40082 85800 333 10352 56600 59007
 60002=
48034 32456 50000 10256 20176 85300 333 10286 56500 60002=
48035 31558 50000 10257 20179 40069 70522 84960 333 10263 56590 59006
 60002=
48037 32530 43201 10325 20200 40071 83810 333 10352 56560 59003
 60002=
48039 32460 60401 10326 20184 84802 333 10352 56505 60002=
48042 32557 63602 10323 20215 40074 84950 333 10360 56660 59009
 60002=
48043 32930 40000 10240 20191 80030 333 10270 56090 60002=
48045 21557 41402 10218 20136 70165 84300 333 10230 56500 60022=
48048 32550 33601 10322 20215 40072 83800 333 10360 56500 59006=
48051 32559 23103 10318 20220 82200 333 10367 56900 60002=
48052 32450 53205 10310 20225 85800 333 10385 56900 60002=
48053 31450 63601 10290 20230 40068 71795 85950 333 10355 56690 59017
 60012=
48055 21556 60000 10212 20196 40104 70296 86900 333 10320 56400 59006
 60032=
48057 21456 50000 10220 20156 70195 82350 333 10265 56990 69902=
48060 21320 80000 10220 20185 40096 75155 85930 333 10305 56590 59027
 60012=
48062 32556 42706 10305 20270 40105 70322 82130 333 10330 56690 58009
 60002=
48064 32550 21401 10350 20240 40052 82800 333 10395 56900 59013
 60002=
48065 32950 12203 10350 20219 80030 333 10391 56090 60002=
48071 32456 33202 10310 20237 40094 82230 333 10340 56990 59007
 60002=
48072 32960 03201 10310 20237 333 10350 60002=
48074 21457 72201 10290 20230 40087 71795 84970 333 10346 56550 58017
 69902=
48075 21456 62201 10250 20186 40089 75095 85930 333 10295 56590 59000
 69902=
48077 32556 70000 10322 20236 40074 85901 333 10374 56909 58006
 60002=
48078 21556 50000 10312 20237 40090 70295 83331 333 10357 56449 58015
 69902=
48080 32458 12303 10310 20267 40094 81200 333 10375 56900 59006
 60002=
48085 32456 12703 10306 20239 40093 81800 333 10346 56900 58001
 60002=
48087 32550 20000 10330 20212 82200 333 10385 56900 60002=
48092 32556 42205 10320 20225 40069 82301 333 10360 56909 59005
 60002=
48093 32550 42301 10307 20225 82801 333 10372 56509 60002=
48094 31456 33202 10320 20240 40092 70311 83900 333 10357 56900 59003
 69902=
48095 32956 32202 10300 20239 70122 80002 333 10370 56009 60002=
48097 22557 62402 10310 20254 40102 84801 333 10360 56909 59003
 60002=
48099 21456 42302 10318 20236 40081 70255 83301 333 10368 56509 59014
 69902=
48101 32556 40000 10290 20248 70122  82205 333 10350 56909 60002=
48103 32440 62201 10318 20236 40090 86900 333 10383 56500 59024
 60002=
48107 32340 70000 10310 20254 40101 85970 333 10354 56330 59006
 60002=
48108 21596 71402 10250 20233 40107 70296 83366 333 10355 56659 58002
 60642=
48109 32496 30000 10324 20265 40104 70122 83900 333 10358 56900 58005
 60002=
48110 21596 83203 10265 20227 40111 79599 86977 333 10360 56299 59020
 60022=
48112 32598 60401 10305 20239 40097 82216 333 10352 56199 58001
 60002=  





