



*-*-*


<!--
.style2 {
	font-family:"Courier New", Courier, monospace;
	font-size: 14px;
}
-->






SMBM01 VBRR 271211

AAXX 27124

48001 NIL=

48004 32460 40000 10223 20205 84800 333 10270 56500=

48008 32556 30000 10237 20174 40123 81430 333 10280 56560 59013=

48010 32940 10000 10235 20209 40124 80001 333 10284 56009 59019=

48018 32956 00000 10235 20155 40112 333 10280 59020=

48019 32940 00000 10226 20198 40121 333 10283 59028=

48020 32940 00000 10240 20191 333 10286=

48025 32458 13201 10262 20138 40115 81500 333 10283 56900 59023=

48030 32956 02204 10170 20044 333 10220=

48031 32950 03201 10180 20056 333 10218=

48033 32962 00000 10280 20203 40095 333 10310 59036=

48034 32956 00000 10183 20108 333 10260=

48035 31950 02702 10197 20085 40104 70500 333 10260 59022=

48037 32930 00000 10272 20172 40087 333 10316 59036=

48039 32460 20401 10264 20160 82400 333 10316 56900=

48042 32556 10000 10278 20184 40107 81400 333 10310 56900 59026=

48043 32010 00000 10190 20118 333 10243=

48045 32958 01403 10190 20072 333 10231=

48048 32950 00401 10265 20203 40114 333 10325 59013=

48051 32956 00000 10256 20180 333 10316=

48052 32450 22201 10318 20215 82200 333 10350 56900=

48053 32950 00000 10260 20180 40119 333 10315 59007=

48055 32956 10903 10233 20142 40092 80001 333 10275 56009 59024=

48057 32957 21801 10194 20072 80006 333 10238 56006=

48060 32910 00000 10220 20087 40110 333 10265 59029=

48062 31550 33204 10270 20230 40121 70511 83500 333 10305 56900 59012=

48064 32950 20000 10250 20186 40100 80001 333 10306 56009 59009=

48065 32950 20000 10262 20179 80001 333 10325 56009=

48071 32456 23202 10250 20186 40165 82800 333 10273 56900 59005=

48072 32456 13202 10255 20229 81200 333 10300 56900=

48074 32956 20000 10272 20172 40104 80001 333 10325 56009 59026=

48075 32456 20000 10240 20140 40121 82500 333 10280 56500 58017=

48077 32956 00000 10280 20146 40104 333 10336 59010=

48078 32950 12301 10284 20168 40103 80001 333 10330 56009 59022=

48080 32458 11301 10270 20240 40118 81500 333 10325 56900 59012=

48085 31956 03203 10264 20206 40113 70522 333 10300 59014=

48087 32930 00000 10250 20186 333 10330= 

48092 31950 00000 10275 20139 40096 70522 333 10333 59015=

48093 32930 02301 10274 20191 333 10321=

48094 32956 00000 10275 20195 40118 333 10335 59011=

48095 32956 00000 10270 20211 333 10350= 

48097 32956 02301 10250 20186 40117 333 10332 59021=

48099 32440 12302 10270 20172 40117 81500 333 10327 56900 59007=

48101 32950 00000 10260 20203 333 10320=

48103 32540 20000 10266 20172 40110 82500 333 10332 56500 59019=

48107 32930 03201 10266 20191 40105 333 10333 59011=

48108 32596 50000 10285 20209 40109 82406 333 10340 56909 59013=

48109 32996 00000 10282 20233 40118 333 10318 59015=

48110 31595 63204 10280 20220 40100 70522 81105 333 10315 56909 59021=

48112 32598 60401 10292 20230 40102 82216 333 10312 56199 59015=  
SMBM01 VBRR 271200 RRA

AAXX 27124

48034 32956 00000 10183 20108 333 10260=  





