



*-*-*


<!--
.style2 {
	font-family:"Courier New", Courier, monospace;
	font-size: 14px;
}
-->






SIBM20 VBRR 270300

AAXX 27034

48001 21320 81401 10255 20246 40043 76166 8477/ 333

56339 58101=

48004 31110 83201 10255 20255 75065 8697/ 333 56559=

48008 NIL=

48010 21430 80000 10260 20260 40029 75155 887// 333

56499 58037=

48018 21560 82701 10270 20250 40035 75055 8497/ 333

56559 58041=

48019 32457 73201 10300 20266 40029 85660 333 56450

58049=

48020 21357 70902 10270 20255 72055 85770 333 56440=

48025 22320 82701 10268 20256 40015 8587/ 333 56459

58031=

48035 32560 72202 10260 20215 40025 85970 333 56560

58017=

48037 21558 81401 10288 20259 40014 888// 333 56599

58030=

48042 22558 71807 10316 20248 40017 84870 333 56440

58024=

48045 21240 81402 10200 20168 74064 887// 333 56999=

48048 22550 81802 10285 20233 40024 8597/ 333 5649/

58040=

48051 21456 81304 10256 20256 75055 86920 333 56390=

48053 32456 71805 10270 20240 40034 84551 333 56499

58032=

48060 22340 70000 10255 20231 40049 85730 333 56590

58020=

48062 21350 82302 10260 20250 40013 76365 86920 333

56990 58026=

48071 21356 82302 10245 20245 40033 76366 8692/ 333

5659/ 58033=

48075 21456 80000 10225 20225 40075 75165 8677/ 333

5659/ 58041=

48077 22558 80000 10250 20250 40037 85970 333 56490

58015=

48078 21550 81804 10251 20242 40071 70255 8557/ 333

56499 58028=

48080 21457 80405 10250 20233 40049 75165 85970 333

56590 58025=

48085 21350 81803 10260 20259 40045 75165 86720 333

56490 58022=

48095 22558 82202 10265 20265 84970 333 56990=

48108 21494 82301 10240 20240 40117 75055 8537/ 333

5659/ 58020=

48109 21396 82306 10273 20270 40070 75066 8697/ 333

5699/ 58006=

48110 21495 83202 10235 20235 40122 75165 8632/ 333

5659/ 58020=

48112 21597 82202 10275 20262 40120 72052 84876 333

56599 58016=

48030 22256 82201 10184 20165 8784/ 333 56569=

48072 21456 80000 10260 20246 75065 8697/ 333 5699/=

48087 22450 80000 10268 20256 8537/ 333 5649/=

48099 21330 81303 10252 20233 40090 75065 8697/ 333

5639/ 58024=

48101 21557 81801 10270 20250 70252 8497/ 333 5699/=

48103 21330 82202 10248 20248 40091 76166 8672/ 333

5659/ 58023=

48057 21340 81402 10203 20203 75065 86970 333 56490=

48094 21458 82205 10264 20250 40056 70255 86970 333

56590 58006=

48097 21457 82302 10280 20248 40077 70252 8535/ 333

5699/ 58026 =

48031 31/05 92201 10195 20185 74744 89/// 333 56999=

48033 22562 71802 10290 20230 40010 86970 333 56440

58019=

48034 21248 82301 10208 20200 75055 8692/ 333 5659/=

48039 22460 71402 10295 20239 84960 333 56550=

48043 32556 81805 10240 20209 8587/ 333 56599=

48052 22460 71301 10280 20250 85930 333 56990=

48055 21356 81403 10228 20198 40060 75055 8697/ 333

5655/ 58043=

48064 22458 83601 10263 20246 40014 84870 333 56440

58034=

48065 22556 81303 10268 20256 86970 333 56990=

48074 21356 81402 10260 20246 40057 70255 8677/ 333

56449 58031=

48092 22457 71805 10280 20250 40053 85970 333 56590

58017=

48093 21456 82301 10266 20240 70265 8637/ 333 56599=

48107 21330 81801 10253 20253 40093 70166 8497/ 333

5666/ 58015=  
SIBM20 VBRR 270300 RRA

AAXX 27034

48001 21320 81401 10205 20246 40043 76166 8477/ 333

56339 58101=

48004 31110 82301 10255 20255 8697/ 333 56559=

48010 21430 80000 10260 20260 40029 75155 887// 333

56499 58037=

48018 21560 82701 10270 20256 40035 75055 8497/ 333

56559 58041=

48019 32457 73201 10300 20266 40029 85660 333 56450

58049=

48020 21357 70902 10270 20255 70255 85770 333 56990

=

48025 22320 82701 10268 20256 40015 8587/ 333 56459

58031=

48035 32560 72202 10260 20215 40025 85970 333 56560

58017=

48037 21558 81401 10288 20259 40014 888// 333 56599

58030=

48042 22558 71807 10316 20248 40017 84870 333 56440

58024=

48045 21240 81402 10200 20168 74064 887// 333 56999=

48048 22550 81802 10285 20233 40024 8597/ 333 5649/

58040=

48051 21456 81304 10256 20256 75055 86920 333 56390=

48053 32456 71805 10270 20240 40034 84551 333 56499

58032=

48060 22340 70000 10255 20231 40049 85730 333 56590

58020=

48062 21350 82302 10260 20250 40013 76365 86920 333

56990 58026=

48071 21356 82302 10245 20245 40033 76366 8692/ 333

5659/ 58033=

48075 21456 80000 10225 20225 40075 75165 8677/ 333

5659/ 58041=

48077 22558 80000 10250 20250 40037 85970 333 56490

58015=

48078 21550 81804 10251 20242 40071 70255 8557/ 333

56499 58028=

48080 21457 80405 10250 20233 40049 75165 85970 333

56590 58025=

48085 21350 81803 10260 20259 40045 75165 86720 333

56490 58022=

48095 22558 82202 10265 20265 84970 333 56990=

48108 21494 82301 10240 20240 40117 75055 8537/ 333

5659/ 58020=

48109 21396 82306 10273 20270 40070 75066 8697/ 333

5699/ 58006=

48110 21495 83202 10235 20235 40122 75165 8632/ 333

5659/ 58020=

48112 21597 82202 10275 20262 40120 72052 84876 333

56599 58016=

48030 22256 82201 10184 20165 8784/ 333 56569=

48072 21456 80000 10260 20246 75065 8697/ 333 5699/=

48087 22450 80000 10268 20256 8537/ 333 5649/=

48099 21330 81303 10252 20233 40090 75065 8697/ 333

5639/ 58024=

48101 21557 81801 10270 20256 70252 8497/ 333 5699/=

48103 21330 82202 10248 20248 40091 76166 8672/ 333

5659/ 58023=

48057 21340 81402 10203 20203 75065 86970 333 56490=

48094 21458 82205 10264 20250 40056 70255 86970 333

56590 58006=

48097 21457 82302 10280 20268 40077 70252 8535/ 333

5699/ 58026=

48033 22562 71802 10290 20230 40010 86970 333 56440

58019=

48034 21248 82301 10208 20200 75055 8692/ 333 5659/=

48039 22460 71402 10295 20239 84960 333 56550=

48043 32556 81805 10240 20209 8587/ 333 56599=

48052 22460 71301 10280 20250 85930 333 56990=

48055 21356 81403 10228 20198 40060 75055 8697/ 333

5655/ 58043=

48064 22458 83601 10263 20246 40014 84870 333 56440

58034=

48065 22556 81303 10268 20256 86970 333 56990=

48074 21356 81402 10260 20246 40057 70255 8677/ 333

56449 58031=

48092 22457 71805 10280 20250 40053 85970 333 56590

58017=

48093 21456 82301 10266 20240 70265 8637/ 333 56599=

48107 21330 81801 10253 20253 40093 70166 8497/ 333

5666/ 58015=  





