



*-*-*


<!--
.style2 {
	font-family:"Courier New", Courier, monospace;
	font-size: 14px;
}
-->






SMBM01 VBRR 271200

AAXX 27124

48001 32456 60000 10300 20239 40022 86900 333 10325

56600 58014=

48004 21110 80401 10295 20266 75022 8697/ 333 10320

56559 69902=

48008 21456 82301 10295 20253 40033 70355 8497/ 333

10315 56459 58008 69902=

48010 21430 63601 10245 20245 40035 70265 8577/ 333

10277 56339 58003 60072=

48018 21556 80000 10265 20246 40004 75055 8597/ 333

10282 56999 58014 69902=

48019 21440 82702 10279 20268 40033 76066 887// 333

10300 56679 58005 60012=

48020 21120 80404 10250 20242 76366 889// 333 10256

56399 60582=

48025 21120 83602 10250 20250 40017 75165 85773 333

10263 56499 59015 60092=

48035 21250 80000 10226 20214 40040 76166 8692/ 333

10244 56999 58004 60062=

48037 21456 81401 10258 20248 40020 70255 887// 333

10265 56449 59001 60082=

48042 22557 81802 10262 20246 40020 8597/ 333 10272

56449 59009 69902=

48045 21330 91403 10190 20190 74564 89/// 333 10207

56999 60302=

48048 21540 80000 10252 20233 40014 75165 8697/ 333

10265 5649/ 59009 60052=

48051 21456 81306 10253 20253 76066 86920 333 10267

56490 60362=

48053 21456 81804 10260 20246 40033 70255 8577/ 333

10260 56499 59004 60032=

48060 21330 80000 10226 20214 40066 76366 85970 333

10268 5669/ 58034 60162=

48062 21350 82309 10250 20250 40003 76566 86920 333

10283 56590 59008 60382=

48071 21456 82303 10257 20257 40022 76066 8692/ 333

10265 5659/ 59007 60262=

48075 21456 81401 10220 20205 40073 75055 8677/ 333

10245 5659/ 58001 60102=

48077 21456 80000 10250 20233 40034 70266 85970 333

10264 56490 59010 60302=

48078 21330 81801 10251 20249 40065 76165 8472/ 333

10265 56499 59001 60382=

48080 21457 81302 10250 20233 40037 75055 85770 333

10270 56590 59014 60422=

48085 21356 81802 10248 20246 40051 75055 86720 333

10272 56590 59007 60522=

48095 21456 80000 10265 20265 75055 85970 333 10280

56990 60102=

48108 22494 82301 10270 20248 40109 84377 333 10301

56999 59002 60062=

48109 22496 62304 10292 20259 40083 84970 333 10306

56990 58002 60022=

48110 22496 80000 10265 20242 40112 84377 333 10280

56599 58006 60032=

48112 32597 82701 10285 20254 40106 83876 333 10317

56699 59003=

48030 NIL=

48072 NIL=

48087 21450 80000 10246 20246 75065 8597/ 333 10280

5649/ 60332=

48099 21220 81307 10255 20255 40084 76165 8697/ 333

10283 5639/ 58004 60102=

48101 22450 82302 10281 20268 70252 8697/ 333 10302

5659/ 60232=

48103 21330 82203 10272 20240 40081 72999 86970 333

10300 56550 59004 60072=

48057 21456 81402 10196 20185 75055 86950 333 10208

56490 60042=

48094 21456 80000 10250 20245 40058 76066 8592/ 333

10287 5659/ 58001 60192=

48097 21557 80000 10260 20260 40077 70262 8685/ 333

10315 5699/ 58003 60052=

48031 NIL=

48033 22560 81301 10263 20246 40026 83970 333 10270

56450 59022 60192=

48034 21248 82302 10197 20195 75065 8692/ 333 10215

5659/ 60202=

48039 21458 81402 10269 20240 70255 889// 333 10277

56399 69902=

48043 22520 81803 10205 20195 8587/ 333 10225 56599

60042=

48052 22450 81301 10250 20250 85970 333 10280 56990

60032=

48055 21356 82203 10232 20214 40046 70255 8697/ 333

10260 5659/ 59012 60042=

48064 21450 83201 10253 20250 40005 84720 333 10275

56440 59008 60032=

48065 21450 82202 10255 20255 75055 85970 333 10260

56990 60042=

48074 22250 81801 10250 20250 40062 8672/ 333 10276

56499 58014 60092=

48092 22456 80000 10255 20248 40046 8692/ 333 10290

5659/ 59003 60432=

48093 21440 82301 10250 20248 75065 8697/ 333 10280

56999 60132=

48107 22330 62302 10278 20233 40092 84970 333 10300

56550 59004 60152=  





