



*-*-*


<!--
.style2 {
	font-family:"Courier New", Courier, monospace;
	font-size: 14px;
}
-->






SIBM20 VBRR 270900

AAXX 27094

48001 31450 60401 10225 20181 40144 84730 333 56560 59022=

48004 21350 60402 10277 20184 70196 86900 333 56500=

48008 21556 81401 10266 20191 40142 75055 8497/ 333 56459 59026=

48010 31558 63601 10300 20207 40131 70344 83770 333 56110 59010=

48018 31959 01402 10325 20172 40129 70500 333 59031=

48019 32960 00401 10318 20200 40126 333 59040=

48020 NIL=

48025 31440 33601 10354 20182 40121 70544 83500 333 56900 59018=

48030 21256 70402 10194 20129 76022 87900 333 56100=

48031 31260 82201 10240 20134 71799 889// 333 56499=

48033 32963 03201 10330 20212 40116 333 59013=

48034 21457 51402 10260 20138 70555 85800 333 56500=

48035 31550 11802 10298 20098 40088 70500 81100 333 56900 59010=

48037 32658 20901 10347 20102 40116 80001 333 56006 59020=

48039 32958 30000 10340 20174 80002 333 56009=

48042 32957 03601 10345 20173 40104 333 59026=

48043 32757 33206 10270 20133 83200 333 56500=

48045 31558 41403 10272 20113 70400 84800 333 56500=

48048 31960 00401 10365 20195 40118 71044 333 59015=

48051 32559 40402 10363 20220 70322 84800 333 56900=

48052 32470 32202 10390 20198 83800 333 56900=

48053 32956 03601 10340 20240 40120 333 59013=

48055 21456 71802 10227 20159 40126 71796 87900 333 56500 59036=

48057 32458 61202 10238 20136 84350 333 56590=

48060 32450 31401 10260 20170 40131 83800 333 56500 59016=

48062 32556 42706 10330 20260 40127 70300 82830 333 56990 59012=

48064 32970 01401 10380 20240 40095 333 58012=

48065 32970 00000 10383 20159=

48071 32960 02703 10320 20248 40126 333 59010=

48072 32460 12704 10340 20288 70222 81200 333 56900=

48074 32560 20404 10370 20171 40179 82100 333 56400 59012=

48075 32457 62203 10250 20170 40129 70222 85340 333 56590 58026=

48077 32559 40000 10380 20187 40101 83901 333 56909 59008=

48078 32560 32701 10368 20182 40112 82201 333 56909 59008=

48080 31458 32206 10350 20219 40111 70511 82306 333 56509 59007=

48085 32458 23205 10326 20248 40123 82800 333 56700 58003=

48087 32458 72301 10360 20244 70322 8437/ 333 5699/=

48092 32458 41301 10360 20225 40096 70322 84100 333 56900 59012=

48093 32658 30401 10362 20249 83800 333 56500=

48094 32961 03203 10362 20240 40125 333 59011=

48095 32460 10401 10370 20227 70200 81200 333 56900=

48097 32557 51401 10360 20195 40121 85800 333 56900 59012=

48099 32560 32302 10360 20214 40108 83800 333 56500 59011=

48101 32960 01802 10338 20225=

48103 32557 43201 10365 20195 40106 84800 333 56700 59013=

48107 32350 52302 10356 20235 40100 85900 333 56300 59014=

48108 32596 61307 10363 20231 40113 83800 333 56500 59001=

48109 32497 20401 10335 20270 40131 70122 82500 333 56900 59004=

48110 31596 83205 10325 20240 40112 70522 84307 333 56909 59009=

48112 32597 80407 10350 20219 40100 70222 83876 333 56299 59011=  





