



*-*-*


<!--
.style2 {
	font-family:"Courier New", Courier, monospace;
	font-size: 14px;
}
-->






SIBM20 VBRR 270300

AAXX 27034

48001 21430 80901 10188 20175 40182 71022 8672/ 333 56999 59008=

48004 31558 40401 10219 20185 70500 84800 333 56500=

48008 21556 60401 10220 20173 40184 70544 83970 333 56760 59012=

48010 31056 01801 10220 20185 40174 71044 333 59012=

48018 22556 21401 10220 20173 40188 82800 333 56320 59007=

48019 32960 00000 10217 20175 40180 333 59013=

48020 NIL=

48025 31410 10401 10251 20167 40183 70544 81500 333 56900 59006=

48030 31109 72201 10107 20091 74244 87800 333 56500=

48031 31260 32201 10190 20096 70500 82840 333 56990=

48033 32962 03601 10250 20205 40158 333 59018=

48034 31456 10000 10190 20139 70511 81500 333 56500=

48035 31930 00000 10220 20136 40181 70500 333 58005=

48037 32950 03601 10252 20205 40180 333 58026=

48039 31950 30000 10250 20186 70511 80002 333 56009=

48042 31950 01801 10270 20191 40173 70500 333 59006=

48043 32058 03202 10210 20160=

48045 31950 01402 10200 20130 70400=

48048 31958 02201 10285 20184 40174 71044 333 59002=

48051 31958 03102 10268 20210 70500=

48052 32958 00401 10275 20184=

48053 31940 01801 10270 20211 40182 70500 333 58013=

48055 22556 12302 10183 20156 40201 70144 81100 333 56500 58006=

48057 22457 12202 10208 20120 81500 333 56900=

48060 22430 80000 10190 20155 40231 8597/ 333 5659/ 58008=

48062 31440 40902 10252 20210 40189 71044 82830 333 56390 58000=

48064 32960 00401 10270 20191 40165 333 58000=

48065 32960 00000 10285 20179=

48071 32958 00000 10280 20220 40169 333 58000=

48072 32959 01301 10300 20223 70122=

48074 22958 00901 10268 20191 40192 333 58014=

48075 22457 22201 10220 20190 40202 70222 81105 333 56309 59017=

48077 32959 00000 10260 20203 40163 333 58003=

48078 22557 22702 10274 20187 40176 81501 333 56909 58003=

48080 31959 00401 10282 20250 40170 70511 333 58004=

48085 32958 03202 10292 20215 40164 333 58005=

48087 22960 00000 10262 20215=

48092 21456 30503 10300 20196 40153 70511 81170 333 56990 58015=

48093 22557 21401 10290 20215 82800 333 56500=

48094 32959 03202 10290 20230 40166 333 58004=

48095 32958 00402 10280 20203=

48097 32557 21301 10285 20200 40174 70211 82500 333 56900 58008=

48099 32557 30402 10280 20203 40167 83800 333 56900 58005=

48101 22958 00000 10283 20233=

48103 32556 30402 10287 20196 40165 83500 333 56100 58007=

48107 31950 00902 10294 20230 40149 70144 333 58008=

48108 32596 50503 10320 20215 40147 83506 333 56909 59012=

48109 32497 50401 10306 20254 40164 84930 333 56990 58002=

48110 31596 31302 10305 20267 40153 70511 81105 333 56909 58000=

48112 32597 80401 10320 20236 40143 70222 83876 333 56199 58007=  





