



*-*-*


<!--
.style2 {
	font-family:"Courier New", Courier, monospace;
	font-size: 14px;
}
-->






SMBM01 VBRR 271200

AAXX 27124

48001 31450 50000 10226 20181 40136 85900 333 10240 56600 59031=

48004 21320 63202 10250 20186 70252 86900 333 10279 56500 60022=

48008 21550 60000 10262 20179 40129 70544 83970 333 10301 56450

59017 69902=

48010 31430 83602 10250 20186 40125 72999 8597/ 333 10313 5619/

59014=

48018 31956 00000 10310 20189 40098 70500 333 10330 59050=

48019 32950 20402 10304 20185 40118 80004 333 10320 56009 59025=

48020 31240 80000 10310 20225 70500 88700 333 10355 56500=

48025 31440 63202 10334 20151 40092 70444 85840 333 10361 56660

59032=

48030 21150 80404 10154 20134 76096 88900 333 10240 56100 69902=

48031 21257 72201 10180 20086 76096 87800 333 10250 56900 60032=

48033 32962 02701 10310 20237 40114 333 10335 58011=

48034 22456 30403 10232 20124 70511 83800 333 10277 56500 69902=

48035 31540 30000 10267 20133 40096 70500 83800 333 10305 56900

59027=

48037 32950 33601 10326 20234 40099 80005 333 10352 56009 59042=

48039 32558 40401 10316 20184 82402 333 10345 56909=

48042 32558 20000 10322 20184 40101 81102 333 10350 56909 59019=

48043 32920 00000 10235 20136 333 10270=

48045 31556 71405 10165 20135 71795 87300 333 10283 56500=

48048 31550 30901 10340 20206 40104 71044 83800 333 10370 56900

59022=

48051 32958 41303 10322 20200 84800 333 10372 56900=

48052 32450 40000 10370 20227 82200 333 10390 56900=

48053 32950 03603 10320 20215 40103 333 10342 59011=

48055 21456 62302 10231 20172 40124 72996 85901 333 10298 56509

59039 60012=

48057 32456 61401 10208 20143 86300 333 10260 56600=

48060 32430 21802 10235 20159 40128 81130 333 10270 56590 59015=

48062 31550 42704 10300 20250 40120 70522 82530 333 10330 56990

59011=

48064 32550 41401 10335 20240 40085 81331 333 10385 56499 59024=

48065 32450 40000 10340 20184 82206 333 10385 56909=

48071 32956 03204 10298 20239 40123 333 10330 59010=

48072 NIL=

48074 32457 20000 10290 20196 40103 82400 333 10375 56900 58030=

48075 32456 70000 10260 20200 40137 85840 333 10280 56590 59035=

48077 32556 62306 10322 20163 40109 85901 333 10382 56909 59002=

48078 32556 23601 10337 20172 40104 81201 333 10372 56909 59018=

48080 31457 42202 10310 20255 40117 70522 83830 333 10365 56590

59007=

48085 32456 13204 10296 20248 40121 81800 333 10330 56900 59008=

48087 32450 60000 10314 20189 8337/ 333 10368 5699/=

48092 31550 60501 10330 20234 40098 70522 86300 333 10370 56900

59014=

48093 32650 41801 10318 10248 83801 333 10362 56509=

48094 32456 42202 10330 20240 40121 82840 333 10365 56790 59002=

48095 32456 10000 10340 20225 81200 333 10370 56900=

48096 32557 51808 10340 20206 40109 85800 333 10365 56900 59017=

48097 32556 61401 10330 20212 40121 84806 333 10375 56909 58017=

48099 32450 42301 10323 20215 40104 83301 333 10365 56909 59010=

48101 32956 30000 10300 20239 80003 333 10342 56009=

48103 32540 43201 10329 20234 40111 84800 333 10372 56700 59003=

48107 21340 62302 10270 20240 40113 70196 84970 333 10366 56550

59008 60022=

48108 32596 63202 10310 20260 40114 83806 333 10370 56909 59012=

48109 NIL=

48110 32596 43202 10310 20237 40106 82306 333 10340 56909 59010=

48112 32597 80402 10310 20225 40104 83876 333 10362 56199 59002=  





