



*-*-*


<!--
.style2 {
	font-family:"Courier New", Courier, monospace;
	font-size: 14px;
}
-->






SMBM01 VBRR 271800

NIL=  
SMBM01 VBRR 271800 RRA

AAXX 27184

48008 32410 80000 10250 20233 40037 8497/ 333 56569 59020=

48010 32501 30000 10265 20245 40032 81440 333 56560 59031=

48018 32920 02201 10285 20248 40028 333 59015=

48025 21405 20000 10255 20250 40068 70196 82870 333 56690 59006=

48042 21550 51802 10310 20254 40033 70355 82850 333 56990 59005=

48053 32540 31801 10300 20253 40060 83900 333 56500 58005=

48057 32439 22201 10220 20176 81550 333 56690=

48060 32420 12202 10240 20209 40028 81100 333 56500 59019=

48071 32430 23202 10290 20259 40051 82800 333 56900 59015=

48080 31450 62202 10290 20259 40091 70355 84970 333 56490 59002=

48094 22450 60000 10260 20250 40079 84970 333 56990 58000=

48097 32556 22401 10265 20243 40096 82500 333 56900 58009=

48099 22320 52301 10280 20250 40078 84830 333 56990 59005=

48108 21494 82302 10275 20245 40094 75055 8537/ 333 5699/ 59019=

48109 NIL=

48110 22594 82302 10265 20251 40105 82357 333 56999 59004=

48112 21597 82203 10250 20250 40092 70152 84876 333 56599 59005=  





