



*-*-*


<!--
.style2 {
	font-family:"Courier New", Courier, monospace;
	font-size: 14px;
}
-->






SIBM20 VBRR 270300

AAXX 27034

48001 31440 20401 10212 20195 40167 70144 82100 333

56500 58001=

48004 31562 10401 10221 20185 70144 81100 333 56900=

48008 32556 10000 10230 20198 40171 81100 333 56900

58005=

48010 32556 20000 10240 20209 40161 82100 333 56400

59007=

48018 31960 00401 10242 20209 40163 71044 333 58000=

48019 32960 00902 10201 20150 40160 333 58002=

48020 32458 23603 10260 20238 82800 333 56800=

48025 31110 73601 10250 20219 40165 74044 85840 333

56550 59001=

48035 31960 00000 10189 20130 40167 70144 333 58010=

48037 32958 03201 10257 20229 40143 333 59006=

48042 32557 20401 10280 20203 40138 82200 333 56900

59012=

48045 32556 32203 10200 20150 83800 333 56500=

48048 32560 20901 10280 20220 40143 82800 333 56900

59028=

48051 32958 03104 10268 20240 333=

48053 32556 33601 10280 20220 40142 81550 333 56990

59005=

48060 32350 10000 10225 20168 40172 81100 333 56600

58035=

48062 32457 60903 10270 20260 40133 84830 333 56290

59004=

48071 32458 23201 10295 20266 40134 82230 333 56990

59010=

48075 32457 50901 10240 20226 40149 85800 333 56500

59008=

48077 32559 70000 10280 20250 40139 85930 333 56990

58003=

48078 32557 30901 10283 20233 40142 81231 333 56999

59006=

48080 22960 01302 10280 20250 40133 333 59002=

48085 32457 21401 10300 20253 40132 81801 333 56909

59003=

48095 NIL=

48108 NIL=

48109 NIL=

48110 NIL=

48112 NIL=

48030 31156 42201 10137 20137 74244 84800 333 56500=

48072 32460 32301 10310 20267 83800 333 56400=

48087 22556 60402 10300 20266 83841 333 56899=

48099 NIL=

48101 NIL=

48103 NIL=

48057 32458 41401 10230 20143 81536 333 56499=

48094 NIL=

48097 NIL=

48031 32257 72201 10210 20160 87800 333 56400=

48033 32562 33601 10270 20211 40147 83500 333 56100

58000=

48034 32456 20402 10214 20120 81530 333 56550=

48039 32458 30401 10278 20220 83100 333 56100=

48043 32058 00505 10220 20173 333=

48052 32460 20000 10268 20240 82200 333 56900=

48055 32956 00901 10210 20175 40160 70144 333 59009=

48064 32956 00000 10260 20229 40123 333 59010=

48065 32958 00402 10282 20233 333=

48074 32458 73602 10270 20226 40144 82560 333 56990

59007=

48092 32458 50901 10310 20254 40115 83851 333 56999

59005=

48093 NIL=

48107 NIL=

48096 NIL=  
SIBM20 VBRR 270300 RRA

AAXX 27034

48010 32556 20000 10240 20209 40161 82100 333 56400

59007=

48037 32958 03201 10257 20229 40143 333 59006=

48095 32458 30000 10295 20259 83800 333 56900=

48108 32595 60504 10270 20240 40138 84377 333 56899

59004=

48109 22497 40000 10292 20259 40131 83801 333 56909

58008=

48110 21595 81801 10305 20246 40132 70522 81157 333

56999 59004=

48112 21597 80409 10260 20246 40127 70152 84876 333

56199 59003=

48099 31450 52701 10290 20248 40133 70344 83830 333

56590 59011=

48101 32759 10901 10310 20267 80030 333 56090=

48103 32456 30404 10290 20230 40137 82530 333 56110

59008=

48094 32459 33201 10300 20250 40134 82840 333 56990

59006=

48097 32557 20405 10295 20250 40139 81540 333 56990

59004=

48093 32558 21401 10318 20265 82100 333 56300=

48107 31350 52301 10292 20248 40123 7//44 85900 333

56600 59005=

48096 32958 30606 10300 20239 40136 80030 333 56090

59011=  





