



*-*-*


<!--
.style2 {
	font-family:"Courier New", Courier, monospace;
	font-size: 14px;
}
-->






SMBM01 VBRR 281800 RRA

AAXX 28184
48008 32510 70000 10240 20209 40089 84970 333 56880 59014=
48010 32001 00000 10230 20214 40094 333 59026=
48018 22530 20000 10235 20198 40097 82800 333 56900 59016=
48025 32405 60401 10255 20205 40110 83840 333 56650 59026=
48042 21550 80000 10280 20250 40086 75022 8597/ 333 56999 59010=
48053 32540 51801 10280 20203 40091 83958 333 56499 59003=
48057 32457 12202 10200 20150 81500 333 56900=
48060 22420 30000 10210 20175 40103 82130 333 56590 59012=
48062 32550 20000 10263 20250 40111 82200 333 56900 58002=
48071 32430 13203 10283 20233 40096 81800 333 56900 58000=
48078 22550 51801 10290 20230 40091 83501 333 56599 59019=
48080 32940 00000 10272 20240 40117 333 59007=
48094 32556 10000 10270 20240 40096 81500 333 56900 59007=
48097 22956 02502 10270 20248 40117 70095 333 59007=
48099 22440 20000 10280 20250 40096 82500 333 56900 59020=
48103 32410 41401 10294 20248 40094 84800 333 56300 59003=
48108 32595 60901 10270 20240 40112 83306 333 56009 59007=
48109 32495 30000 10290 20248 40102 81507 333 56909 59014=
48110 32594 51302 10270 20240 40115 82356 333 56999 58002=
48112 32597 60402 10280 20250 40096 82246 333 56199 59005=  
SMBM01 VBRR 281800 RRA

AAXX 28184
48008 32510 70000 10240 20209 40089 84970 333 56880 59014=
48010 32001 00000 10230 20214 40094 333 59026=
48018 22530 20000 10235 20198 40097 82800 333 56900 59016=
48025 32405 60401 10255 20205 40110 83840 333 56650 59026=
48042 21550 80000 10280 20250 40086 75022 8597/ 333 56999 59010=
48053 32540 51801 10280 20203 40091 83958 333 56499 59003=
48057 32457 12202 10200 20150 81500 333 56900=
48060 22420 30000 10210 20175 40103 82130 333 56590 59012=
48062 32550 20000 10263 20250 40111 82200 333 56900 58002=
48071 32430 13203 10283 20233 40096 81800 333 56900 58000=
48078 22550 51801 10290 20230 40091 83501 333 56599 59019=
48080 32940 00000 10272 20240 40117 333 59007=
48094 32556 10000 10270 20240 40096 81500 333 56900 59007=
48097 22956 02502 10270 20248 40117 70095 333 59007=
48099 22440 20000 10280 20250 40096 82500 333 56900 59020=
48103 32410 41401 10294 20248 40094 84800 333 56300 59003=
48108 32595 60901 10270 20240 40112 83306 333 56009 59007=
48109 32495 30000 10290 20248 40102 81507 333 56909 59014=
48110 32594 51302 10270 20240 40115 82356 333 56999 58002=
48112 32597 60402 10280 20250 40096 82246 333 56199 59005=  





