



*-*-*


<!--
.style2 {
	font-family:"Courier New", Courier, monospace;
	font-size: 14px;
}
-->






SMBM01 VBRR 281200

AAXX 28124

48001 21110 80000 10238 20236 40030 76166 889// 333

10255 56399 59008 60202=

48004 21110 80000 10260 20260 75065 8697/ 333 10280

56559 60062=

48008 21450 80000 10280 20268 40043 70355 8497/ 333

10285 56459 59001 60192=

48010 32540 60000 10280 20274 40025 83730 333 10290

56550 59010 60002=

48018 32556 52301 10305 20239 40037 83830 333 10317

56350 58002 60002=

48019 32457 70000 10300 20253 40037 85660 333 10320

56660 58002 60002=

48020 32356 63202 10310 20267 84302 333 10326 56509

60032=

48025 32456 50000 10320 20265 40027 82841 333 10330

56449 59007 60002=

48035 21558 80000 10257 20229 40023 70366 8597/ 333

10295 56560 59012 60012=

48037 32458 73201 10348 20258 40030 84370 333 10357

56640 58004 60002=

48042 32558 61302 10320 20248 40029 83850 333 10348

56449 59004 60002=

48045 32340 71806 10220 20156 86330 333 10264 56560

60002=

48048 32550 32201 10327 20236 40028 83800 333 10345

56900 59004 60002=

48051 21558 63601 10270 20260 70262 85930 333 10305

56390 60222=

48053 32460 62202 10310 20254 40043 83856 333 10340

56599 59005 60002=

48060 32330 62201 10270 20191 40039 82132 333 10298

56566 58019 60072=

48062 32456 81804 10290 20270 40058 86970 333 10315

56590 58006 60002=

48071 21458 72301 10260 20246 40048 72162 85970 333

10320 56590 58007 60222=

48075 22456 60000 10260 20215 40070 83341 333 10290

56559 58009 69902=

48077 32556 80000 10270 20256 40058 85931 333 10306

56499 59002 60002=

48078 32556 81802 10268 20256 40077 8537/ 333 10287

56699 59012 60002=

48080 32457 71301 10285 20259 40070 85870 333 10315

56590 58005 60002=

48085 21356 81401 10272 20256 40068 75065 86970 333

10306 56690 58000 60192=

48095 21456 82202 10250 20250 75155 85970 333 10292

56990 60302=

48108 21494 80501 10250 20233 40095 72055 84377 333

10310 56899 59008 60082=

48109 32496 52301 10287 20248 40083 85900 333 10310

56900 58004 60002=

48110 21495 80000 10280 20250 40097 70255 84377 333

10295 56999 58007 60012=

48112 32598 63601 10290 20259 40088 82216 333 10312

56899 59008 60002=

48030 32256 82201 10200 20168 8684/ 333 10232 56569

60002=

48072 21456 60000 10280 20268 70255 84930 333 10310

56590 60072=

48087 NIL=

48099 21330 81801 10263 20246 40088 72166 8697/ 333

10270 5639/ 58006 60052=

48101 21556 70000 10268 20256 70165 84770 333 10305

56990 60132=

48103 22440 72201 10270 20256 40083 86830 333 10289

56550 59002 60012=

48057 22457 61801 10220 20185 84830 333 10228 56690

60032=

48094 22456 50000 10280 20270 40077 83970 333 10295

56990 58004 60072=

48097 21556 83301 10260 20253 40088 70252 8635/ 333

10300 56990 58005 60002=

48031 32558 63601 10220 20185 86800 333 10245 56400

60002=

48033 32562 51301 10310 20254 40036 83906 333 10330

56509 58000 60002=

48034 22456 51401 10238 20211 85300 333 10248 56500

69902=

48039 32460 61401 10309 20254 84860 333 10333 56400

60002=

48043 32520 61803 10235 20209 82232 333 10260 56599

60002=

48052 32458 32203 10330 20234 83800 333 10352 56990

60002=

48055 21556 71802 10265 20221 40036 70266 84936 333

10301 56549 59003 60012=

48064 32550 20401 10310 20267 40031 81130 333 10340

56440 58000 60002=

48065 22450 60000 10305 20267 83571 333 10332 56999

60132=

48074 21356 80000 10270 20256 40071 72055 8692/ 333

10330 56499 59009 69902=

48092 22456 80000 10260 20246 40058 8597/ 333 10285

5699/ 59004 60042=

48093 22440 83202 10257 20246 8637/ 333 10285 56999

60312=

48107 22330 60000 10258 20229 40091 84970 333 10300

56550 59002 60042=

48096 22457 82305 10260 20246 40084 8597/ 333 10300

5699/ 58003 60002=  





