



*-*-*


<!--
.style2 {
	font-family:"Courier New", Courier, monospace;
	font-size: 14px;
}
-->






SMBM01 VBRR 280000 RRA

AAXX 28004

48004 31902 90000 10098 20098 74644 333 20053=

48025 31005 63201 10150 20134 40191 74244 86600 333

20148 56700 58008=

48035 31/01 90000 10099 20079 40187 74744 333 20095

58013=

48051 32956 03601 10138 20130 333 20130=

48062 31420 20401 10160 20160 40179 74122 82500 333

20140 56900 58025 60002=

48071 31940 00402 10212 20175 40177 71000 333 20190

58029=

48075 31450 20000 10130 20113 40224 70144 82500 333

20120 56500 58015 60002=

48077 32956 00000 10190 20175 40165 333 20176 58012=

48078 32950 10000 10188 20175 40176 80001 333 20165

56009 58013=

48080 31908 00000 10163 20144 40172 74044 333 20150

58021=

48085 31905 01401 10174 20170 40164 74244 333 20174

58020=

48108 31493 40000 10215 20208 40167 74011 82406 333

20190 56909 58020 60002=

48110 31592 41802 10240 20226 40162 74244 81406 333

20240 56909 58017=

48112 32598 60402 10260 20246 40155 82216 333 20205

56199 58025 60002=

48099 31330 22701 10228 20214 40157 74044 82700 333

20210 56900 58010=

48103 31940 00403 10228 20228 40166 74244 333 20235

58022 60002=

48094 31956 00000 10220 20190 40164 71000 333 20212

58011=

48097 32556 30401 10200 20185 40167 83500 333 20185

56900 58014=

48055 32956 01802 10053 20042 40242 333 20051 58014=

48092 32550 10000 10190 20182 40147 81500 333 20184

56900 58016=

48093 32950 00000 10208 20195 333 20206=

48107 31930 20000 10230 20214 40158 74144 80006 333

20222 56009 58014=

48096 32956 20202 10210 20195 40172 80001 333 20200

56009 58016=  
SMBM01 VBRR 280000

AAXX 28004

48004 31902 90000 10098 20098 74644 333 20053=

48025 31005 63201 10150 20134 40191 74244 86600 333

20148 56700 58008=

48035 31/01 90000 10099 20079 40187 74744 333 20095

58013=

48051 32956 03601 10138 20130 333 20130=

48062 31420 20401 10160 20160 40179 74122 82500 333

20140 56900 58025 60002=

48071 31940 00402 10212 20175 40177 71000 333 20190

58029=

48075 31450 20000 10130 20113 40224 70144 82500 333

20120 56500 58015 60002=

48077 32956 00000 10190 20175 40165 333 20176 58012=

48078 32950 10000 10188 20175 40176 80001 333 20165

56009 58013=

48080 31908 00000 10163 20144 40172 74044 333 20150

58021=

48085 31905 01401 10174 20170 40164 74244 333 20174

58020=

48108 31493 40000 10215 20208 40167 74011 82406 333

20190 56909 58020 60002=

48110 31592 41802 10240 20226 40162 74244 81406 333

20240 56909 58017=

48112 32598 60402 10260 20246 40155 82216 333 20205

56199 58025 60002=

48099 31330 22701 10228 20214 40157 74044 82700 333

20210 56900 58010=

48103 31940 00403 10228 20228 40166 74244 333 20235

58022 60002=

48094 31956 00000 10220 20190 40164 71000 333 20212

58011=

48097 32556 30401 10200 20185 40167 83500 333 20185

56900 58014=

48055 32956 01802 10053 20042 40242 333 20051 58014=

48092 32550 10000 10190 20182 40147 81500 333 20184

56900 58016=

48093 32950 00000 10208 20195 333 20206=

48107 31930 20000 10230 20214 40158 74144 80006 333

20222 56009 58014=

48096 32956 20202 10210 20195 40172 80001 333 20200

56009 58016=  
SMBM01 VBRR 280000 RRA

AAXX 28004

48004 31902 90000 10098 20098 74644 333 20053=

48025 31005 63201 10150 20134 40191 74244 86600 333

20148 56700 58008=

48035 31/01 90000 10099 20079 40187 74744 333 20095

58013=

48051 32956 03601 10138 20130 333 20130=

48062 31420 20401 10160 20160 40179 74122 82500 333

20140 56900 58025 60002=

48071 31940 00402 10212 20175 40177 71000 333 20190

58029=

48075 31450 20000 10130 20113 40224 70144 82500 333

20120 56500 58015 60002=

48077 32956 00000 10190 20175 40165 333 20176 58012=

48078 32950 10000 10188 20175 40176 80001 333 20165

56009 58013=

48080 31908 00000 10163 20144 40172 74044 333 20150

58021=

48085 31905 01401 10174 20170 40164 74244 333 20174

58020=

48108 31493 40000 10215 20208 40167 74011 82406 333

20190 56909 58020 60002=

48110 31592 41802 10240 20226 40162 74244 81406 333

20240 56909 58017=

48112 32598 60402 10260 20246 40155 82216 333 20205

56199 58025 60002=

48099 31330 22701 10228 20214 40157 74044 82700 333

20210 56900 58010=

48103 31940 00403 10228 20228 40166 74244 333 20235

58022 60002=

48094 31956 00000 10220 20190 40164 71000 333 20212

58011=

48097 32556 30401 10200 20185 40167 83500 333 20185

56900 58014=

48055 32956 01802 10053 20042 40242 333 20051 58014=

48092 32550 10000 10190 20182 40147 81500 333 20184

56900 58016=

48093 32950 00000 10208 20195 333 20206=

48107 31930 20000 10230 20214 40158 74144 80006 333

20222 56009 58014=

48096 32956 20202 10210 20195 40172 80001 333 20200

56009 58016=  





