



*-*-*


<!--
.style2 {
	font-family:"Courier New", Courier, monospace;
	font-size: 14px;
}
-->






SMBM01 VBRR 281200

AAXX 28124

48001 21330 80000 10206 20195 40132 72055 8672/ 333 10215 56459

 59004=

69902 09900

48004 21110 83202 10240 20191 75052 8697/ 333 10269 56559=

48008 31550 80401 10284 20158 40099 70544 8297/ 333 10303 56179

 59029=

48010 21330 80501 10230 20214 40120 76095 8597/ 333 10281 56599

59006=69902 09900

48018 21556 82202 10250 20219 40086 79595 8597/ 333 10340 56569

59011=69902 09900

48019 31440 80401 10280 20203 40090 71022 8597/ 333 10320 56569

 59027=

48020 21240 73602 10285 20215 70500 87700 333 10355 56500 =

48025 21440 62201 10240 20209 40100 70396 85340 333 10362 56690

58002=60082 00088

48030 32250 42204 10198 20109 83950 333 10228 56560=

48031 21258 53201 10200 20130 70500 85840 333 10245 56940=

48033 32562 30000 10330 20234 40084 83900 333 10350 56900 59030=

48034 31456 20000 10242 20136 70511 82500 333 10290 56500=

48035 31420 82705 10247 20150 40091 71799 8597/ 333 10303 56569

 59004=

48037 32556 60000 10339 20240 40062 83830 333 10362 56660 59035=

48039 32456 30401 10335 20184 83800 333 10365 56500=

48042 32557 20000 10342 20206 40070 82200 333 10383 56900 59031=

48043 32030 00000 10250 20150 333 10286=

48045 32558 21408 10240 20066 82300 333 10285 56500=

48048 31550 31801 10367 20190 40065 71044 83800 333 10387 56900

 59039=

48051 32558 43103 10320 20180 7012284800 333 10364 56900=

48052 32450 22205 10368 20148 82200 333 10405 56900=

48053 32540 53204 10350 20237 40078 84950 333 10372 56590 59028=

48055 21556 30000 10233 20156 40085 70165 83900 333 10315 56500

59039=60042 00044

48057 32456 41802 10240 20114 84800 333 10265 56400=

48060 32430 50000 10250 20167 40099 84830 333 10300 56590 59029=

48062 31556 53204 10295 20270 40111 70522 83832 333 10327 56699

 59009=SSL32956

48064 32950 13201 10360 20214 40050 81100 333 10398 56900 59034=

48065 32950 02207 10362 20156 333 10395=

48071 32956 02704 10300 20239 40108 333 10330 59015=

48072 32957 03203 10290 20230 333 10350=

48074 32457 20000 10350 20202 40072 82400 333 10385 56900 59031=

48075 31456 02201 10280 20190 40094 70511 333 10310 59043=

48077 32556 62302 10330 20172 40072 85901 333 10392 56909 59036=

48078 32550 41801 10336 20188 40081 83301 333 10370 56509 59023=

48080 31957 02203 10301 20253 40106 70500 333 10372 59011=SSL

48085 32456 13203 10296 20239 40098 81300 333 10332 56900 59023=

48087 21440 72301 10250 20233 70365 8597/ 333 10377 5639/=60112

48092 32456 60000 10300 20231 40072 83370 333 10375 56999 59026=

48093 21640 41401 10320 20225 70255 82841 333 10364 56399=09900

48094 21456 40000 10270 20240 40101 72066 83920 333 10375 56990

59020=60172 00178

48095 NIL=

48097 22556 53202 10280 20259 40124 79622 83806 333 10385 56909

58003=60062 00066

48099 32340 62702 10316 20236 40083 84931 333 10372 56669 59020=

48101 32656 30000 10300 20223 70111 80033 333 10358 56999=

48103 32540 50000 10322 20236 40089 85900 333 10378 56500 59022=

48107 32350 22701 10303 20223 40092 82900 333 10362 56400 59021=

48108 32596 73201 10330 20244 40098 84366 333 10368 56699 59016=

48109 NIL

48110 21496 41304 10270 20240 40099 71799 85306 333 10345 56209

59007=69902 555 09900

48112 32597 80406 10315 20225 40093 70322 83876 333 10372 56199

 59011=  
SMBM01 VBRR 281200 CCA

AAXX 28124

48001 21330 80000 10206 20195 40132 72055 8672/ 333 10215 56459

 59004=

48004 21110 83202 10240 20191 75052 8697/ 333 10269 56559=

48008 31550 80401 10284 20158 40099 70544 8297/ 333 10303 56179

 59029=

48010 21330 80501 10230 20214 40120 76095 8597/ 333 10281 56599

59006=

48018 21556 82202 10250 20219 40086 79595 8597/ 333 10340 56569

59011=

48019 31440 80401 10280 20203 40090 71022 8597/ 333 10320 56569

 59027=

48020 21240 73602 10285 20215 70500 87700 333 10355 56500 =

48025 21440 62201 10240 20209 40100 70396 85340 333 10362 56690

58002=

48030 32250 42204 10198 20109 83950 333 10228 56560=

48031 21258 53201 10200 20130 70500 85840 333 10245 56940=

48033 32562 30000 10330 20234 40084 83900 333 10350 56900 59030=

48034 31456 20000 10242 20136 70511 82500 333 10290 56500=

48035 31420 82705 10247 20150 40091 71799 8597/ 333 10303 56569

 59004=

48037 32556 60000 10339 20240 40062 83830 333 10362 56660 59035=

48039 32456 30401 10335 20184 83800 333 10365 56500=

48042 32557 20000 10342 20206 40070 82200 333 10383 56900 59031=

48043 32030 00000 10250 20150 333 10286=

48045 32558 21408 10240 20066 82300 333 10285 56500=

48048 31550 31801 10367 20190 40065 71044 83800 333 10387 56900

 59039=

48051 32558 43103 10320 20180 7012284800 333 10364 56900=

48052 32450 22205 10368 20148 82200 333 10405 56900=

48053 32540 53204 10350 20237 40078 84950 333 10372 56590 59028=

48055 21556 30000 10233 20156 40085 70165 83900 333 10315 56500

59039=

48057 32456 41802 10240 20114 84800 333 10265 56400=

48060 32430 50000 10250 20167 40099 84830 333 10300 56590 59029=

48062 31556 53204 10295 20270 40111 70522 83832 333 10327 56699

 59009=

48064 32950 13201 10360 20214 40050 81100 333 10398 56900 59034=

48065 32950 02207 10362 20156 333 10395=

48071 32956 02704 10300 20239 40108 333 10330 59015=

48072 32957 03203 10290 20230 333 10350=

48074 32457 20000 10350 20202 40072 82400 333 10385 56900 59031=

48075 31456 02201 10280 20190 40094 70511 333 10310 59043=

48077 32556 62302 10330 20172 40072 85901 333 10392 56909 59036=

48078 32550 41801 10336 20188 40081 83301 333 10370 56509 59023=

48080 31957 02203 10301 20253 40106 70500 333 10372 59011=

48085 32456 13203 10296 20239 40098 81300 333 10332 56900 59023=

48087 21440 72301 10250 20233 70365 8597/ 333 10377 5639/=

48092 32456 60000 10300 20231 40072 83370 333 10375 56999 59026=

48093 21640 41401 10320 20225 70255 82841 333 10364 56399=

48094 21456 40000 10270 20240 40101 72066 83920 333 10375 56990

59020=

48095 NIL=

48097 22556 53202 10280 20259 40124 79622 83806 333 10385 56909

58003=

48099 32340 62702 10316 20236 40083 84931 333 10372 56669 59020=

48101 32656 30000 10300 20223 70111 80033 333 10358 56999=

48103 32540 50000 10322 20236 40089 85900 333 10378 56500 59022=

48107 32350 22701 10303 20223 40092 82900 333 10362 56400 59021=

48108 32596 73201 10330 20244 40098 84366 333 10368 56699 59016=

48109 NIL=

48110 21496 41304 10270 20240 40099 71799 85306 333 10345 56209

59007=

48112 32597 80406 10315 20225 40093 70322 83876 333 10372 56199

 59011=  





