



*-*-*


<!--
.style2 {
	font-family:"Courier New", Courier, monospace;
	font-size: 14px;
}
-->






SMBM01 VBRR 280600

AAXX 28064

48001 31458 61401 10275 20266 40062 70522 8477/ 333

56889 59015=

48004 32356 60401 10328 20258 86900 333 56500=

48008 32556 70000 10305 20225 40053 84970 333 56560

58017=

48010 32560 60000 10320 20248 40044 83830 333 56550

59026=

48018 32560 52202 10330 20244 40047 83870 333 56560

59022=

48019 32460 32302 10335 20258 40050 83600 333 56600

59021=

48020 32356 63602 10320 20248 86800 333 56500=

48025 32456 61401 10332 20212 40043 82540 333 56550

59033=

48035 32559 72204 10278 20220 40043 85930 333 56190

59008=

48037 32560 30401 10356 20249 40043 83200 333 56600

59019=

48042 32558 51802 10357 20249 40043 84250 333 56440

59020=

48045 32558 41402 10282 20158 83801 333 56505=

48048 32460 21801 10385 20240 40046 82800 333 56900

59020=

48051 32558 33101 10356 20240 70122 83800 333 56600=

48053 32556 51802 10350 20266 40055 83850 333 56590

59025=

48060 32440 32703 10330 20191 40030 83100 333 56500

59005=

48062 32558 41803 10330 20290 40073 70222 84920 333

56490 59008=

48071 32460 33203 10340 20270 40073 82930 333 56990

59010=

48075 32557 51401 10310 20230 40053 85300 333 56500

59015=

48077 32559 42301 10344 20257 40056 83801 333 56409

59016=

48078 32558 31801 10342 20240 40073 82801 333 56509

59017=

48080 32461 62205 10330 20275 40080 84870 333 56590

59006=

48085 32458 73203 10304 20266 40077 85976 333 56599

59003=

48095 32458 42202 10335 20258 70211 82940 333 56990=

48108 32596 62303 10320 20257 40086 84366 333 56699

59018=

48109 32497 72301 10314 20267 40087 85930 333 56990

59006=

48110 21496 71303 10320 20248 40093 70255 84306 333

56509 59013=

48112 21597 53202 10285 20254 40102 70152 84876 333

56799 59003=

48030 31256 42203 10250 20126 70544 84800 333 56500=

48072 32459 80301 10310 20267 70322 86830 333 56990=

48087 32558 62302 10348 20240 70322 83341 333 56599=

48099 21457 43201 10312 20254 40076 70165 83901 333

56709 59014=

48101 32459 72301 10320 20265 70222 85970 333 56590=

48103 21350 82202 10296 20253 40077 72160 8677/ 333

5655/ 59014=

48057 32458 52202 10270 20172 85300 333 56600=

48094 32459 63202 10330 20260 40072 85940 333 56690

59013=

48097 32557 73101 10330 20251 40079 86330 333 56990

59017=

48031 31260 20401 10265 20179 70544 82800 333 56900=

48033 32562 31801 10350 20240 40042 83800 333 56900

59011=

48034 32457 52303 10252 20219 85300 333 56500=

48039 32460 40000 10346 20246 84300 333 56600=

48043 32658 40505 10270 20233 83830 333 56590=

48052 32470 22202 10384 20221 82200 333 56900=

48055 32556 32304 10304 20216 40032 83800 333 56500

59008=

48064 32470 30000 10380 20275 40030 82101 333 56909

59025=

48065 32970 20403 10373 20258 80001 333 56009=

48074 32458 42303 10333 20258 40078 83850 333 56440

59008=

48092 32457 62302 10330 20258 40053 86900 333 56500

59025=

48093 32558 62301 10321 20265 86300 333 56500=

48107 32350 43201 10318 20248 40080 84900 333 56500

59014=  
SMBM01 VBRR 280600

AAXX 28064

48001 31458 61401 10275 20266 40062 70522 8477/ 333 56889 59015=

48004 32356 60401 10328 20258 86900 333 56500=

48008 32556 70000 10305 20225 40053 84970 333 56560 58017=

48010 32560 60000 10320 20248 40044 83830 333 56550 59026=

48018 32560 52202 10330 20244 40047 83870 333 56560 59022=

48019 32460 32302 10335 20258 40050 83600 333 56600 59021=

48020 32356 63602 10320 20248 86800 333 56500=

48025 32456 61401 10332 20212 40043 82540 333 56550 59033=

48030 31256 42203 10250 20126 70544 84800 333 56500=

48031 31260 20401 10265 20179 70544 82800 333 56900=

48033 32562 31801 10350 20240 40042 83800 333 56900 59011=

48034 32457 52303 10252 20219 85300 333 56500=

48035 32559 72204 10278 20220 40043 85930 333 56190 59008=

48037 32560 30401 10356 20249 40043 83200 333 56600 59019=

48039 32460 40000 10346 20246 84300 333 56600=

48042 32558 51802 10357 20249 40043 84250 333 56440 59020=

48043 32658 40505 10270 20233 83830 333 56590=

48045 32558 41402 10282 20158 83801 333 56505=

48048 32460 21801 10385 20240 40046 82800 333 56900 59020=

48051 32558 33101 10356 20240 70122 83800 333 56600=

48052 32470 22202 10384 20221 82200 333 56900=

48053 32556 51802 10350 20266 40055 83850 333 56590 59025=

48055 32556 32304 10304 20216 40032 83800 333 56500 59008=

48057 32458 52202 10270 20172 85300 333 56600=

48060 32440 32703 10330 20191 40030 83100 333 56500 59005=

48062 32558 41803 10330 20290 40073 70222 84920 333 56490 59008=

48064 32470 30000 10380 20275 40030 82101 333 56909 59025=

48065 32970 20403 10373 20258 80001 333 56009=

48071 32460 33203 10340 20270 40073 82930 333 56990 59010=

48072 32459 80301 10310 20267 70322 86830 333 56990=

48074 32458 42303 10333 20258 40078 83850 333 56440 59008=

48075 32557 51401 10310 20230 40053 85300 333 56500 59015=

48077 32559 42301 10344 20257 40056 83801 333 56409 59016=

48078 32558 31801 10342 20240 40073 82801 333 56509 59017=

48080 32461 62205 10330 20275 40080 84870 333 56590 59006=

48085 32458 73203 10304 20266 40077 85976 333 56599 59003=

48087 32558 62302 10348 20240 70322 83341 333 56599=

48092 32457 62302 10330 20258 40053 86900 333 56500 59025=

48093 32558 62301 10321 20265 86300 333 56500=

48094 32459 63202 10330 20260 40072 85940 333 56690 59013=

48095 32458 42202 10335 20258 70211 82940 333 56990=

48096 32458 72508 10320 20248 40078 85940 333 56990 59019=

48097 32557 73101 10330 20251 40079 86330 333 56990 59017=

48099 21457 43201 10312 20254 40076 70165 83901 333 56709 59014=

48101 32459 72301 10320 20265 70222 85970 333 56590=

48103 21350 82202 10296 20253 40077 72160 8677/ 333 5655/ 59014=

48107 32350 43201 10318 20248 40080 84900 333 56500 59014=

48108 32596 62303 10320 20257 40086 84366 333 56699 59018=

48109 32497 72301 10314 20267 40087 85930 333 56990 59006=

48110 21496 71303 10320 20248 40093 70255 84306 333 56509 59013=

48112 21597 53202 10285 20254 40102 70152 84876 333 56799 59003=  





