



*-*-*


<!--
.style2 {
	font-family:"Courier New", Courier, monospace;
	font-size: 14px;
}
-->






SIBM20 VBRR 280300

AAXX 28034

48001 32450 61801 10260 20215 40066 84750 333 56870 59007=

48004 32356 70901 10284 20233 87900 333 56500=

48008 32558 53201 10268 20240 40063 83930 333 56770 59007=

48010 32556 70000 10268 20240 40052 84770 333 56560 59032=

48018 32558 41402 10295 20253 40051 82842 333 56329 59024=

48019 32460 13202 10310 20254 40049 81200 333 56100 59026=

48020 32350 83602 10270 20240 88700 333 56500=

48025 22430 43601 10290 20248 40070 83840 333 56540 59004=

48030 31256 22202 10210 20175 70544 82800 333 56500=

48031 31260 31401 10230 20143 70544 83800 333 56400=

48033 22562 21801 10320 20248 40035 82500 333 56900 59033=

48034 21356 61802 10204 20200 70196 86300 333 56500=

48035 21557 70000 10251 20219 40059 70522 85960 333 56190 59009=

48037 32958 00401 10301 20239 40050 333 59019=

48039 32460 31401 10320 20268 81102 333 56505=

48042 22557 21804 10325 20253 40049 82200 333 56400 59025=

48043 32654 81805 10240 20226 8587/ 333 56599=

48045 32958 01402 10260 20138 333=

48048 32560 21801 10340 20257 40051 82800 333 56900 59020=

48051 32559 51801 10306 20270 84930 333 56390=

48052 32970 01301 10330 20212 333=

48053 32456 51804 10310 20254 40064 84506 333 56409 59012=

48055 22956 01803 10262 20209 40058 333 59013=

48057 32458 32202 10224 20185 83300 333 56500=

48060 31440 20000 10282 20203 40055 74044 82100 333 56500 59009=

48061 40000 10320 10265 40059 82930 333 56990 59013=

48062 32456 81802 10310 20282 40070 84970 333 56590 59011=

48064 32960 00401 10326 20275 40035 333 59033=

48065 32970 00405 10320 20265 333=

48071 32458 43202 10310 20267 40069 84900 333 56900 59017=

48072 32459 62701 10310 20267 84830 333 56590=

48074 32458 51402 10300 20239 40086 83850 333 56440 59004=

48075 32457 30000 10280 20220 40079 83800 333 56500 59013=

48077 32559 42301 10300 20253 40055 82801 333 56409 59013=

48078 32556 41801 10301 20264 40082 83501 333 56409 59014=

48080 22460 70403 10300 20253 40089 85870 333 56690 59006=

48085 21458 53401 10280 20268 40074 70162 84906 333 56509 58014=

48087 32560 42302 10310 20254 82841 333 56999=

48092 32457 42301 10300 20253 40064 83801 333 56609 59017=

48093 32558 81301 10295 20253 85301 333 56509=

48094 22459 52202 10296 20280 40075 83940 333 56690 59021=

48095 32558 32201 10310 20267 83800 333 56900=

48096 32457 51005 10300 20253 40088 83330 333 56990 59008=

48097 32557 52301 10310 20254 40096 83831 333 56999 59003=

48099 21440 80000 10275 20250 40085 70355 86970 333 56990 59011=

48101 32659 41401 10298 20253 70122 81321 333 56999=

48103 32456 61402 10310 20254 40081 84830 333 56330 59021=

48107 22350 42701 10296 20253 40088 84900 333 56500 59015=

48108 22596 62302 10285 20241 40093 83356 333 56569 59023=

48109 22496 72301 10289 20259 40091 85970 333 56990 59012=

48110 22596 61303 10300 20253 40098 83306 333 56509 59022=

48112 21496 82203 10275 20262 40107 75055 8677/ 333 5659/ 59015=  
SIBM20 VBRR 280300

AAXX 28034

48001 32450 61801 10260 20215 40066 84750 333 56870

59007=

48004 32356 70901 10284 20233 87900 333 56500=

48008 32558 53201 10268 20240 40063 83930 333 56770

59007=

48010 32556 70000 10268 20240 40052 84770 333 56560

59032=

48018 32558 41402 10295 20253 40051 82842 333 56329

59024=

48019 32460 13202 10310 20254 40049 81200 333 56100

59026=

48020 32350 83602 10270 20240 88700 333 56500=

48025 22430 43601 10290 20248 40070 83840 333 56540

59004=

48035 21557 70000 10251 20219 40059 70522 85960 333

56190 59009=

48037 32958 00401 10301 20239 40050 333 59019=

48042 22557 21804 10325 20253 40049 82200 333 56400

59025=

48045 32958 01402 10260 20138 333=

48048 32560 21801 10340 20257 40051 82800 333 56900

59020=

48051 32559 51801 10306 20270 84930 333 56390=

48053 32456 51804 10310 20254 40064 84506 333 56409

59012=

48060 31440 20000 10282 20203 40055 74044 82100 333

56500 59009=

48062 32456 81802 10310 20282 40070 84970 333 56590

59011=

48071 32458 43202 10310 20267 40069 84900 333 56900

59017=

48075 32457 30000 10280 20220 40079 83800 333 56500

59013=

48077 32559 42301 10300 20253 40055 82801 333 56409

59013=

48078 32556 41801 10301 20264 40082 83501 333 56409

59014=

48080 22460 70403 10300 20253 40089 85870 333 56690

59006=

48085 21458 53401 10280 20268 40074 70162 84906 333

56509 58014=

48095 32558 32201 10310 20267 83800 333 56900=

48108 22596 62302 10285 20241 40093 83356 333 56569

59023=

48109 22496 72301 10289 20259 40091 85970 333 56990

59012=

48110 22596 61303 10300 20253 40098 83306 333 56509

59022=

48112 21496 82203 10275 20262 40107 75055 8677/ 333

5659/ 59015=

48030 31256 22202 10210 20175 70544 82800 333 56500=

48072 32459 62701 10310 20267 84830 333 56590=

48087 32560 42302 10310 20254 82841 333 56999=

48099 21440 80000 10275 20250 40085 70355 86970 333

56990 59011=

48101 32659 41401 10298 20253 70122 81321 333 56999=

48103 32456 61402 10310 20254 40081 84830 333 56330

59021=

48057 32458 32202 10224 20185 83300 333 56500=

48094 22459 52202 10296 20280 40075 83940 333 56690

59021=

48097 32557 52301 10310 20254 40096 83831 333 56999

59003=

48031 31260 31401 10230 20143 70544 83800 333 56400=

48033 22562 21801 10320 20248 40035 82500 333 56900

59033=

48034 21356 61802 10204 20200 70196 86300 333 56500=

48039 32460 31401 10320 20268 81102 333 56505=

48043 32654 81805 10240 20226 8587/ 333 56599=

48052 32970 01301 10330 20212 333=

48055 22956 01803 10262 20209 40058 333 59013=

48064 32960 00401 10326 20275 40035 333 59033=

48065 32970 00405 10320 20265 333=

48074 32458 51402 10300 20239 40086 83850 333 56440

59004=

48092 32457 42301 10300 20253 40064 83801 333 56609

59017=

48093 32558 81301 10295 20253 85301 333 56509=

48107 22350 42701 10296 20253 40088 84900 333 56500

59015=  





