



*-*-*


<!--
.style2 {
	font-family:"Courier New", Courier, monospace;
	font-size: 14px;
}
-->






SMBM01 VBRR 280600

AAXX 28064

48001 32450 30901 10225 20181 40175 83200 333 56100

58025=

48004 32560 40401 10250 20167 84900 333 56500=

48008 32557 30000 10270 20191 40168 82230 333 56110

58039=

48010 32560 20000 10270 20191 40159 81101 333 56905

58027=

48018 32559 41401 10285 20196 40169 82846 333 56339

58037=

48019 32560 30423 10285 20184 40160 80002 333 56004

58037=

48020 32460 23204 10265 20203 82800 333 56400=

48025 32440 43201 10253 20186 40182 83840 333 56590

58042=

48035 31560 92203 10266 20172 40133 70500 83860 333

56590 58018=

48037 32560 43201 10288 20196 40164 81151 333 56559

58043=

48042 31556 13102 10317 20214 40145 70511 82802 333

56909 58029=

48045 31340 81804 10187 20159 74144 888// 333 56599=

48048 32560 43601 10300 20207 40159 84800 333 56800

58034=

48051 32560 40401 10280 20200 70122 83220 333 56690=

48053 32456 62202 10320 20236 40165 84856 333 56699

58015=

48060 32340 70000 10230 20181 40125 84970 333 56560

58053=

48062 32456 70402 10276 20250 40159 70322 85970 333

56590 58036=

48071 32458 63202 10303 20223 40150 84870 333 56790

58032=

48075 32457 71401 10250 20205 40161 85850 333 56590

58038=

48077 32559 30000 10300 20239 40146 82901 333 56909

58039=

48078 32559 43201 10307 20230 40151 82231 333 56999

58037=

48080 32461 42203 10330 20258 40140 82870 333 56590

58025=

48085 32458 31403 10332 20234 40141 82801 333 56309

58029=

48095 32460 40000 10315 20237 70311 84800 333 56900=

48108 32596 41403 10320 20215 40125 81406 333 56909

58018=

48109 NIL=

48110 31596 83601 10315 20236 40119 70522 81307 333

56909 58013=

48112 32597 80408 10322 20248 40104 70222 83876 333

56199 58005=

48030 32257 42201 10180 20129 82202 333 56509=

48072 32460 83601 10310 20237 70322 85830 333 56390=

48087 32560 50000 10332 20244 70222 82841 333 56999=

48099 32456 22702 10342 20225 40142 82800 333 56900

58035=

48101 32660 30401 10338 20257 70311 83900 333 56100=

48103 32457 10405 10341 20206 40132 81500 333 56100

58025=

48057 32457 72202 10212 20160 86350 333 56590=

48094 32460 40402 10340 20240 40138 70322 83840 333

56990 58029=

48097 32557 40803 10330 20224 40137 70211 83801 333

56909 58020=

48031 32260 31801 10205 20130 83800 333 56400=

48033 32563 13601 10290 20196 40158 81100 333 56900

58040=

48034 32456 42302 10238 20139 84300 333 56500=

48039 32460 40000 10290 20215 82102 333 56505=

48043 32657 41805 10230 20181 84200 333 56500=

48052 32458 23601 10328 20234 82200 333 56900=

48055 32556 60903 10253 20186 40149 70244 85330 333

56550 58055=

48064 32960 11401 10290 20215 40131 80001 333 56009

58022=

48065 32958 10402 10301 20207 80001 333 56009=

48074 32459 63202 10300 20223 40150 84870 333 56990

58038=

48092 32559 11402 10340 20225 40118 81100 333 56900

58031=

48093 32658 50401 10337 20240 85800 333 56100=

48107 32950 00902 10336 20206 40115 333 58008=

48096 32559 31506 10330 20224 40140 70322 83200 333

56900 58031=  
SMBM01 VBRR 280600

AAXX 28064

48001 32450 30901 10225 20181 40175 83200 333 56100

58025=

48004 32560 40401 10250 20167 84900 333 56500=

48008 32557 30000 10270 20191 40168 82230 333 56110

58039=

48010 32560 20000 10270 20191 40159 81101 333 56905

58027=

48018 32559 41401 10285 20196 40169 82846 333 56339

58037=

48019 32560 30423 10285 20184 40160 80002 333 56004

58037=

48020 32460 23204 10265 20203 82800 333 56400=

48025 32440 43201 10253 20186 40182 83840 333 56590

58042=

48035 31560 92203 10266 20172 40133 70500 83860 333

56590 58018=

48037 32560 43201 10288 20196 40164 81151 333 56559

58043=

48042 31556 13102 10317 20214 40145 70511 82802 333

56909 58029=

48045 31340 81804 10187 20159 74144 888// 333 56599=

48048 32560 43601 10300 20207 40159 84800 333 56800

58034=

48051 32560 40401 10280 20200 70122 83220 333 56690=

48053 32456 62202 10320 20236 40165 84856 333 56699

58015=

48060 32340 70000 10230 20181 40125 84970 333 56560

58053=

48062 32456 70402 10276 20250 40159 70322 85970 333

56590 58036=

48071 32458 63202 10303 20223 40150 84870 333 56790

58032=

48075 32457 71401 10250 20205 40161 85850 333 56590

58038=

48077 32559 30000 10300 20239 40146 82901 333 56909

58039=

48078 32559 43201 10307 20230 40151 82231 333 56999

58037=

48080 32461 42203 10330 20258 40140 82870 333 56590

58025=

48085 32458 31403 10332 20234 40141 82801 333 56309

58029=

48095 32460 40000 10315 20237 70311 84800 333 56900=

48108 32596 41403 10320 20215 40125 81406 333 56909

58018=

48109 NIL=

48110 31596 83601 10315 20236 40119 70522 81307 333

56909 58013=

48112 32597 80408 10322 20248 40104 70222 83876 333

56199 58005=

48030 32257 42201 10180 20129 82202 333 56509=

48072 32460 83601 10310 20237 70322 85830 333 56390=

48087 32560 50000 10332 20244 70222 82841 333 56999=

48099 32456 22702 10342 20225 40142 82800 333 56900

58035=

48101 32660 30401 10338 20257 70311 83900 333 56100=

48103 32457 10405 10341 20206 40132 81500 333 56100

58025=

48057 32457 72202 10212 20160 86350 333 56590=

48094 32460 40402 10340 20240 40138 70322 83840 333

56990 58029=

48097 32557 40803 10330 20224 40137 70211 83801 333

56909 58020=

48031 32260 31801 10205 20130 83800 333 56400=

48033 32563 13601 10290 20196 40158 81100 333 56900

58040=

48034 32456 42302 10238 20139 84300 333 56500=

48039 32460 40000 10290 20215 82102 333 56505=

48043 32657 41805 10230 20181 84200 333 56500=

48052 32458 23601 10328 20234 82200 333 56900=

48055 32556 60903 10253 20186 40149 70244 85330 333

56550 58055=

48064 32960 11401 10290 20215 40131 80001 333 56009

58022=

48065 32958 10402 10301 20207 80001 333 56009=

48074 32459 63202 10300 20223 40150 84870 333 56990

58038=

48092 32559 11402 10340 20225 40118 81100 333 56900

58031=

48093 32658 50401 10337 20240 85800 333 56100=

48107 32950 00902 10336 20206 40115 333 58008=

48096 32559 31506 10330 20224 40140 70322 83200 333

56900 58031=  





