



*-*-*


<!--
.style2 {
	font-family:"Courier New", Courier, monospace;
	font-size: 14px;
}
-->






SMBM01 VBRR 280000 RRA

AAXX 28004

48051 32558 33201 10182 20170 81206 333 20176 56609=

48053 32450 73201 10200 20185 40135 85550 333 20194

56690 58021=

48060 21320 80000 10187 20175 40176 71054 8597/ 333

20158 56599 58024 69902=

48062 31440 30000 10210 20210 40133 71044 82530 333

20185 56990 58022 60002=

48071 32456 53203 10248 20233 40129 82836 333 20220

56799 58016=

48075 32456 70000 10200 20185 40173 85770 333 20195

56590 58029 60002=

48077 21556 70000 10240 20226 40122 70362 85931 333

20218 56999 58021 60042=

48078 21550 80401 10233 20215 40144 70365 8457/ 333

20223 56499 58034 60072=

48080 32456 40000 10215 20205 40131 82870 333 20200

56590 58017=

48085 31456 20902 10222 20220 40125 74044 81830 333

20220 56990 58019=

48108 31593 60000 10220 20205 40126 71022 82406 333

20200 56909 58019=

48110 21595 50000 10250 20226 40114 70522 81406 333

20245 56909 58011=

48112 22597 80406 10268 20240 40100 70222 83876 333

20215 56199 58007 60002=

48099 32340 40000 10233 20214 40127 83870 333 20220

56990 58027=

48103 32440 21403 10231 20198 40134 82800 333 20222

56300 58027=

48057 31440 51401 10160 20144 71022 83831 333 20140

56599=

48094 32456 30000 10240 20230 40123 82940 333 20230

56990 58008=

48097 32556 21301 10235 20228 40125 70211 82500 333

20220 56900 58015=

48092 31456 20000 10230 20222 40109 70522 82500 333

20220 56900 58026=

48093 32650 20401 10241 20226 70111 81101 333 20232

56109=

48107 31930 00902 10223 20205 40124 74144 333 20217

58024 60002=

48096 31440 20304 10230 20214 40132 71022 82500 333

20227 56900 58025=  





