



*-*-*


<!--
.style2 {
	font-family:"Courier New", Courier, monospace;
	font-size: 14px;
}
-->






SIBM20 VBRR 280300

AAXX 28034

48001 32430 20000 10160 20144 40200 81150 333 56550

58042=

48004 31438 40901 10178 20147 70144 84800 333 56500=

48008 32557 50401 10220 20173 40184 83830 333 56870

58033=

48010 NIL=

48018 31557 43201 10200 20185 40185 70244 82846 333

56766 58043=

48019 32458 30401 10216 20185 40156 83800 333 56400

58008=

48020 31357 50000 10190 20175 70144 84830 333 56440=

48025 31005 63602 10200 20185 40183 74244 86800 333

56600 58031=

48035 31550 30402 10209 20160 40165 70544 83800 333

56900 58026=

48037 32550 43601 10208 20195 40170 81501 333 56509

58014=

48042 31540 31801 10263 20215 40156 71011 81202 333

56909 58017=

48045 31556 52203 10172 20154 74144 84830 333 56590=

48048 32560 40401 10240 20191 40170 84800 333 56800

58035=

48051 NIL=

48053 32456 42201 10250 20205 40158 82506 333 56509

58019=

48060 22320 70401 10203 20185 40187 74244 84970 333

56560 58026=

48062 NIL=

48071 NIL=

48075 NIL=

48077 NIL=

48078 NIL=

48080 NIL=

48085 NIL=

48095 NIL=

48108 NIL=

48109 NIL=

48110 NIL=

48112 NIL=

48030 32360 12201 10110 20045 80002 333 56009=

48072 NIL=

48087 NIL=

48099 NIL=

48101 NIL=

48103 NIL=

48057 31456 61402 10194 20175 72822 84301 333 56509=

48094 NIL=

48097 NIL=

48031 32260 41801 10165 20123 84800 333 56400=

48033 32962 02601 10240 20191 40161 333 58028=

48034 32456 62301 10180 20165 86300 333 56500=

48039 31450 43201 10251 20205 74044 82102 333 56509=

48043 32540 81803 10200 20185 8487/ 333 56599=

48052 31450 20000 10254 20205 70522 82200 333 56900=

48055 31545 63601 10170 20154 40194 71044 84930 333

56550 58054=

48064 32456 31401 10220 20185 40151 70311 81131 333

56559 59030=

48065 32456 60402 10240 20191 70322 84831 333 56999=

48074 32458 83201 10250 20203 40165 8487/ 333 56999

58036=

48092 NIL=

48093 NIL=

48107 NIL=

48096 NIL=  
SIBM20 VBRR 280300 RRA

AAXX 28034

48051 32560 53601 10216 20190 83230 333 56690=

48062 32450 40902 10230 20210 40154 82532 333 56969

58022=

48071 32458 73203 10275 20233 40156 84870 333 56790

58025=

48075 21456 70000 10210 20195 40194 70255 85770 333

56590 58045=

48077 22559 70000 10264 20229 40156 85931 333 56999

58038=

48078 22557 53201 10258 20238 40164 82831 333 56449

58033=

48080 32460 30401 10265 20240 40150 82840 333 56990

58032=

48085 32458 21402 10298 20239 40146 81801 333 56909

58026=

48095 32960 00401 10280 20233 333=

48108 32596 50506 10300 20207 40142 81406 333 56909

58022=

48109 22497 60903 10272 20270 40145 84970 333 56990

58019=

48110 31596 83202 10295 20226 40133 70522 81107 333

56909 58017=

48112 22597 80407 10285 20254 40115 84876 333 56199

59007=

48072 32458 70000 10280 20233 85830 333 56390=

48087 32560 60000 10290 20248 82841 333 56999=

48099 31440 30000 10295 20223 40149 70511 82830 333

56990 58030=

48101 32959 03601 10302 20253 333=

48103 32456 10403 10297 20207 40150 81100 333 56100

58023=

48094 32560 00402 10295 20240 40148 333 58022=

48097 31557 31302 10280 20233 40154 70511 82501 333

56909 58025=

48092 32958 01302 10300 20223 40137 333 58028=

48093 32958 00401 10282 20250 80001 333 56009=

48107 31950 00903 10290 20196 40136 7//44 333 58025=

48096 32958 10809 10290 20230 40159 80001 333 56009

58030=  
SIBM20 VBRR 280300

AAXX 28034

48001 32430 20000 10160 20144 40200 81150 333 56550

58042=

48004 31438 40901 10178 20147 70144 84800 333 56500=

48008 32557 50401 10220 20173 40184 83830 333 56870

58033=

48010 NIL=

48018 31557 43201 10200 20185 40185 70244 82846 333

56766 58043=

48019 32458 30401 10216 20185 40156 83800 333 56400

58008=

48020 31357 50000 10190 20175 70144 84830 333 56440=

48025 31005 63602 10200 20185 40183 74244 86800 333

56600 58031=

48035 31550 30402 10209 20160 40165 70544 83800 333

56900 58026=

48037 32550 43601 10208 20195 40170 81501 333 56509

58014=

48042 31540 31801 10263 20215 40156 71011 81202 333

56909 58017=

48045 31556 52203 10172 20154 74144 84830 333 56590=

48048 32560 40401 10240 20191 40170 84800 333 56800

58035=

48051 NIL=

48053 32456 42201 10250 20205 40158 82506 333 56509

58019=

48060 22320 70401 10203 20185 40187 74244 84970 333

56560 58026=

48062 NIL=

48071 NIL=

48075 NIL=

48077 NIL=

48078 NIL=

48080 NIL=

48085 NIL=

48095 NIL=

48108 NIL=

48109 NIL=

48110 NIL=

48112 NIL=

48030 32360 12201 10110 20045 80002 333 56009=

48072 NIL=

48087 NIL=

48099 NIL=

48101 NIL=

48103 NIL=

48057 31456 61402 10194 20175 72822 84301 333 56509=

48094 NIL=

48097 NIL=

48031 32260 41801 10165 20123 84800 333 56400=

48033 32962 02601 10240 20191 40161 333 58028=

48034 32456 62301 10180 20165 86300 333 56500=

48039 31450 43201 10251 20205 74044 82102 333 56509=

48043 32540 81803 10200 20185 8487/ 333 56599=

48052 31450 20000 10254 20205 70522 82200 333 56900=

48055 31545 63601 10170 20154 40194 71044 84930 333

56550 58054=

48064 32456 31401 10220 20185 40151 70311 81131 333

56559 59030=

48065 32456 60402 10240 20191 70322 84831 333 56999=

48074 32458 83201 10250 20203 40165 8487/ 333 56999

58036=

48092 NIL=

48093 NIL=

48107 NIL=

48096 NIL=  





