



*-*-*


<!--
.style2 {
	font-family:"Courier New", Courier, monospace;
	font-size: 14px;
}
-->






SIBM20 VBRR 280300 RRA

AAXX 28034

48051 32559 23602 10268 20240 82500 333 56800=

48062 32457 40401 10293 20260 40148 83830 333 56190

58015=

48071 32456 53202 10290 20259 40143 83830 333 56990

58009=

48075 32457 31401 10220 20185 40175 83200 333 56500

58025=

48077 32959 10401 10284 20233 40138 80001 333 56009

59001=

48078 22557 63201 10266 20243 40157 83831 333 56449

58015=

48080 22960 01302 10276 20250 40143 333 58010=

48085 22957 23202 10280 20250 40135 80006 333 56009

58003=

48095 22458 60000 10290 20248 83602 333 56909=

48108 21596 60902 10280 20255 40145 70244 83356 333

56299 58007=

48109 22496 70000 10268 20240 40141 85970 333 56990

58010=

48110 21596 31801 10310 20254 40143 70522 81136 333

56999 58011=

48112 22597 80403 10295 20250 40126 83876 333 56199

59001=

48072 32460 10401 10300 20253 81200 333 56900=

48087 22560 00000 10290 20259 333=

48099 31440 40402 10290 20259 40155 70144 83830 333

56990 58022=

48101 22759 50000 10298 20253 80035 333 56099=

48103 22456 60403 10301 20253 40148 84732 333 56119

58011=

48094 32457 70000 10285 20255 40150 85940 333 56190

58016=

48097 31557 61502 10295 20234 40154 70522 84506 333

56909 58015=

48092 31558 40901 10300 20246 40131 70522 84400 333

56900 58016=

48093 32658 31401 10307 20254 82101 333 56109=

48107 32350 60000 10278 20250 40137 84970 333 56330

58014=

48096 32558 10405 10290 20243 40158 81100 333 56900

58024=  
SIBM20 VBRR 280300

AAXX 28034

48051 32559 23602 10268 20240 82500 333 56800=

48062 32457 40401 10293 20260 40148 83830 333 56190

58015=

48071 32456 53202 10290 20259 40143 83830 333 56990

58009=

48075 32457 31401 10220 20185 40175 83200 333 56500

58025=

48077 32959 10401 10284 20233 40138 80001 333 56009

59001=

48078 22557 63201 10266 20243 40157 83831 333 56449

58015=

48080 22960 01302 10276 20250 40143 333 58010=

48085 22957 23202 10280 20250 40135 80006 333 56009

58003=

48095 22458 60000 10290 20248 83602 333 56909=

48108 21596 60902 10280 20255 40145 70244 83356 333

56299 58007=

48109 22496 70000 10268 20240 40141 85970 333 56990

58010=

48110 21596 31801 10310 20254 40143 70522 81136 333

56999 58011=

48112 22597 80403 10295 20250 40126 83876 333 56199

59001=

48072 32460 10401 10300 20253 81200 333 56900=

48087 22560 00000 10290 20259 333=

48099 31440 40402 10290 20259 40155 70144 83830 333

56990 58022=

48101 22759 50000 10298 20253 80035 333 56099=

48103 22456 60403 10301 20253 40148 84732 333 56119

58011=

48094 32457 70000 10285 20255 40150 85940 333 56190

58016=

48097 31557 61502 10295 20234 40154 70522 84506 333

56909 58015=

48092 31558 40901 10300 20246 40131 70522 84400 333

56900 58016=

48093 32658 31401 10307 20254 82101 333 56109=

48107 32350 60000 10278 20250 40137 84970 333 56330

58014=

48096 32558 10405 10290 20243 40158 81100 333 56900

58024=  





