



*-*-*


<!--
.style2 {
	font-family:"Courier New", Courier, monospace;
	font-size: 14px;
}
-->






SMBM01 VBRR 281200

AAXX 28124

48001 32420 20000 10255 20246 40120 82800 333 10295

56500 58006 60002=

48004 32448 40000 10264 20229 84800 333 10325 56900

60002=

48008 32556 50000 10274 20226 40122 81431 333 10322

56456 58003 60002=

48010 32540 30000 10280 20233 40118 82830 333 10330

56540 58011 60002=

48018 32558 40000 10290 20230 40123 82832 333 10330

56566 58009 60002=

48019 32960 00000 10273 20226 40121 333 10332 58009

60002=

48020 32430 20000 10280 20250 82500 333 10332 56400

60002=

48025 32458 52702 10284 20233 40123 84840 333 10317

56490 58002 60002=

48035 32510 10000 10250 20186 40114 81100 333 10304

56900 58009 60002=

48037 32530 30000 10300 20223 40111 81130 333 10335

56990 58006 60002=

48042 32557 10000 10302 20223 40109 81400 333 10343

56900 58016 60002=

48045 31220 80404 10193 20175 74044 8637/ 333 10244

56189 60002=

48048 32550 30401 10296 20239 40109 83800 333 10350

56900 58009 60002=

48051 NIL=

48053 32550 30000 10290 20215 40111 82550 333 10350

56890 58013 60002=

48060 32420 60000 10248 20205 40108 84830 333 10280

56390 58009 60002=

48062 NIL=

48071 NIL=

48075 NIL=

48077 NIL=

48078 NIL=

48080 NIL=

48085 NIL=

48095 NIL=

48108 NIL=

48109 NIL=

48110 NIL=

48112 NIL=

48030 32130 80401 10178 20165 8694/ 333 10215 56189

60002=

48072 NIL=

48087 NIL=

48099 NIL=

48101 NIL=

48103 NIL=

48057 21450 70000 10204 20168 70355 85950 333 10265

56500 69902=

48094 NIL=

48097 NIL=

48031 32257 70000 10180 20165 87800 333 10245 56900

60002=

48033 32959 03601 10290 20230 40099 333 10340 58000

60002=

48034 32456 30402 10218 20101 83800 333 10297 56500

60002=

48039 32459 33201 10298 20239 83800 333 10345 56700

60002=

48043 NIL=

48052 32450 20000 10334 20258 82200 333 10376 56900

60002=

48055 32556 70000 10218 20202 40129 84941 333 10300

56559 58018 60002=

48064 32950 40000 10290 20248 40100 82231 333 10350

56099 58001 60002=

48065 32450 30000 10295 20239 82801 333 10350 56909

60002=

48074 NIL=

48092 NIL=

48093 NIL=

48107 NIL=

48096 NIL=  
SMBM01 VBRR 281200 RRA

AAXX 28124

48051 32559 20000 10310 20270 81401 333 10345 56909=

48062 32456 52701 10310 20280 40112 83832 333 10335

56699 58005=

48071 32950 23201 10298 20253 40114 80006 333 10325

56009 58008=

48075 31456 70000 10240 20226 40129 70399 85960 333

10280 56590 58015=

48077 32556 40000 10300 20253 40104 83901 333 10354

56909 58005=

48078 21550 61401 10269 20240 40122 75095 84933 333

10330 56499 58017 69902=

48080 32456 40404 10300 20253 40114 83970 333 10346

56390 58000=

48085 32456 50402 10286 20259 40113 81856 333 10313

56999 58005=

48095 32556 60000 10280 20268 83870 333 10327 56990=

48108 32595 63201 10295 20263 40108 84336 333 10345

56999 58002=

48109 32496 50000 10294 20274 40109 84930 333 10325

56990 58000=

48110 21595 80000 10280 20250 40109 70299 82907 333

10355 56909 58000 60112=

48112 21597 80407 10280 20250 40106 70152 84876 333

10322 56199 58016 60022=

48072 32456 20000 10300 20266 82300 333 10337 56400=

48087 32550 40000 10290 20259 82841 333 10336 56999=

48099 31330 33202 10300 20253 40106 71311 83900 333

10347 56700 58010=

48101 32650 63201 10283 20250 82771 333 10345 56999=

48103 32330 53202 10299 20266 40112 85930 333 10352

56770 58009=

48097 32557 31402 10290 22545 40122 82501 333 10340

56909 58010=

48092 32457 30000 10300 20266 40094 83800 333 10340

56900 58006=

48093 32650 40401 10304 20253 82841 333 10345 56399=

48107 21330 60402 10254 20233 40110 70196 84970 333

10340 56330 58009 60102=

48096 32557 40304 10300 20253 40120 82531 333 10340

56999 58013=  
SMBM01 VBRR 281200

AAXX 28124

48001 32420 20000 10255 20246 40120 82800 333 10295

56500 58006 60002=

48004 32448 40000 10264 20229 84800 333 10325 56900

60002=

48008 32556 50000 10274 20226 40122 81431 333 10322

56456 58003 60002=

48010 32540 30000 10280 20233 40118 82830 333 10330

56540 58011 60002=

48018 32558 40000 10290 20230 40123 82832 333 10330

56566 58009 60002=

48019 32960 00000 10273 20226 40121 333 10332 58009

60002=

48020 32430 20000 10280 20250 82500 333 10332 56400

60002=

48025 32458 52702 10284 20233 40123 84840 333 10317

56490 58002 60002=

48035 32510 10000 10250 20186 40114 81100 333 10304

56900 58009 60002=

48037 32530 30000 10300 20223 40111 81130 333 10335

56990 58006 60002=

48042 32557 10000 10302 20223 40109 81400 333 10343

56900 58016 60002=

48045 31220 80404 10193 20175 74044 8637/ 333 10244

56189 60002=

48048 32550 30401 10296 20239 40109 83800 333 10350

56900 58009 60002=

48051 NIL=

48053 32550 30000 10290 20215 40111 82550 333 10350

56890 58013 60002=

48060 32420 60000 10248 20205 40108 84830 333 10280

56390 58009 60002=

48062 NIL=

48071 NIL=

48075 NIL=

48077 NIL=

48078 NIL=

48080 NIL=

48085 NIL=

48095 NIL=

48108 NIL=

48109 NIL=

48110 NIL=

48112 NIL=

48030 32130 80401 10178 20165 8694/ 333 10215 56189

60002=

48072 NIL=

48087 NIL=

48099 NIL=

48101 NIL=

48103 NIL=

48057 21450 70000 10204 20168 70355 85950 333 10265

56500 69902=

48094 NIL=

48097 NIL=

48031 32257 70000 10180 20165 87800 333 10245 56900

60002=

48033 32959 03601 10290 20230 40099 333 10340 58000

60002=

48034 32456 30402 10218 20101 83800 333 10297 56500

60002=

48039 32459 33201 10298 20239 83800 333 10345 56700

60002=

48043 NIL=

48052 32450 20000 10334 20258 82200 333 10376 56900

60002=

48055 32556 70000 10218 20202 40129 84941 333 10300

56559 58018 60002=

48064 32950 40000 10290 20248 40100 82231 333 10350

56099 58001 60002=

48065 32450 30000 10295 20239 82801 333 10350 56909

60002=

48074 NIL=

48092 NIL=

48093 NIL=

48107 NIL=

48096 NIL=  





