



*-*-*


<!--
.style2 {
	font-family:"Courier New", Courier, monospace;
	font-size: 14px;
}
-->






SMBM01 VBRR 291800 RRA

AAXX 29184

48008 21410 83202 10240 20209 40085 79596 8697/ 333 5645/ 59005=

48010 21501 60000 10220 20220 40081 70295 86500 333 56500 59004=

48018 21520 82202 10250 20209 40106 79596 8497/ 333 5655/ 59008=

48025 32905 01401 10272 20211 40098 333 59013=

48042 22550 30000 10270 20226 40083 82850 333 56590 59003=

48053 32540 70000 10280 20203 40079 83956 333 56599 59012=

48057 32439 62303 10202 20150 84350 333 56690=

48060 21320 73202 10215 20190 40087 70362 84970 333 56690 59016=

48062 NIL=

48071 32930 03202 10270 20240 40098 333 58002=

48078 NIL=

48080 32940 02202 10273 20240 40121 333 58004=

48094 32450 20000 10270 20240 40092 82900 333 56900 59004=

48097 32956 02301 10280 20233 40108 333 59009=

48099 32440 32302 10280 20220 40095 82830 333 56990 58000=

48103 32510 23201 10278 20233 40092 82500 333 56700 59000=

48108 32596 63201 10260 20229 40113 83366 333 56999 58002=

48109 32495 40000 10286 20259 40094 84900 333 56900 59008=

48110 21595 60000 10255 20247 40110 70299 82306 333 56909 59005=

48112 21597 70402 10271 20240 40106 83876 333 56199 58010=





  
SMBM01 VBRR 291800 RRA

AAXX 29184
48008 21410 83202 10240 20209 40085 79596 8697/ 333 5645/ 59005=
48010 21501 60000 10220 20220 40081 70295 86500 333 56500 59004=
48018 21520 82202 10250 20209 40106 79596 8497/ 333 5655/ 59008=
48025 32905 01401 10272 20211 40098 333 59013=
48042 22550 30000 10270 20226 40083 82850 333 56590 59003=
48053 32540 70000 10280 20203 40079 83956 333 56599 59012=
48057 32439 62303 10202 20150 84350 333 56690=
48060 21320 73202 10215 20190 40087 70362 84970 333 56690 59016=
48062 NIL=
48071 32930 03202 10270 20240 40098 333 58002=
48078 NIL=
48080 32940 02202 10273 20240 40121 333 58004=
48094 32450 20000 10270 20240 40092 82900 333 56900 59004=
48097 32956 02301 10280 20233 40108 333 59009=
48099 32440 32302 10280 20220 40095 82830 333 56990 58000=
48103 32510 23201 10278 20233 40092 82500 333 56700 59000=
48108 32596 63201 10260 20229 40113 83366 333 56999 58002=
48109 32495 40000 10286 20259 40094 84900 333 56900 59008=
48110 21595 60000 10255 20247 40110 70299 82306 333 56909 59005=
48112 21597 70402 10271 20240 40106 83876 333 56199 58010=  





