



*-*-*


<!--
.style2 {
	font-family:"Courier New", Courier, monospace;
	font-size: 14px;
}
-->






SMBM01 VBRR 291200

AAXX 29124

48001 NIL=

48004 32450 60000 10203 20168 82800 333 10239 56900

60002=

48008 32550 20000 10226 20163 40141 81430 333 10265

56450 59018 60002=

48010 32520 30000 10215 20185 40137 82440 333 10257

56990 59016 60002=

48018 31530 50000 10210 20128 40136 71044 82462 333

10275 56139 59009 60002=

48019 32430 20000 10230 20181 40133 82200 333 10280

56500 59040 60002=

48020 32350 30000 10215 20160 82201 333 10255 56509

60002=

48025 32310 30000 10219 20156 40146 83400 333 10249

56900 59011 60002=

48035 31510 20000 10203 20150 40109 70511 82800 333

10262 56900 59021 60002=

48037 32530 10000 10245 20174 40129 81100 333 10285

56900 58013 60002=

48042 31540 20000 10250 20186 40125 70511 81402 333

10295 56909 59007 60002=

48045 32550 61402 10145 20134 84806 333 10194 56309

60002=

48048 31550 23201 10240 20191 40126 71044 82800 333

10300 56900 59006 60002=

48051 32958 30000 10220 20190 80006 333 10270 56009=

48053 32950 23602 10260 20160 40126 80006 333 10315

56009 59010 60002=

48060 32430 52201 10222 20156 40139 82132 333 10280

56556 59015 60002=

48062 31450 53202 10230 20210 40145 71011 84830 333

10270 56990 59016=

48071 NIL=

48075 32456 20000 10230 20143 40122 82500 333 10280

56500 59027=

48077 32956 22302 10280 20158 40119 80001 333 10330

56009 59016=

48078 32556 20000 10288 20215 40133 81501 333 10335

56909 59014=

48080 32456 30000 10250 20205 40143 82506 333 10302

56909 59010=

48085 32956 23604 10255 20205 40137 80076 333 10300

56099 59013=

48095 32950 00401 10270 20240 333 10330=

48108 NIL=

48109 32496 40000 10295 20253 40142 82901 333 10340

56909 59017=

48110 31596 40000 10295 20242 40127 70522 82305 333

10330 56309 59014=

48112 32597 80403 10290 20259 40120 83876 333 10322

56199 59020=

48030 32256 60401 10120 20102 84840 333 10194 56180

60002=

48072 31556 10000 10230 20198 70522 81200 333 10290

56900=

48087 32940 00000 10260 20203 333 10345=

48099 31330 42701 10296 20223 40128 70511 84800 333

10355 56900 59009=

48101 32650 10000 10270 20226 81200 333 10333 56900=

48103 32440 12201 10287 20230 40133 81500 333 10353

56500 59011=

48057 32450 22202 10184 20108 81500 333 10238 56609

60002=

48094 32456 20000 10275 20210 40139 82500 333 10330

56900 59013=

48097 32556 40401 10270 20226 40144 83510 333 10342

56990 59011=

48031 32257 32201 10120 20081 83800 333 10195 56400

60002=

48033 32959 03601 10250 20186 40119 333 10290 58010

60002=

48034 32456 20000 10163 20085 82500 333 10238 56500

60002=

48039 32450 40000 10240 20191 82402 333 10290 56909

60002=

48043 32010 00000 10170 20135 333 10228 60002=

48052 31450 33601 10272 20211 70522 83600 333 10322

56900 60002=

48055 32556 12307 10228 20163 40118 81500 333 10288

56500 59003=

48064 32950 20000 10226 20181 40122 80001 333 10255

56009 59006 60002=

48065 32450 20000 10240 20174 82600 333 10305 56900

60002=

48074 32457 20000 10270 20211 40131 82500 333 10331

56900 59011 60002=

48092 31456 30000 10285 20225 40113 70522 82801 333

10355 56909 59014=

48093 32530 32302 10278 20220 83100 333 10339 56100=

48107 32330 40000 10290 20259 40126 84900 333 10350

56300 59010=

48096 32557 22903 10290 20215 40146 82100 333 10330

56900 59004=  





