



*-*-*


<!--
.style2 {
	font-family:"Courier New", Courier, monospace;
	font-size: 14px;
}
-->






SMBM01 VBRR 290000 RRD

AAXX 29004

48053 31540 33601 10160 20144 40156 71011 82550 333

20156 56990 59015=

48060 31410 60000 10144 20140 40185 71044 82132 333

20135 56566 59024=

48062 31420 40000 10150 20150 40169 74044 83830 333

20135 56990 59010=

48071 31440 23201 10200 20168 40168 71000 82800 333

20192 56700 59009=

48075 31456 30000 10140 20124 40194 70144 82501 333

20130 56509 59030=

48077 32956 10000 10200 20168 40153 80001 333 20186

56009 59012=

48080 31956 00000 10153 20134 40163 71000 333 20141

59009=

48085 31930 11401 10170 20166 40159 71044 80006 333

20168 56009 59005=

48108 31992 20000 10207 20198 40164 74011 80001 333

20187 56009 59003=

48109 31496 20000 10243 20226 40161 71022 82900 333

20198 56900 59003=

48110 31991 31802 10230 20222 40164 74244 80006 333

20225 56009 58002=

48112 32598 60402 10260 20246 40150 82216 333 20205

56199 59005=

48087 48092 32450 10000 10190 20175 40150 81500 333

20184 56900 58003=

48103 32440 10401 10223 20205 40159 81500 333 20220

56100 59007=

48057 31440 31402 10144 20124 71011 81501 333 20134

56509=

48094 31950 00000 10215 20205 40162 71000 333 20208

59002=

48097 32557 21801 10205 20190 40163 82500 333 20185

56900 59004=

48043 31010 00000 10140 20124 71044 333 20095=

48052 31320 40802 10132 20113 74422 84600 333 20125

56900=

48055 31530 11801 10057 20055 40206 71011 81500 333

20054 56500 59026=

48064 32950 02301 10150 20134 40145 333 20105 59021=

48065 31950 40000 10152 20147 71022 82670 333 20120

56990=

48074 32957 00000 10190 20175 40155 333 20185 59019=

48093 32940 00000 10210 20195 333 20204=

48107 31330 60000 10235 20226 40155 74144 84970 333

20230 56330 59003=

48096 32956 03102 10210 20195 40167 333 20200 59005=  
SMBM01 VBRR 290000 RRD

AAXX 29004

48053 31540 33601 10160 20144 40156 71011 82550 333

20156 56990 59015=

48060 31410 60000 10144 20140 40185 71044 82132 333

20135 56566 59024=

48062 31420 40000 10150 20150 40169 74044 83830 333

20135 56990 59010=

48071 31440 23201 10200 20168 40168 71000 82800 333

20192 56700 59009=

48075 31456 30000 10140 20124 40194 70144 82501 333

20130 56509 59030=

48077 32956 10000 10200 20168 40153 80001 333 20186

56009 59012=

48080 31956 00000 10153 20134 40163 71000 333 20141

59009=

48085 31930 11401 10170 20166 40159 71044 80006 333

20168 56009 59005=

48108 31992 20000 10207 20198 40164 74011 80001 333

20187 56009 59003=

48109 31496 20000 10243 20226 40161 71022 82900 333

20198 56900 59003=

48110 31991 31802 10230 20222 40164 74244 80006 333

20225 56009 58002=

48112 32598 60402 10260 20246 40150 82216 333 20205

56199 59005=

48087 48092 32450 10000 10190 20175 40150 81500 333

20184 56900 58003=

48103 32440 10401 10223 20205 40159 81500 333 20220

56100 59007=

48057 31440 31402 10144 20124 71011 81501 333 20134

56509=

48094 31950 00000 10215 20205 40162 71000 333 20208

59002=

48097 32557 21801 10205 20190 40163 82500 333 20185

56900 59004=

48043 31010 00000 10140 20124 71044 333 20095=

48052 31320 40802 10132 20113 74422 84600 333 20125

56900=

48055 31530 11801 10057 20055 40206 71011 81500 333

20054 56500 59026=

48064 32950 02301 10150 20134 40145 333 20105 59021=

48065 31950 40000 10152 20147 71022 82670 333 20120

56990=

48074 32957 00000 10190 20175 40155 333 20185 59019=

48093 32940 00000 10210 20195 333 20204=

48107 31330 60000 10235 20226 40155 74144 84970 333

20230 56330 59003=

48096 32956 03102 10210 20195 40167 333 20200 59005=  





