



*-*-*


<!--
.style2 {
	font-family:"Courier New", Courier, monospace;
	font-size: 14px;
}
-->






SMBM01 VBRR 290000

AAXX 29004

48001 NIL=

48004 NIL=

48008 31550 30000 10135 20130 40138 71044 82430 333

20120 56190 59009=

48010 32520 20000 10145 20145 40142 81440 333 20140

56990 59002=

48018 32956 90000 10140 20124 40132 333 20135 59002=

48019 32940 00000 10126 20113 40134 333 20120 58000=

48020 NIL=

48025 31110 12301 10164 20144 40142 74044 82600 333

20156 56600 59003=

48035 31/01 90000 10063 20060 40179 74744 333 20056

58007=

48037 32920 00000 10160 20144 40126 333 20154 58007=

48042 32956 00000 10165 20144 40127 333 20152 59006=

48045 NIL=

48048 32940 00000 10155 20123 40127 333 20128 59003=

48051 NIL=

48053 31940 02701 10150 20150 40129 333 20150 59001=

48060 31910 00000 10100 20068 40173 71022 333 20075

59007=

48062 31530 20401 10180 20180 40128 74244 82500 333

20150 56900 58008=

48071 31940 00000 10175 20155 40130 74244 333 20170

58005=

48075 31956 00000 10110 20110 40191 71022 333 20105

58009=

48077 31956 00000 10180 20155 40118 71000 333 20150

58003=

48078 NIL=

48080 NIL=

48085 31930 01401 10142 20140 40116 74244 333 20140

59003=

48095 NIL=

48108 31593 50000 10165 20152 40121 74244 81406 333

20158 56909 58002=

48109 31996 00000 10202 20185 40126 71022 333 20195

58004=

48110 31992 20000 10220 20205 40115 74244 80005 333

20215 56009 58003=

48112 32597 80402 10238 20209 40116 83876 333 20199

56199 59004=

48030 32950 02202 10040 20015 333 20028=

48072 NIL=

48087 NIL=

48099 31330 10401 10170 20154 40127 74044 81500 333

20152 56900 59009=

48101 NIL=

48103 NIL=

48057 31939 00000 10104 20079 71000 80000 333 20090

56000=

48094 32940 00000 10180 20170 71000 333 20150 59009=

48097 32530 41401 10180 20168 40140 71011 84500 333

20175 56900 58013=

48031 31956 00402 10111 20045 333 20102=

48033 31960 00000 10150 20124 40139 333 20130 58004=

48034 31948 00000 10068 20056 71000 333 20057=

48039 31540 30000 10156 20144 71011 83400 333 20155

56900=

48043 32051 00000 10095 20056 333 20051=

48052 32950 00000 10158 20144 333 20092=

48055 31948 00000 10053 20051 40193 74044 333 20051

58013=

48064 32950 01401 10160 20144 40104 333 20125 58002=

48065 32950 00000 10155 20150 333 20145=

48074 32950 00402 10192 20139 40124 333 20179 59003=

48092 31910 00000 10150 20142 40110 74044 333 20140

58004=

48093 32920 00000 10170 20154 80000 333 20169 56000=

48107 NIL=  
SIBM20 VBRR 290054

AAXX 29004

48001 NIL=

48004 NIL=

48008 31550 30000 10135 20130 40138 71044 82430 333 20120 56190 59009=

48010 32520 20000 10145 20145 40142 81440 333 20140 56990 59002=

48018 32956 90000 10140 20124 40132 333 20135 59002=

48019 32940 00000 10126 20113 40134 333 20120 58000=

48020 NIL=

48025 31110 12301 10164 20144 40142 74044 82600 333 20156 56600 59003=

48030 32950 02202 10040 20015 333 20028=

48031 31956 00402 10111 20045 333 20102=

48033 31960 00000 10150 20124 40139 333 20130 58004=

48034 31948 00000 10068 20056 71000 333 20057=

48035 31/01 90000 10063 20060 40179 74744 333 20056 58007=

48037 32920 00000 10160 20144 40126 333 20154 58007=

48039 31540 30000 10156 20144 71011 83400 333 20155 56900=

48042 32956 00000 10165 20144 40127 333 20152 59006=

48043 32056 00000 10095 20056 333 20051=

48045 NIL=

48048 32940 00000 10155 20123 40127 333 20128 59003=

48051 NIL=

48052 32950 00000 10158 20144 333 20092=

48053 31940 02701 10150 20150 40129 333 20150 59001=

48055 31948 00000 10053 20051 40193 74044 333 20051 58013=

48057 31939 00000 10104 20079 71000 80000 333 20090 56000=

48060 31910 00000 10100 20068 40173 71022 333 20075 59007=

48062 31530 20401 10180 20180 40128 74244 82500 333 20150 56900 58008=

48064 32950 01401 10160 20144 40104 333 20125 58002=

48065 32950 00000 10155 20150 333 20145= 

48071 31940 00000 10175 20155 40130 74244 333 20170 58005=

48072 NIL=

48074 32950 00402 10192 20139 40124 333 20179 59003=

48075 31956 00000 10110 20110 40191 71022 333 20105 58009=

48077 31956 00000 10180 20155 40118 71000 333 20150 58003=

48078 NIL=

48080 NIL=

48085 31930 01401 10142 20140 40116 74244 333 20140 59003=

48087 NIL=

48092 31910 00000 10150 20142 40110 74044 333 20140 58004=

48093 32920 00000 10170 20154 80000 333 20169 56000=

48094 32940 00000 10180 20170 71000 333 20150 59009=

48095 NIL=

48097 32530 41401 10180 20168 40140 71011 84500 333 20175 56900 58013=

48099 31330 10401 10170 20154 40127 74044 81500 333 20152 56900 59009=

48101 NIL=

48103 NIL=

48107 NIL=

48108 31593 50000 10165 20152 40121 74244 81406 333 20158 56909 58002=

48109 31996 00000 10202 20185 40126 71022 333 20195 58004=

48110 31992 20000 10220 20205 40115 74244 80005 333 20215 56009 58003=

48112 32597 80402 10238 20209 40116 83876 333 20199 56199 59004=  





