



*-*-*


<!--
.style2 {
	font-family:"Courier New", Courier, monospace;
	font-size: 14px;
}
-->






SIBM20 VBRR 290900

AAXX 29094

48001 32450 62301 10240 20155 40126 86800 333 56100

58023=

48004 32562 33201 10275 20184 83300 333 56500=

48008 32558 22301 10082 20146 40126 81430 333 56560

58009=

48010 32560 21801 10290 20196 40120 82800 333 56100

58009=

48018 32560 20402 10290 20179 40118 70211 82800 333

56900 58008=

48019 32560 13201 10284 20158 40126 80009 333 56004

58012=

48020 NIL=

48025 32958 00401 10284 20158 40126 333 58013=

48035 31960 02202 10267 20085 40092 70500 333 58010=

48037 32060 03201 10321 20184 40124 333 58021=

48042 32958 03602 10310 20146 333 58002=

48045 32560 11404 10228 20097 81100 333 56600=

48048 32962 00901 10315 20163 40126 333 58018=

48051 32960 00401 10330 20170 333=

48053 32956 03602 10320 20116 40102 333 58007=

48060 32940 00000 10268 20085 40106 333 58016=

48062 32960 02703 10320 20270 40117 333 58008=

48071 31960 03203 10275 20220 40118 70500 333 58005=

48075 32958 00000 10295 20120 40089 333 58010=

48077 32959 00000 10340 20145 40108 333 58012=

48078 32958 11801 10326 20156 40122 80001 333 56009

58017=

48080 32960 02205 10320 20248 40102 333 58005=

48085 32958 03204 10305 20207 40110 333 58008=

48095 32960 02201 10330 20172 333=

48108 32596 43203 10345 20218 40097 82406 333 56909

58005=

48109 32997 00401 10306 20237 40118 333 58003=

48110 31596 31802 10350 20237 40099 70511 82305 333

56909 58004=

48112 NIL=

48030 32356 12202 10217 29023 81100 333 56500=

48072 32960 02701 10310 20254 333=

48087 NIL=

48099 32558 32302 10340 20164 40104 82800 333 56500

59011=

48101 32960 00000 10315 20163 333=

48103 32957 00401 10334 20172 40097 333 59001=

48057 32957 02202 10250 20068 333=

48094 32960 00401 10335 20165 40112 333 58008=

48097 32957 01303 10335 20168 40128 333 58018=

48031 32960 01801 10230 20011 333=

48033 32963 03201 10320 20163 40112 333 58008=

48034 32458 21802 10267 20099 81530 333 56550=

48039 32960 00401 10300 20149 333=

48043 32057 02705 10255 20138 333=

48052 32970 00403 10332 20172 333=

48055 32956 00000 10273 20113 40088 333 58012=

48064 32970 00000 10300 20207 40086 333 59004=

48065 32970 02305 10329 20151 333=

48074 32960 01802 10335 20164 40108 333 58009=

48092 32958 00901 10330 20116 40093 333 58003=

48093 32958 03201 10327 20126 70211 333=

48107 32950 00401 10330 20172 40093 333 58006=  





