



*-*-*


<!--
.style2 {
	font-family:"Courier New", Courier, monospace;
	font-size: 14px;
}
-->






SMBM01 VBRR 291200

AAXX 29124

48001 NIL=

48004 32460 40000 10242 20209 84300 333 10280 56500=

48008 31540 30000 10245 20167 40124 71044 81430 333 10290 56660 59001=

48010 32550 20000 10253 20219 40121 82800 333 10292 56700 58004=

48018 31956 01401 10245 20186 40110 71744 333 10292 59001=

48019 32940 00000 10244 20214 40118 333 10285 59013=

48020 31940 00000 10255 20203 333 10290=

48025 32458 13201 10268 20154 40119 81500 333 10289 56900 58011=

48030 32256 12204 10164 20106 81100 333 10230 56500=

48031 32962 01801 10166 20074 333 10235= 

48033 32962 10000 10290 20215 40122 80001 333 10330 56009 58012=

48034 32956 00000 10208 20091 333 10275=

48035 31956 01801 10201 20109 40113 70500 333 10270 58011=

48037 32940 00000 10290 20196 40097 333 10330 59000=

48039 32460 23201 10272 20133 82400 333 10315 56900=

48042 32557 10000 10275 20158 40096 81400 333 10313 56900 59011=

48043 32010 00000 10205 20120 333 10255=

48045 32950 01402 10198 20109 333 10240=

48048 32950 00901 10288 20196 40110 333 10320 58007=

48051 32958 00000 10288 20200 70200 333 10336=

48052 32950 00000 10322 20200 333 10345= 

48053 32950 00000 10270 20154 40109 333 10320 58007=

48055 32956 00403 10232 20163 40107 333 10287 58007=

48057 32950 01401 10208 20091 333 10255 56000=

48060 32920 00000 10217 20111 40117 333 10277 59003=

48062 31950 02701 10270 20240 40140 70500 333 10323 58007=

48064 32950 00000 10260 20179 40095 333 10320 58006=

48065 32950 00000 10278 20191 333 10335=

48071 31956 02702 10258 20215 40123 70500 333 10280 58010=

48072 32956 03201 10255 20240 333 10330=

48074 32956 00000 10280 20184 40117 333 10337 58005=

48075 31956 00000 10240 20160 40127 70500 333 10295 56000 58023=

48077 32956 00000 10300 20166 40104 333 10342 58011=

48078 32940 10000 10282 20171 40113 80001 333 10330 56009 58003=

48080 32958 00000 10275 20220 40118 333 10325 58008=

48085 32956 03203 10275 20191 40114 333 10310 58006=

48087 32930 00000 10260 20203 333 10334=

48092 31556 10000 10270 20113 40092 70500 81400 333 10335 56900 58006=

48093 32940 00401 10290 20159 70211 333 10327 56000=

48094 32956 00000 10280 20200 40121 333 10340 58014=

48095 32956 00000 10280 20184 333 10330 56000=

48096 32058 03502 10290 20159 40117 333 10325 58006=

48097 32556 22302 10260 20191 40125 82500 333 10344 56900 58004=

48099 32440 20000 10276 20203 40099 82500 333 10325 56900 59001=

48101 32950 00000 10262 20203 333 10320=

48103 32950 00401 10288 20196 40102 333 10337 59001=

48107 32930 03601 10270 20211 40104 333 10340 58005=

48108 32596 53201 10295 20211 40113 82406 333 10350 56909 58010=

48109 32996 00401 10280 20233 40121 70222 333 10317 56000 58004=

48110 31595 33603 10285 20254 40105 70522 81306 333 10350 56909 58002=

48112 32598 60402 10297 20207 40100 70122 82216 333 10325 56199 58003=  





