



*-*-*


<!--
.style2 {
	font-family:"Courier New", Courier, monospace;
	font-size: 14px;
}
-->






SIBM20 VBRR 290900

AAXX 29094

48001 NIL=

48004 32560 40401 10344 20240 84900 333 56500=

48008 32456 62301 10348 20237 40029 83970 333 56560

59002=

48010 NIL=

48018 21558 72201 10265 20229 40060 79595 8497/ 333

56559 58038=

48019 32460 52701 10366 20274 40029 83760 333 56660

58004=

48020 32358 40402 10380 20275 84600 333 56800=

48025 32456 41801 10389 20233 40023 83840 333 56590

58007=

48035 31558 72203 10299 20207 40022 70522 88960 333

56790 58006=

48037 32560 22201 10375 20255 40034 82100 333 56600

58024=

48042 32558 21801 10387 20253 40017 82200 333 56400

58002=

48045 32556 71803 10265 20172 87300 333 56500=

48048 32560 42201 10410 20240 40018 84800 333 56400

58001=

48051 31559 50404 10351 20270 71799 84930 333 56690=

48053 32456 41802 10380 20255 40022 82856 333 56599

58003=

48060 32450 30000 10340 20184 40006 70222 83100 333

56500 58002=

48062 32558 52308 10320 20300 40070 70322 84932 333

56599 58018=

48071 32460 62305 10330 20258 40063 84970 333 56990

58010=

48075 32457 51401 10330 20230 40020 70222 83360 333

56590 59019=

48077 32559 62301 10360 20264 40043 85901 333 56409

58019=

48078 32560 41801 10357 20243 40050 83301 333 56409

58005=

48080 32460 42212 10331 20258 40066 83830 333 56690

59001=

48085 31457 73203 10304 20266 40064 70295 85970 333

56690 58006=

48095 NIL=

48108 21494 82302 10265 20258 40084 79596 8497/ 333

5669/ 58010=

48109 NIL=

48110 21596 63203 10325 20253 40083 70295 83306 333

56509 58004=

48112 32598 61402 10330 20258 40084 70122 82216 333

56399 59001=

48030 31256 52202 10267 20172 70544 88900 333 56500=

48072 21460 42704 10310 20254 75096 82930 333 56590=

48087 NIL=

48099 31450 72302 10313 20254 40059 71799 85930 333

56590 58002=

48101 32559 52302 10312 20254 70122 83330 333 56990=

48103 32457 52203 10312 20254 40064 83730 333 56550

58005=

48057 31460 41401 10260 20179 71799 83901 333 56909=

48094 21457 82202 10276 20270 40066 79596 86930 333

56690 58011=

48097 21557 81302 10290 20266 40068 70296 8633/ 333

5699/ 58011=

48031 31260 60401 10290 20140 70544 86800 333 56400=

48033 32563 32701 10370 20274 40018 83800 333 56400

58002=

48034 32457 62302 10298 20207 86300 333 56500=

48039 32460 23201 10369 20248 82100 333 56700=

48043 32658 11806 10300 20223 81200 333 56500=

48052 32470 22201 10420 20226 82200 333 56900=

48055 NIL=

48064 32560 31401 10398 20306 40012 82801 333 56409

58014=

48065 32450 60405 10397 20276 84570 333 56490=

48074 32462 31402 10367 20258 40039 82301 333 56202

59007=

48092 32458 71604 10310 20254 40041 85970 333 56590

58008=

48093 32658 42302 10307 20267 70122 84300 333 56500=

48107 32350 42302 10328 20258 40065 84900 333 56500

59001=  





