



*-*-*


<!--
.style2 {
	font-family:"Courier New", Courier, monospace;
	font-size: 14px;
}
-->






SIBM20 VBRR 300300

AAXX 30034

48001 31440 80000 10150 20145 40160 71422 8672/ 333 56269 59008=

48004 31340 60000 10160 20144 71044 86900 333 56500=

48008 32557 31401 10165 20135 40153 82430 333 56390 59016=

48010 31540 20000 10162 20144 40157 74544 82700 333 56600 59010=

48018 31558 11401 10160 20144 40155 70344 81100 333 56900 58000=

48019 32457 20000 10166 20144 40157 80030 333 56050 59004=

48020 31550 80000 10165 20154 74244 887// 333 56999=

48025 31220 23201 10180 20147 40163 74044 82800 333 56900 59004=

48030 32956 02201 10097 20056 333=

48031 32960 00401 10170 20044 333=

48033 32962 00401 10220 20173 40147 333 58006=

48034 31948 00000 10137 20107 71000 333=

48035 31960 00000 10138 20124 40175 70544 333 59003=

48037 32956 03601 10184 20147 40144 333 59006=

48039 31940 30000 10206 20160 74044 80002 333 56009=

48042 31940 00000 10212 20160 40153 71000 333 58007=

48043 32057 00000 10160 20123 333=

48045 32960 01802 10160 20059 333=

48048 32960 00901 10187 20139 40164 333 58006=

48051 32959 03202 10206 20160 70200 333=

48052 32958 03202 10225 20143 333=

48053 31940 03601 10210 20143 40162 71000 333 58005=

48055 31956 00000 10145 20119 40178 70511 333 59004=

48057 32958 01401 10196 20085 333=

48060 32940 00000 10163 20106 40185 333 59007=

48062 31956 00402 10210 20190 40153 70544 333 58011=

48064 32960 01401 10190 20175 40146 333 59001=

48065 32968 00000 10210 20160 333=

48071 31458 20000 10225 20214 40156 71040 82200 333 56900 58013=

48072 31958 00000 10250 20219 70544 333=

48074 32958 01403 10220 20156 40174 333 58011=

48075 31958 23201 10180 20170 40182 71044 80006 333 56009 59008=

48077 32959 00000 10220 20156 40148 333 58008=

48078 32956 13202 10205 20162 40164 80001 333 56009 58014=

48080 32959 01301 10200 20185 40153 333 58004=

48085 31957 01302 10224 20185 40154 70544 333 58014=

48087 32960 00000 10220 20173 333=

48092 31956 00901 10240 20174 40138 70500 333 58007=

48093 32957 00401 10220 20185 70211 333=

48094 32959 00402 10245 20215 40156 333 58018=

48095 32958 00000 10210 20195 333=

48096 32058 00703 10230 20181 40157 333 58006=

48097 31556 10401 10250 20186 40152 70541 81500 333 56900 59001=

48099 31440 33201 10235 20174 40156 70511 83800 333 56700 58008=

48101 32958 00000 10245 20209 333=

48103 32956 00401 10230 20181 40155 333 58013=

48107 31930 03201 10240 20191 40137 70144 333 58009=

48108 31996 51401 10240 20191 40154 70144 80006 333 56009 58016=

48109 32997 00401 10260 20215 40156 333 58015=

48110 31996 21303 10275 20229 40148 70511 80005 333 56009 58010=

48112 32597 80402 10270 20240 40147 84876 333 56199 58015=  





