



*-*-*


<!--
.style2 {
	font-family:"Courier New", Courier, monospace;
	font-size: 14px;
}
-->






SMBM01 VBRR 301800

NIL=  
SMBM01 VBRR 301800 RRA

AAXX 30184

48008 32510 61401 10190 20175 40129 83970 333 56330 58000=

48010 32502 20000 10175 20172 40135 81440 333 56990 59006=

48018 32510 70000 10200 20168 40139 84870 333 56550 58012=

48025 32405 60000 10220 20171 40138 84840 333 56550 59006=

48042 32950 00000 10210 20160 40117 333 59009=

48053 32940 03201 10210 20143 40127 333 59017=

48057 31939 00000 10128 20086 71000 333=

48060 32410 20000 10140 20124 40152 81102 333 56509 59006=

48097 32956 02701 10210 20203 40150 333 58002=

40103 32510 13201 10210 20175 40131 81500 333 56700 58004=  





