



*-*-*


<!--
.style2 {
	font-family:"Courier New", Courier, monospace;
	font-size: 14px;
}
-->






SMBM01 VBRR 301800

NIL=  
SMBM01 VBRR 301800 RRA

AAXX 30184

48008 32510 60000 10270 20226 40041 83970 333 56450 59013=

48010 22501 40000 10260 20246 40053 82430 333 56660 59003=

48018 32930 00000 10275 20256 40062 333 58008=

48025 22405 40000 10290 20230 40073 83840 333 56690 58012=

48042 31550 61801 10308 20254 40043 70399 83950 333 56490 58001=

48053 32540 61802 10290 20248 40073 83556 333 56599 58019=

48057 22439 70000 10204 20204 85350 333 56990=

48060 32420 32702 10240 20200 40051 83100 333 56500 58007=

48062 NIL=

48071 32420 60000 10290 20259 40066 84970 333 56990 58002=

48078 NIL=

48080 32450 70401 10280 20250 40099 84970 333 56790 58010=

48094 31450 60000 10270 20260 40084 84970 333 56990 58010=

48097 21556 40501 10260 20246 40102 70296 84500 333 56900 58007=

48099 22330 60000 10268 20240 40095 84930 333 56990 58004=

48103 NIL=

48108 21595 73201 10270 20240 40105 70355 83376 333 56999 58004=

48109 NIL=

48110 NIL=

48112 32598 62202 10282 20250 40088 83316 333 56599 59007=  





