



*-*-*


<!--
.style2 {
	font-family:"Courier New", Courier, monospace;
	font-size: 14px;
}
-->






SIBM20 VBRR 300300

AAXX 30034
48001 32456 20000 10230 20181 40129 82800 333 56400 59027=
48004 32556 11301 10250 20191 81100 333 56900=
48008 31556 41401 10260 20179 40120 70544 82430 333 56560 59023=
48010 31056 00000 10250 20219 40127 71044 333 59026=
48018 32958 02201 10260 20203 40131 333 59015=
48019 31957 02701 10255 20186 40112 70500 333 59031=
48020 31950 03602 10260 20203 70500=
48025 31420 20000 10264 20179 40119 70444 82500 333 56900 59023=
48030 21005 32202 10128 20113 74244 83800 333 56500=
48031 31960 00401 10205 20160 70544=
48033 32962 00000 10285 20230 40104 333 59032=
48034 22956 00401 10208 20143=
48035 31920 00000 10239 20136 40111 70500 333 59038=
48037 32950 00401 10268 20172 40102 333 59032=
48039 31950 30000 10285 20184 70511 80002 333 56009=
48042 31956 01801 10312 20189 40115 70500 333 59013=
48043 32058 03202 10235 20136=
48045 31960 01401 10225 20097=
48048 31958 00401 10310 20189 40120 71044 333 59011=
48051 32558 11301 10279 20230 70311 81200 333 56900=
48052 32458 22202 10286 20179 82200 333 56900=
48053 31940 01801 10290 20215 40114 70500 333 59025=
48055 31956 01402 10232 20143 40131 70500 333 59002=
48057 32958 02201 10234 20124=
48060 32940 00000 10227 20163 40128 333 59033=
48062 31550 30401 10292 20230 40133 70511 82820 333 56590 59002=
48064 32960 01401 10295 20185 40116 333 59004=
48065 32965 00000 10310 20169=
48071 32458 43202 10285 20248 40139 84800 333 56900 59005=
48072 32460 40403 10300 20232 70322 83830 333 56690=
48074 31959 00000 10288 20196 40139 70500 333 58007=
48075 31957 02701 10235 20185 40055 70500 333 58014=
48077 32959 00000 10290 20196 40118 333 59010=
48078 32556 21801 10305 20216 40132 81501 333 56909 59004=
48080 31959 03202 10264 20229 40141 333 58001=
48085 32957 03202 10286 20220 40128 333 59007=
48087 32960 00000 10294 20215=
48092 31956 01301 10290 20248 40109 70500 333 59002=
48093 32957 02301 10300 20223 70211=
48094 32959 03202 10295 20270 40130 333 59005=
48095 32958 00000 10300 20223=
48097 32557 31401 10300 20207 40141 70211 83500 333 56900 59003=
48099 21450 41302 10305 20239 40126 70344 84800 333 56300 59007=
48101 32959 00000 10285 20250=
48103 22450 21401 10322 20248 40127 82500 333 56300 59009=
48107 32950 02301 10296 20223 40113 333 59018=
48108 32596 40502 10310 20231 40137 82406 333 56909 59011=
48109 32997 00401 10315 20248 40136 70222 333 59008=
48110 21596 30000 10305 20253 40129 70511 81105 333 56909 59007=
48112 32598 60402 10325 20236 40126 82216 333 56199 58000=  





