



*-*-*


<!--
.style2 {
	font-family:"Courier New", Courier, monospace;
	font-size: 14px;
}
-->






SIBM20 VBRR 300900

AAXX 30094
48001 32457 51302 10310 20169 40056 85800 333 56800 59022=
48004 31558 10401 10352 20219 70511 81100 333 56900=
48008 31556 60401 10345 20158 40067 70544 83970 333 56560 59019=
48010 31560 70000 10335 20257 40066 87800 333 56550 59023=
48018 32558 42201 10360 20195 40074 70322 82870 333 56550 59027=
48019 32460 13202 10353 20202 40077 81200 333 56700 59009=
48020 NIL=
48025 32440 23202 10372 20171 40063 70544 82500 333 56900 59024=
48030 32256 62203 10237 20095 86900 333 56500=
48031 31260 82701 10240 20114 70544 883// 333 56499=
48033 32963 01801 10365 20227 40048 333 59028=
48034 32456 60403 10262 20138 86300 333 56500=
48035 31530 52703 10323 20140 40036 70500 83960 333 56690 59027=
48037 32956 00401 10385 20187 40079 333 58008=
48039 32456 30000 10370 20171 83100 333 56500=
48042 32557 22201 10395 20187 40060 82300 333 56400 59022=
48043 32757 02707 10290 20140=
48045 32560 51808 10304 20069 85300 333 56500=
48048 32562 22202 10340 20176 40062 82800 333 56900 59017=
48051 21458 71802 10270 20280 76066 84970 333 56690=
48052 32968 12206 10405 20141 80001 333 56009=
48053 31550 51804 10380 20275 40058 70522 84806 333 56509 59012=
48055 32556 73201 10302 20185 40044 70322 85370 333 56550 59008=
48057 32460 52202 10280 20126 85300 333 56600=
48060 32440 32203 10324 20140 40052 82130 333 56560 59016=
48062 32558 12709 10310 20270 40102 81200 333 56600 58002=
48064 32970 01401 10408 20240 40052 333 59012=
48065 32970 00000 10406 20120=
48071 32460 13204 10320 20245 40101 81200 333 56900 59005=
48072 32960 02706 10330 20275=
48074 32560 23601 10388 20177 40065 82100 333 56400 59019=
48075 31457 43201 10320 20160 40053 70511 84800 333 56500 59027=
48077 32559 22301 10400 20145 40063 81201 333 56909 59010=
48078 32558 31802 10394 20261 40070 82201 333 56409 59008=
48080 32960 02209 10354 20219 40087 333 59017=
48085 32958 03205 10324 20248 40095 333 59003=
48087 32560 32303 10380 20159 83800 333 56900=
48092 32458 22302 10385 20285 40059 70322 82100 333 56900 58001=
48093 32658 23201 10380 20300 82100 333 56500=
48094 32460 23203 10360 20240 40089 82100 333 56900 58002=
48095 32460 12202 10388 20221 70200 81200 333 56900=
48097 32557 32302 10380 20173 40138 83800 333 56900 58005=
48099 21456 42305 10363 20177 40080 70196 83930 333 56590 59001=
48101 32661 12702 10360 20195 70311 81100 333 56900=
48103 32457 31401 10363 20235 40075 83800 333 56300 59007=
48107 32350 22302 10348 20219 40082 82900 333 56500 59000=
48108 32596 53205 10355 20252 40082 83366 333 56329 59010=
48109 NIL=
48110 31596 33203 10355 20250 40084 70511 82305 333 56909 59005=
48112 32598 50402 10385 20240 40084 70122 81116 333 56199 58001=  





