



*-*-*


<!--
.style2 {
	font-family:"Courier New", Courier, monospace;
	font-size: 14px;
}
-->






SMBM01 VBRR 300600

AAXX 30064

48001 32556 20901 10208 20175 40173 82100 333 56100

58012=

48004 32562 23201 10241 20155 82800 333 56900=

48008 32557 30401 10257 20160 40170 81130 333 56990

59012=

48010 32560 11801 10265 20179 40170 81100 333 56900

59011=

48018 32560 53201 10275 20172 40180 83845 333 56787

58003=

48019 32560 20402 10268 20172 40164 80002 333 56004

59005=

48020 31460 20403 10252 20206 70144 82200 333 56400=

48025 31440 53202 10260 20203 40181 70144 83840 333

56550 59006=

48035 32560 41802 10261 20179 40131 83860 333 56490

59012=

48037 32560 13201 10290 20196 40155 81100 333 56900

59011=

48042 31556 41802 10307 20203 40143 70511 82202 333

56409 59016=

48045 31330 80403 10186 20159 74044 887// 333 56199=

48048 32560 50401 10290 20215 40157 84850 333 56890

59021=

48051 NIL=

48053 32556 43601 10310 20225 40149 81506 333 56909

58009=

48060 32440 52201 10212 20160 40182 83830 333 56560

59021=

48062 NIL=

48071 NIL=

48075 NIL=

48077 NIL=

48078 NIL=

48080 NIL=

48085 NIL=

48095 NIL=

48108 NIL=

48109 NIL=

48110 NIL=

48112 NIL=

48030 32360 22202 10203 20060 80002 333 56009=

48072 NIL=

48087 NIL=

48099 NIL=

48101 NIL=

48103 NIL=

48057 32458 52202 10234 20143 83301 333 56409=

48094 NIL=

48097 NIL=

48031 32558 71401 10200 20130 87000 333 56400=

48033 32963 00000 10290 20215 40158 333 58010=

48034 32456 51802 10254 20150 85800 333 56500=

48039 32460 40000 10300 20223 82802 333 56505 =

48043 32556 43205 10240 20191 84200 333 56600=

48052 32460 23601 10326 20212 82200 333 56900=

48055 31556 43203 10258 20179 40134 70244 83801 333

56509 59030=

48064 32560 81401 10290 20230 40145 82101 333 56609

59005=

48065 32960 10401 10308 20203 80001 333 56009=

48074 32459 43203 10310 20203 40150 82502 333 56909

59017=

48092 NIL=

48093 NIL=

48107 NIL=

48096 NIL=  
SMBM01 VBRR 300600 RRA

AAXX 30064

48039 32460 40000 10300 20223 82802 333 56505 =  





