



*-*-*


<!--
.style2 {
	font-family:"Courier New", Courier, monospace;
	font-size: 14px;
}
-->






SMBM01 VBRR 310000 RRA

AAXX 31004

48019 21450 82301 10260 20246 40048 76366 8597/ 333

20256 56999 58001 60062=

48020 21250 70000 10252 20240 70296 85730 333 20240

56590 60122=

48025 22110 60000 10262 20246 40049 84840 333 20258

56490 59010 60012=

48035 31540 50000 10237 20226 40049 71022 83960 333

20230 56390 59007=

48037 21558 81801 10271 20240 40051 70352 8557/ 333

20266 56669 58018 60002=

48042 22558 71803 10270 20240 40058 84850 333 20256

56440 59008 60042=

48048 32550 32202 10272 20240 40049 83800 333 20266

56900 59004=

48051 21456 80000 10251 20250 75055 86930 333 20246

56490 60142=

48053 32450 71803 10250 20233 40074 85750 333 20244

56590 58005=

48060 22430 70000 10222 20220 40052 85830 333 20214

56590 59002 60112=

48062 21456 71801 10272 20270 40073 70255 85970 333

20240 56990 58011 60022=

48071 21456 70000 10263 20263 40080 85970 333 20250

56990 58015 60042=

48075 32456 60000 10225 20210 40090 83331 333 56639

59004 60002=

48077 22556 80000 10260 20246 40078 85931 333 20240

56499 58010=

48078 21440 71801 10250 20242 40091 70155 8477/ 333

20240 56499 58006 60042=

48080 21456 80402 10243 20240 40086 75065 85970 333

20237 56590 58007 60042=

48108 21494 80000 10240 20240 40108 75065 8537/ 333

20233 5699/ 58001 60112=

48109 32496 52301 10274 20256 40099 84930 333 20217

56990 58006=

48110 21595 81802 10250 20241 40109 70555 84857 333

20245 56699 59003 60022=

48112 32597 82701 10260 20246 40110 83876 333 20205

56699 58002=

48030 22256 82202 10172 20154 8784/ 333 20161 56569=

48087 22450 80000 10256 20246 70355 8497/ 333 20246

5649/ 60062=

48099 21340 72302 10250 20233 40088 70255 84870 333

20240 56590 59003 60022=

48101 21456 80000 10263 20263 70252 8497/ 333 20225

5659/ 60012=

48103 21340 81401 10247 20247 40093 70255 8672/ 333

20240 5633/ 58007 60032=

48057 32456 82301 10190 20190 86950 333 20185 56690=

48094 22456 80000 10265 20260 40091 8597/ 333 20195

5659/ 58014 60002=

48097 21557 73201 10260 20253 40093 70365 82850 333

20245 56990 58001 69902=

48033 32562 71802 10264 20246 40055 85530 333 20250

56450 58000=

48034 21356 82301 10210 20195 70265 8692/ 333 20195

5659/ 60052=

48039 21456 71401 10270 20240 70255 84560 333 20269

56440 69902=

48043 32520 81805 10205 20195 8587/ 333 20172 56599=

48052 32450 41302 10274 20240 84800 333 20268 56900=

48055 31458 40000 10202 20199 40074 71011 82531 333

20197 56559 59007=

48064 32450 60401 10265 20229 40060 83731 333 20223

56449 58006=

48065 22450 61401 10262 20246 83570 333 20233 56990

60012=

48074 32356 81804 10250 20233 40086 8672/ 333 20245

56499 58003=

48092 21450 80000 10256 20246 40074 70522 8597/ 333

20246 5699/ 58000=

48093 21440 80000 10262 20257 70265 8637/ 333 20248

56399 60042=

48107 21330 80000 10238 20238 40100 70166 8597/ 333

20230 5666/ 58001 60702=

48096 22456 71804 10260 20246 40090 85970 333 20240

56990 58000 60012=  





