



*-*-*


<!--
.style2 {
	font-family:"Courier New", Courier, monospace;
	font-size: 14px;
}
-->






SIBM20 VBRR 310900

AAXX 31094

48001 21330 81301 10245 20240 40052 76155 8477/ 333

56769 58007=

48004 31458 61301 10290 20259 86900 333 56500=

48008 31456 80000 10287 20250 40044 75055 8497/ 333

56459 59005=

48010 32558 61802 10320 20265 40036 84801 333 56504

58002=

48018 32558 62301 10320 20236 40047 83870 333 56450

58009=

48019 32458 80000 10300 20253 40042 85770 333 56550

58003=

48020 32458 60402 10340 20288 84330 333 56550=

48025 32356 71401 10332 20258 40036 85841 333 56449

58004=

48035 32560 70000 10291 20215 40023 85970 333 56450

58007=

48037 32562 51802 10360 20249 40027 82249 333 56466

58012=

48042 32560 71804 10348 20237 40035 84852 333 56449

58012=

48045 32556 82209 10270 20172 83331 333 56566=

48048 32560 41803 10365 20214 40038 84800 333 56400

58008=

48051 21456 83102 10260 20260 78166 86920 333 56490=

48053 32456 61803 10340 20225 40039 85956 333 56499

59002=

48060 32350 62202 10300 20207 40001 84802 333 56409

59043=

48062 32458 81807 10310 20280 40065 86970 333 56490

58011=

48071 32460 62304 10305 20267 40070 84970 333 56590

58000=

48075 32457 60000 10290 20215 40052 84330 333 56390

58013=

48077 32559 82302 10320 20265 40060 85931 333 56499

58002=

48078 21557 41801 10302 20266 40070 70165 83801 333

56409 58003=

48080 22459 52206 10313 20267 40073 83870 333 56590

59009=

48085 32458 53205 10310 20267 40078 83809 333 56509

59001=

48095 21458 82202 10300 20282 72022 85970 333 56990=

48108 21495 73202 10300 20260 40095 75055 85376 333

56699 58000=

48109 32497 42301 10312 20267 40097 70222 84800 333

56900 59005=

48110 21495 80000 10280 20250 40122 70299 84377 333

56699 58004=

48112 32597 82201 10310 20254 40102 83876 333 56599

58003=

48030 32256 82204 10218 20173 8694/ 333 56569=

48072 32460 52704 10310 20267 83830 333 56590=

48087 22560 62301 10318 20265 83871 333 56499=

48099 21330 80000 10250 20250 40092 79596 8697/ 333

5659/ 58018=

48101 22558 82301 10301 20266 8597/ 333 5659/=

48103 21350 82201 10269 20256 40088 72066 86770 333

56550 58012=

48057 32458 72202 10244 20191 85950 333 56590=

48094 32460 62303 10325 20275 40077 84940 333 56590

59005=

48097 32557 72401 10310 20274 40093 85330 333 56990

58002=

48031 21257 81401 10225 20185 75055 883// 333 56499=

48033 32563 51801 10340 20257 40053 85900 333 56900

58018=

48034 32456 80000 10227 20212 8637/ 333 5659/=

48039 32460 71401 10330 20244 84960 333 56440=

48043 32556 71807 10250 20219 85830 333 56590=

48052 32468 32202 10378 20221 83800 333 56900=

48055 32556 72304 10295 20219 40029 85930 333 56550

59011=

48064 32460 70401 10350 20266 40039 83831 333 56449

59002=

48065 32457 62201 10350 20280 83871 333 56999=

48074 21457 62304 10270 20256 40073 72065 84961 333

56449 58015=

48092 32456 72302 10320 20265 40057 84970 333 56560

59005=

48093 32557 41401 10310 20267 85841 333 56599=

48107 21330 82301 10262 20262 40098 76166 8597/ 333

5655/ 58014=

48096 32457 82406 10310 20254 40090 8597/ 333 5699/

58007=  





