



*-*-*


<!--
.style2 {
	font-family:"Courier New", Courier, monospace;
	font-size: 14px;
}
-->






SMBM01 VBRR 311200

AAXX 31124

48001 21430 70000 10242 20240 40054 72166 85720 333

10250 56770 58000 60162=

48004 21110 80402 10257 20257 76155 8697/ 333 10292

56559 60012=

48008 21450 80000 10265 20260 40042 72166 8497/ 333

10290 56459 59002 60572=

48010 21540 70000 10280 20250 40027 70355 83731 333

10330 56556 59002 69902=

48018 32556 72301 10312 20248 40036 83870 333 10322

56450 58008 60002=

48019 32450 60000 10293 20259 40029 82250 333 10310

56560 59006 60002=

48020 32350 70000 10315 20280 85530 333 10345 56550

60002=

48025 32456 61802 10320 20265 40028 84841 333 10345

56459 58003 60002=

48035 32560 42202 10269 20226 40028 84900 333 10298

56400 58015 60002=

48037 32558 51802 10344 20225 40020 82239 333 10370

56456 58010 60002=

48042 32559 61804 10330 20234 40031 84850 333 10355

56449 58005 60002=

48045 32450 72306 10218 20173 86370 333 10275 56560

60002=

48048 32550 22202 10344 20225 40031 82800 333 10370

56900 58009 60002=

48051 21456 83102 10257 20250 72166 86920 333 10305

56490 60362=

48053 32456 51803 10310 20237 40043 82856 333 10345

56499 58002 60002=

48060 32430 62203 10262 20209 40011 84870 333 10310

56490 59010 60002=

48062 32456 81806 10290 20270 40063 86970 333 10320

56590 58003 60002=

48071 32456 72302 10298 20266 40066 85970 333 10310

56590 59002 60002=

48075 21456 62702 10255 20217 40079 83970 333 10300

56690 58011 60022=

48077 32556 72302 10300 20239 40054 85931 333 10322

56499 59001 60002=

48078 21556 61802 10285 20263 40073 70365 83331 333

10305 56499 59009 60012=

48080 22459 52201 10290 20259 40074 83870 333 10320

56590 59001 60022=

48085 32458 52704 10288 20250 40075 84330 333 10312

56590 59002 60002=

48095 22456 80000 10290 20274 83970 333 10314 56990

60012=

48108 21494 82301 10250 20242 40103 75165 8537/ 333

10306 5669/ 58006 60142=

48109 32496 52301 10294 20259 40089 83930 333 10316

56990 58003 60002=

48110 21495 82303 10255 20247 40102 75165 8632/ 333

10315 5669/ 58004 60052=

48112 32597 83201 10290 20259 40104 83876 333 10332

56799 58003 60002=

48030 32257 82201 10197 20185 8684/ 333 10225 56569

60002=

48072 21456 81301 10290 20259 70355 86970 333 10315

56590 60012=

48087 22550 80000 10294 20259 82841 333 10322 56999

60012=

48099 21220 80000 10250 20250 40088 75065 8697/ 333

10290 5699/ 58004 60262=

48101 22550 82301 10288 20259 8477/ 333 10310 5659/

69902=

48103 21330 83201 10257 20246 40090 75055 86720 333

10295 56770 58005 60352=

48057 32456 72302 10220 20185 86950 333 10250 56690

60002=

48094 32457 62201 10305 20270 40075 84940 333 10334

56590 59004 60002=

48097 32557 83302 10270 20256 40098 8635/ 333 10316

5699/ 58010 60002=

48031 22250 82701 10220 20168 883// 333 10245 56499

69902=

48033 32562 71801 10330 20244 40022 84906 333 10348

56409 59009 60002=

48034 32456 70000 10231 20206 87300 333 10240 56500

60002=

48039 32460 71401 10319 20238 85902 333 10339 56404

60002=

48043 32030 41804 10240 20209 80032 333 10267 56099

60002=

48052 32450 42204 10346 20219 84800 333 10380 56900

60002=

48055 32556 71403 10282 20203 40026 85901 333 10313

56509 58004 60002=

48064 32950 20401 10315 20265 40027 80001 333 10355

56009 59014 60002=

48065 32450 50401 10310 20267 82571 333 10355 56999

60002=

48074 32458 50000 10280 20268 40076 82546 333 10321

56499 58018 60032=

48092 21456 71302 10275 20262 40065 70255 8497/ 333

10325 5649/ 58002 60022=

48093 32550 83201 10276 20250 8637/ 333 10312 56599

60002=

48107 21330 82301 10260 20260 40096 70166 8597/ 333

10307 5655/ 58010 60102=

48096 21457 81804 10260 20246 40092 70262 8597/ 333

10315 5699/ 58006 60062=  





