



*-*-*


<!--
.style2 {
	font-family:"Courier New", Courier, monospace;
	font-size: 14px;
}
-->






SMBM01 VBRR 310600

AAXX 31064

48001 32450 80401 10183 20165 40196 84830 333 56510

58021=

48004 31358 73201 10192 20159 70344 87900 333 56500=

48008 32457 50401 10250 20186 40190 83830 333 56450

58011=

48010 32558 70000 10205 20150 40201 85830 333 56440

58029=

48018 32557 70000 10220 20173 40200 82570 333 56310

58003=

48019 32958 62301 10215 20173 40196 80016 333 56046

58039=

48020 32356 53602 10200 20168 84230 333 56550=

48025 31330 73601 10210 20175 40214 70144 84720 333

56660 58022=

48035 31558 80000 10239 20155 40168 70522 8597/ 333

56569 58033=

48037 32558 63601 10258 20160 40178 83270 333 56660

58002=

48042 31540 60000 10275 20188 40178 70522 82402 333

56909 58020=

48045 32560 71405 10181 20129 85606 333 56305=

48048 32560 40401 10270 20172 40195 83850 333 56890

58029=

48051 32558 40401 10258 20160 70222 83201 333 56709=

48053 31950 43602 10280 20168 40181 70511 80006 333

56009 58025=

48060 32440 70402 10244 20174 40187 82172 333 56544

58026=

48062 32456 50903 10252 20220 40178 70222 83832 333

56699 58008=

48071 31456 43202 10258 20203 40179 70522 83801 333

56709 58020=

48075 32457 51404 10250 20167 40182 70222 82261 333

56555 58028=

48077 32559 50401 10284 20158 40174 83201 333 56909

58019=

48078 32558 30402 10300 20196 40178 81502 333 56909

58019=

48080 32461 52202 10304 20185 40173 83806 333 56509

58009=

48085 32458 63202 10290 20215 40167 70222 82806 333

56909 58011=

48095 32458 40401 10285 20220 70311 82602 333 56909=

48108 32596 40508 10330 20191 40154 83306 333 56209

58009=

48109 NIL=

48110 31596 81804 10320 20215 40148 70522 81207 333

333 56209 58003=

48112 32597 80403 10320 20281 40139 70322 83876 333

56199 58000=

48030 31256 80401 10128 20086 70144 888// 333 56199=

48072 31459 73201 10280 20184 70522 84830 333 56690=

48087 32960 60405 10285 20158 70322 80041 333 56099=

48099 32456 40406 10335 20184 40160 83930 333 56190

58009=

48101 NIL=

48103 32457 20403 10338 20164 40159 82100 333 56100

58009=

48057 32458 72302 10194 20159 85306 333 56409=

48094 32465 43201 10310 20200 40169 70211 81106 333

56909 58012=

48097 32557 40403 10320 20215 40170 70211 82101 333

56909 58011=

48031 32257 81801 10140 20107 888// 333 56499=

48033 32563 53601 10250 20186 40165 82500 333 56900

58022=

48034 32456 51802 10227 20143 85800 333 56500=

48039 32456 72201 10262 20160 83802 333 56505=

48043 32657 51805 10225 20143 85200 333 56400=

48052 32456 43602 10270 20172 84800 333 56900=

48055 32556 61304 10223 20164 40183 84806 333 56509

59039=

48064 32558 61401 10240 20191 40187 84801 333 56509

58035=

48065 32457 60302 10262 20160 84801 333 56909=

48074 32559 62702 10290 20179 40174 82506 333 56505

58011=

48092 32457 60503 10330 20223 40147 83806 333 56909

58007=

48093 32558 30401 10311 20225 70211 82101 333 56309=

48107 32950 00402 10330 20212 40141 333 58014=  





