



*-*-*


<!--
.style2 {
	font-family:"Courier New", Courier, monospace;
	font-size: 14px;
}
-->






SIBM20 VBRR 310300

AAXX 31034

48001 31430 70000 10130 20126 40224 72844 84770 333

56440 58028=

48004 31905 90000 10140 20140 74644 333=

48008 31456 50401 10200 20150 40209 70344 83830 333

56450 58027=

48010 32530 80000 10155 20144 40220 887// 333 56499

58029=

48018 32556 80000 10170 20154 40206 8487/ 333 56779

59001=

48019 32457 40000 10167 20144 40205 82360 333 56550

58026=

48020 32330 80000 10170 20154 88600 333 56500=

48025 31110 70000 10170 20154 40214 74044 86840 333

56590 58022=

48035 31558 80000 10155 20123 40203 70544 8597/ 333

56569 58034=

48037 32550 53601 10185 20165 40186 83230 333 56660

58006=

48042 31520 50000 10206 20175 40192 74044 82402 333

56905 58022=

48045 32560 71402 10128 20113 85806 333 56305=

48048 32558 50401 10195 20168 40193 84850 333 56890

58015=

48051 32558 43602 10186 20120 81236 333 56799=

48053 31940 43201 10210 20160 40189 70511 80006 333

56009 58011=

48060 32440 70000 10196 20168 40227 82172 333 56566

58036=

48062 32456 50901 10180 20160 40184 83832 333 56499

58011=

48071 31456 40402 10208 20195 40185 70544 82231 333

56199 58012=

48075 32456 40000 10180 20147 40219 83801 333 56509

58027=

48077 32559 50402 10220 20156 40187 84801 333 56909

58025=

48078 32558 30901 10226 20177 40190 81501 333 56909

58012=

48080 31459 50402 10182 20147 40174 70344 83506 333

56509 58001=

48085 32458 60000 10234 20214 40176 81806 333 56909

58010=

48095 32458 30401 10245 20209 82602 333 56909=

48108 32596 43202 10270 20211 40173 83806 333 56209

58005=

48109 32497 30402 10290 20248 40171 83900 333 56900

58006=

48110 31996 72302 10290 20215 40162 70522 80006 333

56009 59003=

48112 32598 60403 10290 20259 40150 82216 333 56199

58000=

48030 31/05 92202 10060 20060 74344 89/// 333 56999=

48072 31459 53202 10225 20181 70522 84830 333 56690=

48087 32558 73601 10232 20163 83841 333 56999=

48099 31450 40902 10270 20211 40176 74044 82802 333

56909 58007=

48101 32958 13601 10261 20215 80001 333 56009=

48103 32456 10403 10267 20211 40178 81100 333 56100

58007=

48057 32956 51402 10180 20147 80006 333 56009=

48094 32459 23202 10235 20185 40182 82500 333 56900

58016=

48097 31557 51302 10260 20215 40182 70522 82506 333

56909 58005=

48031 32256 82201 10105 20105 888// 333 56499=

48033 32562 53601 10190 20159 40193 85800 333 56900

58030=

48034 31456 50000 10146 20122 71022 85800 333 56500=

48039 31430 60000 10191 20159 74044 83102 333 56505=

48043 32956 30000 10150 20134 80002 333 56009=

48052 31340 43202 10193 20159 71022 84800 333 56900=

48055 31530 71803 10136 20118 40228 71022 86301 333

56509 58028=

48064 32456 50000 10177 20147 40187 83801 333 56509

58022=

48065 31456 50401 10189 20159 70522 83801 333 56909=

48074 32558 62302 10220 20156 40196 82506 333 56505

58021=

48092 31556 50905 10280 20203 40167 70522 81406 333

56909 58018=

48093 32557 30401 10274 20226 81101 333 56309=

48107 31950 03601 10270 20191 40153 7//44 333 58003=  





