



*-*-*


<!--
.style2 {
	font-family:"Courier New", Courier, monospace;
	font-size: 14px;
}
-->






SIBM20 VBRR 310900

AAXX 31094

48001 32456 73601 10213 20195 40171 85730 333 56450

58026=

48004 32460 61301 10212 20160 84302 333 56505=

48008 NIL=

48010 32558 70000 10225 20156 40178 85830 333 56550

58031=

48018 32556 71401 10240 20226 40164 82470 333 56330

58027=

48019 NIL=

48020 32357 63602 10240 20191 86800 333 56500=

48025 32430 73201 10232 20163 40187 85840 333 56550

58043=

48035 31558 82702 10258 20119 40133 70522 8597/ 333

56559 58023=

48037 32558 73201 10270 20172 40150 84870 333 56660

58027=

48042 32556 50000 10285 20190 40155 82102 333 56909

58025=

48045 32558 72307 10204 20130 85606 333 56505=

48048 32560 53601 10295 20166 40157 84850 333 56890

58022=

48051 NIL=

48053 32956 43602 10300 20185 40152 80006 333 56009

58026=

48060 32440 72201 10252 20150 40160 83832 333 56544

58032=

48062 NIL=

48071 NIL=

48075 NIL=

48077 NIL=

48078 NIL=

48080 NIL=

48085 NIL=

48095 NIL=

48108 NIL=

48109 NIL=

48110 NIL=

48112 NIL=

48030 32256 70402 10148 20092 85840 333 56180=

48072 NIL=

48087 NIL=

48099 NIL=

48101 NIL=

48103 NIL=

48057 NIL=

48094 NIL=

48097 NIL=

48031 NIL=

48033 32563 63601 10270 20170 40149 86900 333 56400

58030=

48034 32456 61802 10232 20143 86800 333 56500=

48039 32458 70000 10286 20196 83802 333 56505=

48043 32657 52707 10220 20156 82202 333 56509=

48052 32458 33201 10335 20201 83800 333 56900=

48055 32556 61802 10258 20222 40142 84806 333 56509

58025=

48064 32560 41401 10254 20205 40139 82801 333 56509

58013=

48065 32458 33201 10287 20159 82630 333 56990=

48074 32458 63202 10310 20203 40143 83502 333 56509

58021=

48092 NIL=

48093 NIL=

48107 NIL=  
SIBM20 VBRR 310900 RRA

AAXX 31094

48051 32558 61301 10276 20150 83236 333 56799=

48062 32456 42705 10295 20220 40163 82232 333 56699

58020=  
SIBM20 VBRR 310900 RRB

AAXX 31094

48071 31458 33204 10265 20191 40148 70511 82201 333

56709 58010=

48075 32457 50000 10270 20154 40144 83805 333 56509

59010=

48072 32460 30401 10250 20184 83830 333 56690=  
SIBM20 VBRR 310900 RRC

AAXX 31094

48077 32559 60000 10312 20169 40151 83801 333 56909

58031=

48078 32559 32301 10324 20206 40149 81502 333 56909

58018=

48080 32459 53205 10300 20207 40148 83806 333 56509

58012=

48085 32458 73203 10306 20225 40141 83806 333 56909

58013=  
SIBM20 VBRR 310900 RRD

AAXX 31094

48087 32958 60403 10297 20185 80041 333 56099=

48094 32461 43202 10328 20210 40145 82806 333 56909

58015=

48092 32459 60502 10330 20201 40124 84806 333 56909

58016=

48093 32557 51401 10321 20236 84801 333 56109=  
SIBM20 VBRR 310900 RRE

AAXX 31094

48095 32458 50401 10305 20223 83802 333 56909=

48099 32458 30907 10342 20184 40127 83800 333 56900

58003=

48101 32660 51402 10323 20203 83301 333 56309=

48097 32557 50503 10315 20202 40149 83801 333 56909

58016=  
SIBM20 VBRR 310900 RRF

AAXX 31094

48108 32596 51408 10330 20191 40134 83806 333 56409

58015=

48103 32457 41402 10348 20158 40137 84800 333 56300

58017=

48107 32350 23601 10330 20191 40119 82900 333 56300

58009=  
SIBM20 VBRR 310900 RRG

AAXX 31094

48110 31596 41305 10330 20212 40128 70522 83306 333

56209 58011=

48112 32597 80405 10320 20265 40115 83876 333 56199

58000=  





