



*-*-*


<!--
.style2 {
	font-family:"Courier New", Courier, monospace;
	font-size: 14px;
}
-->






SIBM20 VBRR 310057

AAXX 31004

48008 32550 60401 10168 20135 40136 83970 333 20155 56110 59011=

48010 31520 20000 10130 20122 40144 74244 81440 333 20120 56550 58006=

48018 21520 80000 10175 20162 40140 75055 8587/ 333 20170 56559 58008=

48019 21440 83202 10175 20170 40135 79599 8597/ 333 20164 56459 59004=

48025 31110 23202 10160 20144 40141 74044 82600 333 20154 56600 59003=

48030 32956 02205 10084 20055 333 20054=

48031 32956 00401 10098 20078 333 20092=

48033 32960 00401 10173 20154 40135 333 20158 59011=

48034 31456 10000 10093 20082 71011 81500 333 20083 56500=

48035 31/02 90000 10082 20080 40176 74744 333 20076 58007=

48037 32010 00000 10172 20135 40131 333 20160 58011=

48039 31450 31401 10179 20147 71011 83400 333 20173 56900=

48042 32956 00000 10190 20159 40119 333 20180 59012=

48043 32010 01805 10125 20086 333 20080=

48048 32940 02201 10160 20123 40129 333 20153 59018=

48053 32950 00000 10170 20135 40131 333 20167 59006=

48055 32956 00000 10047 20042 40196 333 20043 59001=

48057 31949 01401 10100 20079 71000 333 20090=

48060 31920 00000 10118 20102 40183 71011 333 20105 59018=

48074 32950 00000 10170 20135 40147 333 20156 58010=

48097 31956 03401 10200 20193 40142 71000 333 20190 58007=

48103 32530 13201 10186 20174 40141 81500 333 20162 56700 58007=

48107 31930 00902 10194 20175 40131 74144 333 20180 58005=  





