



*-*-*


<!--
.style2 {
	font-family:"Courier New", Courier, monospace;
	font-size: 14px;
}
-->






SIBM20 VBRR 310900

AAXX 31094

48001 32556 70901 10305 20237 40031 84870 333 56630

59017=

48004 21110 82201 10240 20240 76065 8597/ 333 56559=

48008 32556 80000 10315 20248 40039 8497/ 333 56459

59019=

48010 21450 80000 10240 20240 40043 76166 887// 333

56199 58006=

48018 NIL=

48019 32458 83602 10300 20253 40032 8577/ 333 56559

59007=

48020 21250 80000 10242 20242 75065 887// 333 56399=

48025 21120 81401 10250 20250 40016 76065 8572/ 333

56459 58019=

48035 32560 82202 10263 20215 40048 8597/ 333 56549

58027=

48037 21459 81401 10267 20256 40038 75055 888// 333

56499 58035=

48042 21557 81804 10300 20239 40025 75055 8597/ 333

56449 58010=

48045 21001 91403 10192 20192 75264 89/// 333 56999=

48048 21558 81802 10275 20250 40021 75055 8697/ 333

5649/ 58014=

48051 21456 81304 10247 20247 76066 86920 333 56490=

48053 21450 81804 10280 20250 40027 75055 8577/ 333

56599 58005=

48060 21340 80000 10272 20256 40048 70255 85870 333

56660 58012=

48062 21350 81806 10250 20250 40019 75165 86920 333

56590 58047=

48071 21356 82304 10240 20240 40069 76366 8692/ 333

5659/ 58034=

48075 21456 81401 10230 20230 40076 75155 8677/ 333

5659/ 58008=

48077 21559 82301 10290 20259 40040 70262 85470 333

56490 58012=

48078 21440 81802 10264 20258 40066 75096 8437/ 333

56499 58004=

48080 21458 82210 10290 20259 40047 75065 85970 333

56590 58021=

48085 32458 82205 10302 20266 40054 85870 333 56590

58011=

48095 21458 82204 10290 20270 75122 85970 333 56590=

48108 21595 82305 10295 20263 40100 85377 333 56599

59001=

48109 NIL=

48110 21496 80000 10285 20232 40102 70255 85377 333

56599 58007=

48112 32597 82702 10325 20270 40100 70222 83876 333

56699 59003=

48030 21/09 90401 10182 20182 76166 89/// 333 56999=

48072 21459 82710 10285 20259 75055 86970 333 56590=

48087 21456 82301 10264 20246 72165 8597/ 333 5649/=

48099 21340 81804 10244 20226 40086 75096 8697/ 333

5639/ 58009=

48101 32558 82304 10303 20266 70322 8532/ 333 5659/=

48103 21456 82204 10252 20252 40083 75065 8672/ 333

5655/ 58014=

48057 21356 81502 10202 20202 75055 86970 333 56490=

48094 32459 72204 10305 20260 40063 70322 85940 333

56590 58013=

48097 21557 82303 10255 20240 40080 76096 8632/ 333

5649/ 59002=

48031 NIL=

48033 22562 71802 10290 20248 40024 86970 333 56490

58005=

48034 21356 81402 10210 20202 75055 8692/ 333 5659/=

48039 21459 81402 10288 20248 75155 889// 333 56499=

48043 22556 81806 10245 20219 8587/ 333 56599=

48052 22465 81301 10264 20260 85970 333 56990=

48055 21357 82307 10252 20205 40052 70255 8597/ 333

5659/ 59007=

48064 22450 80901 10260 20260 40017 70266 84720 333

56440 58008=

48065 22450 81403 10257 20257 72165 85370 333 56490=

48074 21458 81405 10290 20259 40059 72055 8587/ 333

56499 58014=

48092 32457 82303 10285 20255 40060 70222 8597/ 333

5649/ 58015=

48093 21450 82301 10268 20256 76166 8697/ 333 56599=

48107 32350 82301 10313 20237 40087 83970 333 56550

58006=  





