



*-*-*


<!--
.style2 {
	font-family:"Courier New", Courier, monospace;
	font-size: 14px;
}
-->






SIBM20 VBRR 310300

AAXX 31034

48001 32550 72701 10260 20229 40052 83870 333 56440

59015=

48004 31110 80401 10245 20245 75065 8697/ 333 56559=

48008 21556 80000 10270 20240 40047 70355 8497/ 333

56559 59012=

48010 21420 80000 10240 20240 40053 76166 887// 333

56899 58001=

48018 21558 81401 10250 20245 40059 75055 8497/ 333

56549 59003=

48019 22457 83601 10264 20246 40039 8577/ 333 56459

59014=

48020 21250 83603 10238 20233 75165 887// 333 56599=

48025 21010 80000 10242 20242 40008 75166 8572/ 333

5649/ 59015=

48035 22560 80000 10237 20209 40006 8597/ 333 56599

58015=

48037 21458 81401 10258 20246 40033 75055 8677/ 333

56449 58015=

48042 21558 81802 10273 20226 40029 70255 8597/ 333

56449 59001=

48045 21020 91402 10180 20180 76364 89/// 333 56999=

48048 21558 81801 10265 20229 40019 75055 8697/ 333

5649/ 58011=

48051 21456 81304 10240 20240 76066 86920 333 56590=

48053 NIL=

48060 22340 80000 10240 20209 40095 85870 333 56660

58039=

48062 21340 82310 10260 20260 40012 75166 86920 333

56590 58038=

48071 21356 82305 10245 20245 40039 76596 8692/ 333

5659/ 58025=

48075 21456 81401 10210 20210 40103 75165 8677/ 333

5659/ 58021=

48077 22559 82301 10270 20256 40048 85970 333 56490

58009=

48078 21440 71802 10262 20253 40082 70255 8477/ 333

56499 59007=

48080 22459 82209 10280 20250 40051 85970 333 56590

58011=

48085 22358 82205 10282 20268 40065 85970 333 56990

58008=

48095 32458 62202 10280 20268 83670 333 56990=

48108 21494 82303 10250 20242 40122 75055 8532/ 333

5659/ 58010=

48109 32497 72310 10292 20259 40092 85930 333 56990

58001=

48110 22496 81302 10265 20242 40123 84357 333 56599

58012=

48112 22597 80502 10285 20254 40120 70222 84876 333

56299 58003=

48030 NIL=

48072 21458 82308 10280 20268 70365 8697/ 333 5659/=

48087 21450 81401 10280 20268 8537/ 333 5649/=

48099 21220 81301 10260 20246 40089 75066 8697/ 333

5649/ 59003=

48101 22558 71803 10278 20268 84971 333 56599=

48103 21450 62203 10266 20256 40099 70165 84770 333

56550 58002=

48057 21240 81504 10187 20187 75155 8692/ 333 5699/=

48094 22459 72202 10270 20260 40072 84970 333 56590

58005=

48097 21557 72303 10285 20264 40092 72165 85350 333

56590 59002=

48031 NIL=

48033 21561 71801 10260 20246 40036 86970 333 56490

58000=

48034 21148 82302 10200 20185 75355 8692/ 333 5659/=

48039 21456 81401 10265 20229 70255 889// 333 56499=

48043 22520 81805 10200 20200 8587/ 333 56599=

48052 22460 81302 10255 20246 85970 333 56390=

48055 21256 80000 10213 20205 40080 75055 8697/ 333

5639/ 58000=

48064 22450 83201 10257 20250 40006 84870 333 56440

58002=

48065 21456 80404 10263 20246 70250 85970 333 56490=

48074 21356 81409 10260 20246 40082 70265 8672/ 333

56499 58015=

48092 22457 82312 10285 20264 40068 70222 8537/ 333

5649/ 58013=

48093 21456 82301 10262 20240 70265 8637/ 333 56999=

48107 21350 62701 10268 20240 40102 70165 84970 333

56550 59004=  





