



*-*-*


<!--
.style2 {
	font-family:"Courier New", Courier, monospace;
	font-size: 14px;
}
-->






SMBM01 VBRR 310600

AAXX 31064

48001 NIL=

48004 31110 81301 10261 20215 75052 8697/ 333 56559= 09900

48008 21450 80401 10238 20209 40099 75055 8497/ 333 56119 59004=09900

48010 32558 70000 10280 20220 40084 8477/ 333 56559 59017=

48018 32558 70401 10290 20195 40095 84870 333 56550 59005=

48019 31456 53602 10295 20215 40084 70511 80020 333 56060 59022=

48020 31256 83602 10340 20257 70500 88700 333 56500=

48025 31430 73202 10340 20184 40085 70444 84840 333 56990 59033=

48030 31256 92204 10200 20085 70244 333=

48031 31256 71401 10205 20130 70544 84830 333 56490=

48033 32563 31801 10340 20257 40066 83500 333 56900 59031=

48034 32457 22303 10280 20126 82500 333 56500=

48035 31540 32704 10319 20089 40045 70500 83800 333 56900 59031=

48037 31560 60901 10344 20206 40078 70544 80035 333 56066 59024=

48039 32558 41402 10359 20177 82102 333 56707=

48042 32557 21806 10327 20171 40085 81102 333 56909 59013=

48043 32057 21801 10280 20126 80002 333 56009=

48045 32561 61406 10273 20113 85301 333 56509=

48048 32562 31801 10365 20195 40089 83800 333 56900 59010=

48051 NIL=

48052 32470 32202 10380 20203 83800 333 56900=

48053 31540 41804 10360 20264 40091 70522 83506 333 56509 59004=

48055 31558 22301 10320 20152 40060 70511 81101 333 56509 59025=

48057 32458 31803 10280 20126 81506 333 56409=

48060 32440 62201 10318 20163 40065 82132 333 56566 59024=

48062 32558 82306 10310 20280 40118 86870 333 56790 59012=

48064 32970 33601 10378 20240 40077 80001 333 56009 59008=

48065 32970 12203 10380 20187 80001 333 56009=

48071 32460 52704 AAXX 31064

48001 NIL=

48004 31110 81301 10261 20215 75052 8697/ 333 56559= 09900

48008 21450 80401 10238 20209 40099 75055 8497/ 333 56119 59004=09900

48010 32558 70000 10280 20220 40084 8477/ 333 56559 59017=

48018 32558 70401 10290 20195 40095 84870 333 56550 59005=

48019 31456 53602 10295 20215 40084 70511 80020 333 56060 59022=

48020 31256 83602 10340 20257 70500 88700 333 56500=

48025 31430 73202 10340 20184 40085 70444 84840 333 56990 59033=

48030 31256 92204 10200 20085 70244 333=

48031 31256 71401 10205 20130 70544 84830 333 56490=

48033 32563 31801 10340 20257 40066 83500 333 56900 59031=

48034 32457 22303 10280 20126 82500 333 56500=

48035 31540 32704 10319 20089 40045 70500 83800 333 56900 59031=

48037 31560 60901 10344 20206 40078 70544 80035 333 56066 59024=

48039 32558 41402 10359 20177 82102 333 56707=

48042 32557 21806 10327 20171 40085 81102 333 56909 59013=

48043 32057 21801 10280 20126 80002 333 56009=

48045 32561 61406 10273 20113 85301 333 56509=

48048 32562 31801 10365 20195 40089 83800 333 56900 59010=

48051 NIL=

48052 32470 32202 10380 20203 83800 333 56900=

48053 31540 41804 10360 20264 40091 70522 83506 333 56509 59004=

48055 31558 22301 10320 20152 40060 70511 81101 333 56509 59025=

48057 32458 31803 10280 20126 81506 333 56409=

48060 32440 62201 10318 20163 40065 82132 333 56566 59024=

48062 32558 82306 10310 20280 40118 86870 333 56790 59012=

48064 32970 33601 10378 20240 40077 80001 333 56009 59008=

48065 32970 12203 10380 20187 80001 333 56009=

48071 32460 52704 10320 20248 40121 85800 333 56900 59010=

48072 NIL=

48074 32960 01403 10355 20177 40117 333 59003=

48075 32558 22202 10320 20120 40097 81109 333 56309 58003=

48077 32959 02302 10370 20148 40106 333 58004=

48078 32558 22301 10373 20154 40110 81101 333 56909 58009=

48080 31459 53204 10331 20212 40114 70522 83806 333 56590 58002=

48085 32958 13208 10324 20236 40122 80006 333 56009 58002=

48087 32960 03205 10370 20125 333=

48092 32553 03703 10330 20212 40093 333 59003=

48093 32958 03201 10367 20274 333=

48094 32460 13203 10355 20240 40119 81100 333 56900 58000=

48095 NIL=

48096 32059 04208 10360 20102 40118 333 58007=

48097 32957 01304 10370 20148 40114 333 59008=

48099 32558 23203 10340 20237 40111 82800 333 56700 58002=

48101 NIL=

48103 32556 42201 10363 20214 40117 84800 333 56500 58007=

48107 32350 42302 10340 20240 40107 84900 333 56500 58003=

48108 32596 60501 10350 20240 40128 84336 333 56199 58001=

48109 NIL=

48110 31596 32303 10340 20263 40120 70511 82305 333 56909 58004=

48112 32597 83202 10350 20266 40114 70222 83976 333 56799 58004=



10320 20248 40121 85800 333 56900 59010=

48072 NIL=

48074 32960 01403 10355 20177 40117 333 59003=

48075 32558 22202 10320 20120 40097 81109 333 56309 58003=

48077 32959 02302 10370 20148 40106 333 58004=

48078 32558 22301 10373 20154 40110 81101 333 56909 58009=

48080 31459 53204 10331 20212 40114 70522 83806 333 56590 58002=

48085 32958 13208 10324 20236 40122 80006 333 56009 58002=

48087 32960 03205 10370 20125 333=

48092 32553 03703 10330 20212 40093 333 59003=

48093 32958 03201 10367 20274 333=

48094 32460 13203 10355 20240 40119 81100 333 56900 58000=

48095 NIL=

48096 32059 04208 10360 20102 40118 333 58007=

48097 32957 01304 10370 20148 40114 333 59008=

48099 32558 23203 10340 20237 40111 82800 333 56700 58002=

48101 NIL=

48103 32556 42201 10363 20214 40117 84800 333 56500 58007=

48107 32350 42302 10340 20240 40107 84900 333 56500 58003=

48108 32596 60501 10350 20240 40128 84336 333 56199 58001=

48109 NIL=

48110 31596 32303 10340 20263 40120 70511 82305 333 56909 58004=

48112 32597 83202 10350 20266 40114 70222 83976 333 56799 58004=  





